{
  "type": "FeatureCollection",
  "features": [
    {
      "geometry": {
        "type": "MultiPolygon",
        "coordinates": [
          [30.3407076, 29.8779637],
          [30.3357583, 29.87665],
          [29.6305095, 30.2578132],
          [29.7184184, 30.5008656],
          [29.9151231, 30.5793779],
          [29.9360365, 30.5918381],
          [29.863752, 30.647808],
          [29.8096248, 30.6664834],
          [29.7655307, 30.6725006],
          [29.759171, 30.7390291],
          [29.7566271, 30.743226],
          [29.7615029, 30.7486918],
          [29.7701945, 30.7525177],
          [29.7854579, 30.744137],
          [29.7933015, 30.7372132],
          [29.8015692, 30.7390353],
          [29.8138646, 30.7465055],
          [29.8323079, 30.7328401],
          [29.8499031, 30.7419506],
          [29.8560508, 30.73448],
          [29.8702542, 30.7410396],
          [29.8806418, 30.7388531],
          [29.8855176, 30.7437726],
          [29.8814898, 30.748874],
          [29.8849055, 30.7514308],
          [29.8988969, 30.7437788],
          [29.9164922, 30.756714],
          [29.920096, 30.7558031],
          [29.9557105, 30.788407],
          [29.920308, 30.8206935],
          [29.8524673, 30.9326977],
          [29.8772702, 30.9437893],
          [29.8876579, 30.9501527],
          [29.9111339, 30.9537888],
          [29.9056222, 30.9637873],
          [29.9132538, 30.9685134],
          [29.9160097, 30.9779651],
          [29.9149498, 30.9841445],
          [29.909862, 30.98799],
          [29.8990505, 31.001074],
          [29.9056222, 31.0057983],
          [29.908802, 31.0179715],
          [29.9223695, 31.02433],
          [29.9189776, 31.0321413],
          [29.9264009, 31.0375174],
          [29.9225851, 31.043148],
          [29.9314887, 31.0476887],
          [29.9309695, 31.0499182],
          [29.9292736, 31.0513711],
          [29.9349973, 31.0557297],
          [29.9390251, 31.0664438],
          [29.9477168, 31.0678965],
          [29.9409331, 31.0744332],
          [29.9504726, 31.0809695],
          [29.9504726, 31.0844191],
          [29.9593348, 31.0949295],
          [29.9606067, 31.1005568],
          [29.9695104, 31.1121733],
          [29.9699343, 31.1205219],
          [29.9849857, 31.1388497],
          [29.9828658, 31.1399384],
          [29.9849857, 31.1580811],
          [30.002369, 31.1640675],
          [30.002581, 31.1600766],
          [30.024628, 31.1669698],
          [30.0233561, 31.1711417],
          [30.0265359, 31.1716859],
          [30.026999, 31.1753547],
          [30.0307959, 31.1780486],
          [30.0303329, 31.1824855],
          [30.034778, 31.1825647],
          [30.0387226, 31.1910698],
          [30.0420565, 31.1926542],
          [30.0428899, 31.1942386],
          [30.043816, 31.1944762],
          [30.0437234, 31.1956645],
          [30.0413156, 31.1965359],
          [30.0423343, 31.1995461],
          [30.0426121, 31.2020809],
          [30.043353, 31.2060414],
          [30.0456682, 31.2089721],
          [30.0476129, 31.2103978],
          [30.0533546, 31.2086552],
          [30.0808388, 31.2842465],
          [30.0822279, 31.2842465],
          [30.0829688, 31.2796561],
          [30.0828762, 31.27744],
          [30.0836171, 31.2751446],
          [30.0851914, 31.2723743],
          [30.0894865, 31.2699997],
          [30.1306044, 31.2672292],
          [30.1305118, 31.2702372],
          [30.1312527, 31.2702372],
          [30.1310675, 31.2716619],
          [30.149569, 31.2739574],
          [30.1629046, 31.2740365],
          [30.1898535, 31.2763319],
          [30.2484926, 31.299305],
          [30.2902195, 31.3282674],
          [30.2993651, 31.3368601],
          [30.2956608, 31.3422386],
          [30.3009394, 31.3482496],
          [30.3037176, 31.345086],
          [30.3128858, 31.3591633],
          [30.3362188, 31.3963388],
          [30.3577945, 31.4425387],
          [30.3564054, 31.4460006],
          [30.3622397, 31.4693837],
          [30.3668266, 31.4631822],
          [30.3838352, 31.4446989],
          [30.3927187, 31.4412791],
          [30.4025772, 31.4417412],
          [30.4143583, 31.4404251],
          [30.4218871, 31.4372134],
          [30.4275337, 31.4285812],
          [30.4294159, 31.4195467],
          [30.427769, 31.4038848],
          [30.4249457, 31.3898271],
          [30.4218871, 31.3810837],
          [30.4218871, 31.3772673],
          [30.4280042, 31.376263],
          [30.4350624, 31.376263],
          [30.444944, 31.3774682],
          [30.4512963, 31.3694332],
          [30.4541267, 31.3537507],
          [30.4567148, 31.3451108],
          [30.461185, 31.3364702],
          [30.4673021, 31.337274],
          [30.4734192, 31.3441062],
          [30.4764778, 31.347723],
          [30.4863593, 31.347723],
          [30.4960055, 31.3433024],
          [30.5098867, 31.3348626],
          [30.5195329, 31.3272259],
          [30.520474, 31.3211965],
          [30.5192976, 31.3081314],
          [30.5183565, 31.292189],
          [30.5200034, 31.2817339],
          [30.5188271, 31.2714787],
          [30.5124747, 31.2610213],
          [30.5025932, 31.2525741],
          [30.4957702, 31.2431204],
          [30.4978877, 31.2336657],
          [30.5056517, 31.2288374],
          [30.5141216, 31.2268255],
          [30.5200034, 31.2300445],
          [30.5242384, 31.2270267],
          [30.5242384, 31.2181741],
          [30.5229007, 31.2145417],
          [30.5205479, 31.2050842],
          [30.5226654, 31.1970344],
          [30.5313705, 31.1940156],
          [30.5398404, 31.1905942],
          [30.5468986, 31.1940156],
          [30.5523099, 31.1990469],
          [30.5572507, 31.2024681],
          [30.5659558, 31.2012606],
          [30.5723082, 31.1960282],
          [30.5779548, 31.1907955],
          [30.5845424, 31.1851599],
          [30.5930123, 31.1785175],
          [30.6068935, 31.1736864],
          [30.6126856, 31.1649086],
          [30.6162148, 31.1522246],
          [30.6228024, 31.1407472],
          [30.6331545, 31.1341017],
          [30.6446829, 31.1226221],
          [30.6609168, 31.1073137],
          [30.6844442, 31.0944206],
          [30.716538, 31.0737243],
          [30.7235962, 31.066268],
          [30.7255844, 31.0577931],
          [30.7232317, 31.0408616],
          [30.7199378, 31.0253385],
          [30.7208789, 31.0200964],
          [30.7274666, 31.0144506],
          [30.7472296, 31.0086029],
          [30.7549936, 31.0011416],
          [30.7596991, 30.9934678],
          [30.7599344, 30.9835848],
          [30.7547584, 30.9773318],
          [30.7486412, 30.9751129],
          [30.7472296, 30.9688593],
          [30.7507587, 30.962],
          [30.7554642, 30.9565527],
          [30.761346, 30.9513067],
          [30.7676984, 30.9472712],
          [30.7738155, 30.9436391],
          [30.7804032, 30.9402086],
          [30.7841676, 30.9316821],
          [30.7832265, 30.9240128],
          [30.7801679, 30.9157375],
          [30.7719334, 30.9058465],
          [30.7632282, 30.8989827],
          [30.7596991, 30.8931279],
          [30.7549936, 30.8854556],
          [30.7564053, 30.8810135],
          [30.7636988, 30.8779846],
          [30.7742861, 30.8763692],
          [30.7862851, 30.8727344],
          [30.7916964, 30.86708],
          [30.7942844, 30.8602134],
          [30.7926375, 30.851353],
          [30.787932, 30.8418593],
          [30.7808738, 30.8374152],
          [30.7728744, 30.8317587],
          [30.7644046, 30.8267079],
          [30.7622871, 30.8208488],
          [30.7665221, 30.8182221],
          [30.7738155, 30.8196365],
          [30.7844029, 30.8261018],
          [30.7999309, 30.8293344],
          [30.809378, 30.8240942],
          [30.811966, 30.818841],
          [30.8103191, 30.8150019],
          [30.8023198, 30.8113648],
          [30.7938499, 30.8081317],
          [30.7851448, 30.8008567],
          [30.7743222, 30.7917623],
          [30.7613821, 30.781612],
          [30.7559708, 30.7767608],
          [30.7543239, 30.7698878],
          [30.7559708, 30.7634186],
          [30.7616174, 30.75796],
          [30.7689109, 30.7595774],
          [30.7752633, 30.7632165],
          [30.7811451, 30.7644295],
          [30.7905561, 30.7605882],
          [30.7952616, 30.7516922],
          [30.7966732, 30.7482439],
          [30.7959674, 30.7423799],
          [30.7926736, 30.7361111],
          [30.7905561, 30.7340888],
          [30.7846742, 30.7306509],
          [30.7772987, 30.7274809],
          [30.7690851, 30.7267605],
          [30.7642239, 30.7248872],
          [30.7623801, 30.7218612],
          [30.7627153, 30.7166734],
          [30.7684146, 30.7114854],
          [30.7741093, 30.7045835],
          [30.7801438, 30.6992507],
          [30.7860107, 30.6980976],
          [30.7927157, 30.6940617],
          [30.7974093, 30.6890166],
          [30.8029409, 30.6833946],
          [30.8029409, 30.6784931],
          [30.8015999, 30.6720055],
          [30.7975769, 30.6627807],
          [30.7938891, 30.6585991],
          [30.7912071, 30.65485],
          [30.7907042, 30.6521101],
          [30.7886927, 30.6486491],
          [30.7861784, 30.6450438],
          [30.786346, 30.6412942],
          [30.7885251, 30.6388424],
          [30.7922129, 30.6362463],
          [30.7940567, 30.6327848],
          [30.7979121, 30.6249473],
          [30.799756, 30.6227836],
          [30.8004265, 30.6191774],
          [30.8031085, 30.6145611],
          [30.80512, 30.6109546],
          [30.8049523, 30.6064822],
          [30.8052876, 30.6012883],
          [30.8084725, 30.5971041],
          [30.8111545, 30.5923425],
          [30.8133336, 30.587725],
          [30.8176919, 30.5849832],
          [30.8237264, 30.5836845],
          [30.8309343, 30.5852718],
          [30.8344544, 30.586282],
          [30.8362983, 30.5841174],
          [30.8356278, 30.5803927],
          [30.8324429, 30.5772178],
          [30.819871, 30.5679811],
          [30.814507, 30.5617747],
          [30.8128307, 30.5561454],
          [30.8135012, 30.5505256],
          [30.8166861, 30.5444625],
          [30.821212, 30.542297],
          [30.8302638, 30.542297],
          [30.8369688, 30.5444625],
          [30.8425004, 30.5459061],
          [30.8465234, 30.5459061],
          [30.8495407, 30.5433076],
          [30.8508817, 30.5378215],
          [30.8495407, 30.5333457],
          [30.8463558, 30.526704],
          [30.8436738, 30.5220833],
          [30.8383098, 30.5190509],
          [30.8354602, 30.5152592],
          [30.834622, 30.510638],
          [30.8304314, 30.5022616],
          [30.8307667, 30.4985064],
          [30.8329458, 30.4927289],
          [30.8352925, 30.4863732],
          [30.8264084, 30.4829063],
          [30.8262408, 30.4810284],
          [30.8202063, 30.4800172],
          [30.81853, 30.485651],
          [30.8161832, 30.4853621],
          [30.8163509, 30.4820396],
          [30.8027732, 30.4807395],
          [30.8019351, 30.4765501],
          [30.8027732, 30.4732067],
          [30.7975768, 30.4723398],
          [30.7982473, 30.4708951],
          [30.7957329, 30.4688725],
          [30.7957329, 30.4643936],
          [30.7896984, 30.4629487],
          [30.7913747, 30.4610704],
          [30.7947272, 30.4610704],
          [30.7960682, 30.4573136],
          [30.7933862, 30.4551462],
          [30.8005941, 30.4455482],
          [30.8007617, 30.4417908],
          [30.807802, 30.4339866],
          [30.7987502, 30.4322522],
          [30.7969063, 30.4277717],
          [30.7866812, 30.4299397],
          [30.7866812, 30.4283498],
          [30.7722654, 30.4295061],
          [30.7677395, 30.4287834],
          [30.7632136, 30.427338],
          [30.7596935, 30.4284944],
          [30.7580172, 30.4300842],
          [30.7367195, 30.4304835],
          [30.7293116, 30.426092],
          [30.7232927, 30.4201033],
          [30.7256076, 30.4169092],
          [30.7172737, 30.4133157],
          [30.7107918, 30.4113193],
          [30.7047729, 30.4017358],
          [30.7033839, 30.3929501],
          [30.6986994, 30.383733],
          [30.6885136, 30.3809371],
          [30.6857356, 30.3865288],
          [30.6824946, 30.3833336],
          [30.6801797, 30.3877269],
          [30.6713828, 30.3921201],
          [30.6723088, 30.4667739],
          [30.6672158, 30.4683702],
          [30.65703, 30.4683702],
          [30.6454551, 30.4659758],
          [30.6232314, 30.4472177],
          [30.6051746, 30.4627832],
          [30.5926738, 30.467572],
          [30.5834139, 30.461985],
          [30.5349007, 30.498295],
          [30.4923053, 30.4659758],
          [30.4742485, 30.4599896],
          [30.3932785, 30.4100901],
          [30.3779997, 30.3921201],
          [30.436578, 30.3578574],
          [30.5434637, 30.3186684],
          [30.6896384, 30.2452491],
          [30.7036782, 30.2363385],
          [30.341672, 29.8739435]
        ]
      },
      "type": "Feature",
      "properties": {
        "source": "https://simplemaps.com",
        "id": "EG",
        "name": "Egypt"
      },
      "id": 1
    }
  ]
}
