{
  "type": "FeatureCollection",
  "features": [
    {
      "geometry": {
        "type": "MultiPolygon",
         "coordinates": [
    [
 [
      [
        31.2528763,
        30.5779729
      ],
      [
        31.2512706,
        30.5794809
      ],
      [
        31.2513156,
        30.5803711
      ],
      [
        31.2492027,
        30.5806614
      ],
      [
        31.2484385,
        30.5805646
      ],
      [
        31.2477192,
        30.5806033
      ],
      [
        31.2470898,
        30.5804872
      ],
      [
        31.2468875,
        30.5803711
      ],
      [
        31.2466402,
        30.5802743
      ],
      [
        31.246393,
        30.5802743
      ],
      [
        31.2459884,
        30.5804485
      ],
      [
        31.2455388,
        30.5804485
      ],
      [
        31.2449203,
        30.5806418
      ],
      [
        31.244673,
        30.580874
      ],
      [
        31.2434817,
        30.5811642
      ],
      [
        31.2428299,
        30.5807772
      ],
      [
        31.2427849,
        30.5812029
      ],
      [
        31.244122,
        30.592104
      ],
      [
        31.2332821,
        30.5900487
      ],
      [
        31.2325658,
        30.5935838
      ],
      [
        31.227313,
        30.593666
      ],
      [
        31.2270742,
        30.5942004
      ],
      [
        31.2269309,
        30.5957181
      ],
      [
        31.227313,
        30.5964169
      ],
      [
        31.2276472,
        30.5979378
      ],
      [
        31.227313,
        30.5989242
      ],
      [
        31.227504,
        30.5995819
      ],
      [
        31.227504,
        30.6013082
      ],
      [
        31.2271219,
        30.602418
      ],
      [
        31.2271219,
        30.602829
      ],
      [
        31.2275995,
        30.6033222
      ],
      [
        31.2259759,
        30.6053953
      ],
      [
        31.2258326,
        30.6062584
      ],
      [
        31.2261669,
        30.6081079
      ],
      [
        31.2272652,
        30.6105738
      ],
      [
        31.2275517,
        30.6113958
      ],
      [
        31.2274562,
        30.6120122
      ],
      [
        31.2272652,
        30.6122999
      ],
      [
        31.2241338,
        30.6126191
      ],
      [
        31.2215552,
        30.6126602
      ],
      [
        31.218499,
        30.6127013
      ],
      [
        31.2168276,
        30.6128246
      ],
      [
        31.2142967,
        30.6131534
      ],
      [
        31.2148698,
        30.6135643
      ],
      [
        31.2151085,
        30.6139342
      ],
      [
        31.2152995,
        30.6148383
      ],
      [
        31.2175917,
        30.6178795
      ],
      [
        31.2166844,
        30.6184959
      ],
      [
        31.2163501,
        30.6189479
      ],
      [
        31.2161591,
        30.6189479
      ],
      [
        31.2159681,
        30.6221533
      ],
      [
        31.2145833,
        30.6214547
      ],
      [
        31.2135804,
        30.6213725
      ],
      [
        31.2134372,
        30.6217012
      ],
      [
        31.2064175,
        30.6260982
      ],
      [
        31.1958759,
        30.6330849
      ],
      [
        31.1958282,
        30.6316057
      ],
      [
        31.1946343,
        30.6315646
      ],
      [
        31.1943478,
        30.628565
      ],
      [
        31.1871849,
        30.6300854
      ],
      [
        31.1866119,
        30.6297978
      ],
      [
        31.1862298,
        30.6293869
      ],
      [
        31.1844152,
        30.6298799
      ],
      [
        31.1832692,
        30.6296745
      ],
      [
        31.1832692,
        30.6313181
      ],
      [
        31.1826961,
        30.6318523
      ],
      [
        31.1824096,
        30.6314825
      ],
      [
        31.178296,
        30.6308661
      ],
      [
        31.1776739,
        30.6346589
      ],
      [
        31.1772919,
        30.6353163
      ],
      [
        31.1774829,
        30.6373296
      ],
      [
        31.1770531,
        30.6396715
      ],
      [
        31.1763846,
        30.6419737
      ],
      [
        31.1772919,
        30.6430008
      ],
      [
        31.1775307,
        30.6446442
      ],
      [
        31.1839773,
        30.6436993
      ],
      [
        31.1866037,
        30.6434938
      ],
      [
        31.1883706,
        30.6434938
      ],
      [
        31.1908537,
        30.6437814
      ],
      [
        31.1910447,
        30.6440279
      ],
      [
        31.1947695,
        30.6440279
      ],
      [
        31.1940054,
        30.6522231
      ],
      [
        31.1932414,
        30.6525517
      ],
      [
        31.1887526,
        30.6519766
      ],
      [
        31.1829267,
        30.6525517
      ],
      [
        31.1825925,
        30.6561257
      ],
      [
        31.1805869,
        30.6564954
      ],
      [
        31.179011,
        30.6584672
      ],
      [
        31.1781992,
        30.6586725
      ],
      [
        31.1772442,
        30.6586725
      ],
      [
        31.1767189,
        30.6583028
      ],
      [
        31.1759205,
        30.6585904
      ],
      [
        31.1735329,
        30.6589601
      ],
      [
        31.1721958,
        30.6592066
      ],
      [
        31.171002,
        30.6597406
      ],
      [
        31.1697604,
        30.6596173
      ],
      [
        31.1616111,
        30.6605018
      ],
      [
        31.1611813,
        30.6625967
      ],
      [
        31.1598442,
        30.6623913
      ],
      [
        31.156597,
        30.6631307
      ],
      [
        31.1557375,
        30.6639933
      ],
      [
        31.1546392,
        30.664363
      ],
      [
        31.1568836,
        30.6656363
      ],
      [
        31.1550535,
        30.6667015
      ],
      [
        31.1537833,
        30.6667015
      ],
      [
        31.1535011,
        30.6691293
      ],
      [
        31.1429161,
        30.6702219
      ],
      [
        31.134307,
        30.6694935
      ],
      [
        31.1338836,
        30.6668229
      ],
      [
        31.1295084,
        30.6657303
      ],
      [
        31.1288028,
        30.6667015
      ],
      [
        31.1271092,
        30.6650019
      ],
      [
        31.1259801,
        30.6631809
      ],
      [
        31.1238631,
        30.6625739
      ],
      [
        31.1218873,
        30.6641521
      ],
      [
        31.1200525,
        30.6650019
      ],
      [
        31.1196291,
        30.6665801
      ],
      [
        31.1183589,
        30.6686438
      ],
      [
        31.1159597,
        30.6673084
      ],
      [
        31.1127136,
        30.6685224
      ],
      [
        31.1108789,
        30.6698577
      ],
      [
        31.1090442,
        30.6692507
      ],
      [
        31.1052336,
        30.6701005
      ],
      [
        31.1008584,
        30.6710716
      ],
      [
        31.0986003,
        30.6708288
      ],
      [
        31.0991648,
        30.6714358
      ],
      [
        31.0942252,
        30.6724069
      ],
      [
        31.0949309,
        30.6690079
      ],
      [
        31.0946486,
        30.6662159
      ],
      [
        31.090838,
        30.6662159
      ],
      [
        31.0911203,
        30.6674298
      ],
      [
        31.0854749,
        30.6682796
      ],
      [
        31.0857572,
        30.6738635
      ],
      [
        31.0882976,
        30.6813892
      ],
      [
        31.0885799,
        30.6852732
      ],
      [
        31.0877331,
        30.6869724
      ],
      [
        31.0705148,
        30.6896425
      ],
      [
        31.0703737,
        30.6949227
      ],
      [
        31.0702326,
        30.7012332
      ],
      [
        31.0722084,
        30.7083927
      ],
      [
        31.0640227,
        30.7139743
      ],
      [
        31.0610589,
        30.7140956
      ],
      [
        31.0610589,
        30.7114262
      ],
      [
        31.0561193,
        30.7121542
      ],
      [
        31.0559781,
        30.7099701
      ],
      [
        31.0499914,
        30.7109409
      ],
      [
        31.0485801,
        30.7083927
      ],
      [
        31.0482978,
        30.7045096
      ],
      [
        31.0466042,
        30.7020826
      ],
      [
        31.0430759,
        30.7023253
      ],
      [
        31.0412411,
        30.7056018
      ],
      [
        31.0316441,
        30.7073006
      ],
      [
        31.0307973,
        30.7052377
      ],
      [
        31.0259988,
        30.7039029
      ],
      [
        31.0252931,
        30.7032961
      ],
      [
        31.0226116,
        30.7030534
      ],
      [
        31.020918,
        30.7036602
      ],
      [
        31.0204946,
        30.7059658
      ],
      [
        31.0125877,
        30.7057231
      ],
      [
        31.0125877,
        30.7073006
      ],
      [
        31.0120231,
        30.70815
      ],
      [
        31.0120231,
        30.7093634
      ],
      [
        31.0115997,
        30.7108195
      ],
      [
        31.0120231,
        30.7131249
      ],
      [
        30.9964985,
        30.7122756
      ],
      [
        30.9945226,
        30.7109409
      ],
      [
        30.9933936,
        30.7088781
      ],
      [
        30.9931113,
        30.7073006
      ],
      [
        30.989187,
        30.7065885
      ],
      [
        30.989187,
        30.705011
      ],
      [
        30.9867878,
        30.705011
      ],
      [
        30.9873523,
        30.7036761
      ],
      [
        30.985941,
        30.7034335
      ],
      [
        30.985241,
        30.7040247
      ],
      [
        30.9818538,
        30.7040247
      ],
      [
        30.9811481,
        30.7056022
      ],
      [
        30.9792617,
        30.7052571
      ],
      [
        30.9794028,
        30.7075627
      ],
      [
        30.9760156,
        30.7091401
      ],
      [
        30.9741809,
        30.712295
      ],
      [
        30.97531,
        30.7172697
      ],
      [
        30.9758745,
        30.7206669
      ],
      [
        30.977427,
        30.7230935
      ],
      [
        30.9775681,
        30.724792
      ],
      [
        30.9695235,
        30.725156
      ],
      [
        30.9652895,
        30.7167844
      ],
      [
        30.9617612,
        30.7170271
      ],
      [
        30.9621846,
        30.7213949
      ],
      [
        30.9631725,
        30.7217589
      ],
      [
        30.9655718,
        30.7237001
      ],
      [
        30.9662775,
        30.7272184
      ],
      [
        30.9610555,
        30.7319498
      ],
      [
        30.9589214,
        30.73111
      ],
      [
        30.9583568,
        30.7315952
      ],
      [
        30.9593448,
        30.7336576
      ],
      [
        30.9496066,
        30.742149
      ],
      [
        30.9463605,
        30.7462731
      ],
      [
        30.9462194,
        30.7455453
      ],
      [
        30.9428322,
        30.7445749
      ],
      [
        30.9418443,
        30.7429981
      ],
      [
        30.9391627,
        30.7456666
      ],
      [
        30.9366223,
        30.7456666
      ],
      [
        30.9336585,
        30.7465157
      ],
      [
        30.930977,
        30.7502758
      ],
      [
        30.9295657,
        30.7508822
      ],
      [
        30.9198275,
        30.7462731
      ],
      [
        30.9194041,
        30.7409359
      ],
      [
        30.9201098,
        30.7389951
      ],
      [
        30.9174283,
        30.7372968
      ],
      [
        30.9151701,
        30.7372968
      ],
      [
        30.9119241,
        30.737782
      ],
      [
        30.9120652,
        30.7358411
      ],
      [
        30.9075489,
        30.7354772
      ],
      [
        30.906561,
        30.7348707
      ],
      [
        30.9038795,
        30.7351133
      ],
      [
        30.9020447,
        30.7351133
      ],
      [
        30.8995044,
        30.7374181
      ],
      [
        30.8975285,
        30.7379033
      ],
      [
        30.8973874,
        30.7399655
      ],
      [
        30.8949881,
        30.7394803
      ],
      [
        30.8945647,
        30.7382673
      ],
      [
        30.8911775,
        30.738146
      ],
      [
        30.8876492,
        30.7353559
      ],
      [
        30.8876492,
        30.7342641
      ],
      [
        30.8892016,
        30.7352346
      ],
      [
        30.8925888,
        30.7343854
      ],
      [
        30.8942824,
        30.7224963
      ],
      [
        30.8910364,
        30.7224963
      ],
      [
        30.8897662,
        30.7232242
      ],
      [
        30.8862378,
        30.7222536
      ],
      [
        30.8858145,
        30.7248014
      ],
      [
        30.8841209,
        30.7256507
      ],
      [
        30.8832741,
        30.7251654
      ],
      [
        30.8829918,
        30.7218896
      ],
      [
        30.8815805,
        30.720919
      ],
      [
        30.8794635,
        30.7201911
      ],
      [
        30.8770642,
        30.7192204
      ],
      [
        30.8756529,
        30.7184925
      ],
      [
        30.8721245,
        30.7181285
      ],
      [
        30.8721245,
        30.7163085
      ],
      [
        30.8704309,
        30.7167938
      ],
      [
        30.868314,
        30.7163085
      ],
      [
        30.8669026,
        30.7181285
      ],
      [
        30.8646445,
        30.7171578
      ],
      [
        30.8643622,
        30.7198271
      ],
      [
        30.8645967,
        30.7198271
      ],
      [
        30.8644555,
        30.7241948
      ],
      [
        30.8617404,
        30.7246967
      ],
      [
        30.8618815,
        30.7261525
      ],
      [
        30.8611759,
        30.727851
      ],
      [
        30.8641397,
        30.7293068
      ],
      [
        30.8641397,
        30.730156
      ],
      [
        30.8631517,
        30.7311266
      ],
      [
        30.8607525,
        30.7311266
      ],
      [
        30.8606113,
        30.7333102
      ],
      [
        30.8535547,
        30.7337954
      ],
      [
        30.8535547,
        30.732461
      ],
      [
        30.850732,
        30.7325823
      ],
      [
        30.8501675,
        30.7284576
      ],
      [
        30.8435627,
        30.7266337
      ],
      [
        30.8437038,
        30.7212954
      ],
      [
        30.8400343,
        30.7214168
      ],
      [
        30.8404577,
        30.7182622
      ],
      [
        30.8370705,
        30.7177769
      ],
      [
        30.8363649,
        30.7187476
      ],
      [
        30.8346713,
        30.7187476
      ],
      [
        30.8338245,
        30.7216594
      ],
      [
        30.8271912,
        30.7223874
      ],
      [
        30.824792,
        30.7216594
      ],
      [
        30.8239452,
        30.7232367
      ],
      [
        30.822675,
        30.7232367
      ],
      [
        30.8228161,
        30.7284535
      ],
      [
        30.8236629,
        30.7334274
      ],
      [
        30.821687,
        30.7323356
      ],
      [
        30.8221104,
        30.7360962
      ],
      [
        30.8188644,
        30.7339126
      ],
      [
        30.8147715,
        30.7320929
      ],
      [
        30.8137836,
        30.7295453
      ],
      [
        30.814207,
        30.7221447
      ],
      [
        30.8156183,
        30.7199608
      ],
      [
        30.8112432,
        30.7187476
      ],
      [
        30.8091262,
        30.7171702
      ],
      [
        30.8029163,
        30.7171702
      ],
      [
        30.8019284,
        30.7152289
      ],
      [
        30.801505,
        30.7152289
      ],
      [
        30.8010816,
        30.7123168
      ],
      [
        30.8017873,
        30.7098901
      ],
      [
        30.799388,
        30.709162
      ],
      [
        30.7989646,
        30.7075845
      ],
      [
        30.7962831,
        30.7075845
      ],
      [
        30.7962831,
        30.7044296
      ],
      [
        30.7913434,
        30.7050363
      ],
      [
        30.7907789,
        30.7010317
      ],
      [
        30.7917668,
        30.6999396
      ],
      [
        30.7920491,
        30.6990901
      ],
      [
        30.7948718,
        30.6993328
      ],
      [
        30.795154,
        30.6947212
      ],
      [
        30.7941661,
        30.6929008
      ],
      [
        30.7912023,
        30.695328
      ],
      [
        30.7850287,
        30.6978985
      ],
      [
        30.7823472,
        30.698748
      ],
      [
        30.7764196,
        30.7021459
      ],
      [
        30.7716211,
        30.7078492
      ],
      [
        30.766258,
        30.7134309
      ],
      [
        30.763012,
        30.7180416
      ],
      [
        30.7623063,
        30.7215601
      ],
      [
        30.764141,
        30.7248358
      ],
      [
        30.7669637,
        30.7262917
      ],
      [
        30.7711977,
        30.7276262
      ],
      [
        30.7752906,
        30.7276262
      ],
      [
        30.781077,
        30.7293247
      ],
      [
        30.7857344,
        30.731387
      ],
      [
        30.7902507,
        30.7351477
      ],
      [
        30.7950492,
        30.7406065
      ],
      [
        30.7971662,
        30.7472055
      ],
      [
        30.7961782,
        30.7520572
      ],
      [
        30.7910975,
        30.7578788
      ],
      [
        30.7879925,
        30.7612746
      ],
      [
        30.7841819,
        30.7638214
      ],
      [
        30.7793834,
        30.764549
      ],
      [
        30.7755728,
        30.7628512
      ],
      [
        30.772609,
        30.7603044
      ],
      [
        30.7669637,
        30.758364
      ],
      [
        30.7620241,
        30.7581214
      ],
      [
        30.7579312,
        30.7600619
      ],
      [
        30.7552497,
        30.7655192
      ],
      [
        30.7544029,
        30.7703699
      ],
      [
        30.7553908,
        30.775948
      ],
      [
        30.7604716,
        30.7812981
      ],
      [
        30.7699275,
        30.7882092
      ],
      [
        30.7824883,
        30.7985142
      ],
      [
        30.7922289,
        30.8074559
      ],
      [
        30.8069068,
        30.8132742
      ],
      [
        30.8109996,
        30.8171529
      ],
      [
        30.8112819,
        30.8210314
      ],
      [
        30.8109996,
        30.8233342
      ],
      [
        30.8064834,
        30.8263641
      ],
      [
        30.800838,
        30.8285456
      ],
      [
        30.7947693,
        30.8286668
      ],
      [
        30.7887006,
        30.8276972
      ],
      [
        30.7807972,
        30.8239402
      ],
      [
        30.7771277,
        30.8206678
      ],
      [
        30.7719058,
        30.8184861
      ],
      [
        30.7655548,
        30.8184861
      ],
      [
        30.7637201,
        30.820183
      ],
      [
        30.7630144,
        30.8245462
      ],
      [
        30.766825,
        30.8286668
      ],
      [
        30.7714824,
        30.8312118
      ],
      [
        30.78489,
        30.8401586
      ],
      [
        30.7910999,
        30.8485194
      ],
      [
        30.7940637,
        30.8571219
      ],
      [
        30.7927935,
        30.8637852
      ],
      [
        30.7889829,
        30.8699568
      ],
      [
        30.7822085,
        30.8739543
      ],
      [
        30.7724703,
        30.8762559
      ],
      [
        30.7642846,
        30.8780728
      ],
      [
        30.7589215,
        30.8796475
      ],
      [
        30.7563811,
        30.8821911
      ],
      [
        30.7552521,
        30.8865515
      ],
      [
        30.7592038,
        30.892365
      ],
      [
        30.7719058,
        30.9071163
      ],
      [
        30.7767043,
        30.9102647
      ],
      [
        30.7831964,
        30.9216463
      ],
      [
        30.7840432,
        30.9273366
      ],
      [
        30.7829141,
        30.9337529
      ],
      [
        30.7808437,
        30.9386953
      ],
      [
        30.7773154,
        30.9419636
      ],
      [
        30.7696942,
        30.9457161
      ],
      [
        30.7596738,
        30.9518891
      ],
      [
        30.754593,
        30.9566094
      ],
      [
        30.7475363,
        30.9654441
      ],
      [
        30.7466895,
        30.9705268
      ],
      [
        30.7471129,
        30.973794
      ],
      [
        30.7514881,
        30.9757301
      ],
      [
        30.7547341,
        30.9775452
      ],
      [
        30.759956,
        30.9832303
      ],
      [
        30.7612262,
        30.9890379
      ],
      [
        30.7585447,
        30.9953291
      ],
      [
        30.7550164,
        31.0013779
      ],
      [
        30.753605,
        31.0035554
      ],
      [
        30.7565688,
        31.0058538
      ],
      [
        30.7558632,
        31.0108133
      ],
      [
        30.7574156,
        31.014563
      ],
      [
        30.7592504,
        31.014563
      ],
      [
        30.7632615,
        31.0155179
      ],
      [
        30.7682012,
        31.015155
      ],
      [
        30.7670721,
        31.0195093
      ],
      [
        30.7655197,
        31.0218073
      ],
      [
        30.7655197,
        31.0251938
      ],
      [
        30.7638261,
        31.0260404
      ],
      [
        30.7636849,
        31.0350206
      ],
      [
        30.7729997,
        31.0345369
      ],
      [
        30.7762458,
        31.0341741
      ],
      [
        30.7772337,
        31.0294576
      ],
      [
        30.7797741,
        31.0286111
      ],
      [
        30.7854194,
        31.0294576
      ],
      [
        30.7883832,
        31.0293367
      ],
      [
        30.78923,
        31.0275226
      ],
      [
        30.7944519,
        31.0215964
      ],
      [
        30.7969923,
        31.0063558
      ],
      [
        30.8053192,
        31.0084122
      ],
      [
        30.8106822,
        31.0108315
      ],
      [
        30.8111056,
        31.0097428
      ],
      [
        30.8119524,
        31.0103476
      ],
      [
        30.812517,
        31.0114363
      ],
      [
        30.8170332,
        31.0131297
      ],
      [
        30.8185857,
        31.0063558
      ],
      [
        30.8174566,
        31.0034526
      ],
      [
        30.8166098,
        31.0012751
      ],
      [
        30.81788,
        30.9989766
      ],
      [
        30.8183034,
        30.9977668
      ],
      [
        30.8194325,
        30.9998234
      ],
      [
        30.8215495,
        31.0006702
      ],
      [
        30.8228197,
        31.00188
      ],
      [
        30.8266303,
        31.0032106
      ],
      [
        30.8295941,
        31.0030897
      ],
      [
        30.8291707,
        31.0020009
      ],
      [
        30.8353805,
        31.0020009
      ],
      [
        30.8391911,
        31.0020009
      ],
      [
        30.8410258,
        31.0012751
      ],
      [
        30.8427194,
        31.0012751
      ],
      [
        30.8437074,
        31.0001863
      ],
      [
        30.8438485,
        30.9983717
      ],
      [
        30.8438485,
        30.9960731
      ],
      [
        30.845401,
        30.9953472
      ],
      [
        30.8476591,
        30.9947423
      ],
      [
        30.8483648,
        30.996557
      ],
      [
        30.8526218,
        31.0010399
      ],
      [
        30.8527629,
        31.0032174
      ],
      [
        30.8545977,
        31.0076932
      ],
      [
        30.8555856,
        31.0096287
      ],
      [
        30.8548799,
        31.0133784
      ],
      [
        30.8492346,
        31.0168861
      ],
      [
        30.849658,
        31.0178538
      ],
      [
        30.859255,
        31.0201518
      ],
      [
        30.861372,
        31.019789
      ],
      [
        30.86984,
        31.0212403
      ],
      [
        30.8722393,
        31.019789
      ],
      [
        30.8728038,
        31.0149509
      ],
      [
        30.8813876,
        31.0153137
      ],
      [
        30.8878797,
        31.0164023
      ],
      [
        30.8878797,
        31.0188214
      ],
      [
        30.8888677,
        31.0179747
      ],
      [
        30.8957832,
        31.0187004
      ],
      [
        30.8969122,
        31.014467
      ],
      [
        30.9014285,
        31.014467
      ],
      [
        30.901993,
        31.0092658
      ],
      [
        30.9063682,
        31.0053949
      ],
      [
        30.9100376,
        31.0059997
      ],
      [
        30.9113078,
        31.0069675
      ],
      [
        30.9139893,
        31.0070884
      ],
      [
        30.9121546,
        31.0112012
      ],
      [
        30.9132837,
        31.0127736
      ],
      [
        30.9098965,
        31.0230546
      ],
      [
        30.9107433,
        31.0232964
      ],
      [
        30.910461,
        31.0246268
      ],
      [
        30.9058036,
        31.0231755
      ],
      [
        30.9055214,
        31.0246268
      ],
      [
        30.9073561,
        31.0274085
      ],
      [
        30.9098965,
        31.0289807
      ],
      [
        30.9141305,
        31.0309157
      ],
      [
        30.9180822,
        31.0324878
      ],
      [
        30.9233041,
        31.0323669
      ],
      [
        30.9245743,
        31.0318832
      ],
      [
        30.92528,
        31.0301901
      ],
      [
        30.9262679,
        31.0297063
      ],
      [
        30.9368529,
        31.0298273
      ],
      [
        30.9371352,
        31.04059
      ],
      [
        30.9519541,
        31.0401063
      ],
      [
        30.9599987,
        31.0419202
      ],
      [
        30.959293,
        31.0393808
      ],
      [
        30.960281,
        31.0382924
      ],
      [
        30.9662086,
        31.0391389
      ],
      [
        30.9665763,
        31.0376914
      ],
      [
        30.9671409,
        31.0344263
      ],
      [
        30.9859116,
        31.0346682
      ],
      [
        30.9859116,
        31.0356356
      ],
      [
        30.9891548,
        31.0350358
      ],
      [
        30.9894371,
        31.0341893
      ],
      [
        31.0036915,
        31.0322544
      ],
      [
        31.00849,
        31.0322544
      ],
      [
        31.0194984,
        31.0287472
      ],
      [
        31.0213331,
        31.0294728
      ],
      [
        31.0271196,
        31.0260865
      ],
      [
        31.0297918,
        31.030314
      ],
      [
        31.0312031,
        31.030314
      ],
      [
        31.0330378,
        31.0314025
      ],
      [
        31.033179,
        31.0330955
      ],
      [
        31.036425,
        31.0373281
      ],
      [
        31.0345903,
        31.0381746
      ],
      [
        31.035296,
        31.0413186
      ],
      [
        31.0356014,
        31.0435674
      ],
      [
        31.0367305,
        31.048404
      ],
      [
        31.0409645,
        31.0485249
      ],
      [
        31.0446339,
        31.0516686
      ],
      [
        31.0473155,
        31.0505804
      ],
      [
        31.0491502,
        31.052515
      ],
      [
        31.0516906,
        31.0533613
      ],
      [
        31.049997,
        31.0609782
      ],
      [
        31.0528196,
        31.0621871
      ],
      [
        31.0507026,
        31.0661766
      ],
      [
        31.0504204,
        31.0706494
      ],
      [
        31.0621344,
        31.0712539
      ],
      [
        31.0612876,
        31.0782649
      ],
      [
        31.0590295,
        31.088297
      ],
      [
        31.060869,
        31.0937883
      ],
      [
        31.0724419,
        31.1010394
      ],
      [
        31.0711718,
        31.1027312
      ],
      [
        31.0694782,
        31.1038188
      ],
      [
        31.0669378,
        31.1063565
      ],
      [
        31.0648208,
        31.1078065
      ],
      [
        31.061857,
        31.1105857
      ],
      [
        31.0555036,
        31.1326398
      ],
      [
        31.0543745,
        31.1365055
      ],
      [
        31.0531487,
        31.13892
      ],
      [
        31.0538543,
        31.1420607
      ],
      [
        31.0575238,
        31.1452013
      ],
      [
        31.0603465,
        31.148221
      ],
      [
        31.0659918,
        31.1540185
      ],
      [
        31.0682499,
        31.1531731
      ],
      [
        31.0741775,
        31.1494288
      ],
      [
        31.0793994,
        31.1456844
      ],
      [
        31.0793994,
        31.1438726
      ],
      [
        31.0801051,
        31.1429062
      ],
      [
        31.0833511,
        31.1429062
      ],
      [
        31.0873029,
        31.1431478
      ],
      [
        31.0889965,
        31.1425439
      ],
      [
        31.0921014,
        31.1429062
      ],
      [
        31.0952766,
        31.1425184
      ],
      [
        31.1006397,
        31.1397401
      ],
      [
        31.1038857,
        31.1443303
      ],
      [
        31.1095311,
        31.1468669
      ],
      [
        31.1117892,
        31.1501281
      ],
      [
        31.1154539,
        31.1520667
      ],
      [
        31.117712,
        31.1506173
      ],
      [
        31.115595,
        31.1498926
      ],
      [
        31.1233574,
        31.1450611
      ],
      [
        31.1274502,
        31.1443364
      ],
      [
        31.12618,
        31.1399878
      ],
      [
        31.1309785,
        31.1384174
      ],
      [
        31.1314019,
        31.1396254
      ],
      [
        31.1385024,
        31.1329727
      ],
      [
        31.1412165,
        31.131269
      ],
      [
        31.1412165,
        31.1291007
      ],
      [
        31.1520726,
        31.1261579
      ],
      [
        31.153701,
        31.1244541
      ],
      [
        31.1553294,
        31.1244541
      ],
      [
        31.1560532,
        31.1252286
      ],
      [
        31.156596,
        31.1331275
      ],
      [
        31.1576816,
        31.1366896
      ],
      [
        31.1600338,
        31.1416453
      ],
      [
        31.1600338,
        31.1461361
      ],
      [
        31.1582244,
        31.1472201
      ],
      [
        31.1613003,
        31.1489235
      ],
      [
        31.1636525,
        31.1483041
      ],
      [
        31.1636525,
        31.1501623
      ],
      [
        31.1647381,
        31.1517107
      ],
      [
        31.1654618,
        31.1529495
      ],
      [
        31.176137,
        31.1571301
      ],
      [
        31.176137,
        31.1551172
      ],
      [
        31.1776089,
        31.1539036
      ],
      [
        31.1785136,
        31.1560714
      ],
      [
        31.1805039,
        31.15731
      ],
      [
        31.188646,
        31.1546778
      ],
      [
        31.1920838,
        31.1571552
      ],
      [
        31.1933503,
        31.1570004
      ],
      [
        31.1935312,
        31.1535939
      ],
      [
        31.2071014,
        31.1520455
      ],
      [
        31.2105392,
        31.1552972
      ],
      [
        31.2128913,
        31.1552972
      ],
      [
        31.2150626,
        31.1571552
      ],
      [
        31.219405,
        31.1571552
      ],
      [
        31.2203097,
        31.1559165
      ],
      [
        31.2203097,
        31.1511164
      ],
      [
        31.2210334,
        31.1500325
      ],
      [
        31.2210334,
        31.1478646
      ],
      [
        31.2197669,
        31.1470903
      ],
      [
        31.2199478,
        31.1446127
      ],
      [
        31.2215762,
        31.1416704
      ],
      [
        31.2226619,
        31.1405863
      ],
      [
        31.2259187,
        31.1425995
      ],
      [
        31.2302611,
        31.1407412
      ],
      [
        31.2304421,
        31.1384182
      ],
      [
        31.2284518,
        31.1356306
      ],
      [
        31.2284518,
        31.1343916
      ],
      [
        31.230623,
        31.1311392
      ],
      [
        31.2302611,
        31.1295904
      ],
      [
        31.2271852,
        31.1271123
      ],
      [
        31.2275471,
        31.1235499
      ],
      [
        31.2297183,
        31.1216912
      ],
      [
        31.2311658,
        31.1192129
      ],
      [
        31.2304421,
        31.1170443
      ],
      [
        31.2293565,
        31.1136364
      ],
      [
        31.2288137,
        31.1116226
      ],
      [
        31.2288137,
        31.1092989
      ],
      [
        31.230623,
        31.1085243
      ],
      [
        31.2355083,
        31.1086792
      ],
      [
        31.2371367,
        31.1071301
      ],
      [
        31.2371367,
        31.103412
      ],
      [
        31.2355083,
        31.0979895
      ],
      [
        31.2346036,
        31.0970599
      ],
      [
        31.2369558,
        31.0958204
      ],
      [
        31.2388628,
        31.0944132
      ],
      [
        31.2374153,
        31.0939484
      ],
      [
        31.2352441,
        31.0933286
      ],
      [
        31.2348822,
        31.092244
      ],
      [
        31.2350631,
        31.0911594
      ],
      [
        31.2347012,
        31.0894551
      ],
      [
        31.2323491,
        31.0894551
      ],
      [
        31.2303588,
        31.0893001
      ],
      [
        31.2303588,
        31.086666
      ],
      [
        31.2283685,
        31.0843417
      ],
      [
        31.2247498,
        31.0848066
      ],
      [
        31.2216739,
        31.0846516
      ],
      [
        31.2234832,
        31.0829471
      ],
      [
        31.2180552,
        31.0843417
      ],
      [
        31.2180673,
        31.0704211
      ],
      [
        31.2155342,
        31.0670115
      ],
      [
        31.2126393,
        31.0656166
      ],
      [
        31.2110108,
        31.0622069
      ],
      [
        31.2126393,
        31.060967
      ],
      [
        31.2157152,
        31.059417
      ],
      [
        31.2130011,
        31.053062
      ],
      [
        31.2115536,
        31.0494968
      ],
      [
        31.2115536,
        31.0476367
      ],
      [
        31.2139058,
        31.0476367
      ],
      [
        31.2175245,
        31.0481017
      ],
      [
        31.2195148,
        31.0476367
      ],
      [
        31.2242191,
        31.0482567
      ],
      [
        31.2307328,
        31.0491868
      ],
      [
        31.2336278,
        31.0491868
      ],
      [
        31.2348943,
        31.0476367
      ],
      [
        31.235799,
        31.0459315
      ],
      [
        31.2410461,
        31.042056
      ],
      [
        31.2392368,
        31.0395756
      ],
      [
        31.2471973,
        31.0378703
      ],
      [
        31.2490066,
        31.0389555
      ],
      [
        31.2547965,
        31.0391105
      ],
      [
        31.258087,
        31.0381631
      ],
      [
        31.258087,
        31.0428138
      ],
      [
        31.2600724,
        31.0447957
      ],
      [
        31.2600724,
        31.0483611
      ],
      [
        31.2647767,
        31.0513063
      ],
      [
        31.2691192,
        31.0500662
      ],
      [
        31.2736425,
        31.0519263
      ],
      [
        31.283594,
        31.047276
      ],
      [
        31.283594,
        31.0494462
      ],
      [
        31.2870318,
        31.0514613
      ],
      [
        31.2930026,
        31.0598314
      ],
      [
        31.3036778,
        31.0567314
      ],
      [
        31.3020494,
        31.0519263
      ],
      [
        31.2926408,
        31.0364243
      ],
      [
        31.2968023,
        31.0328585
      ],
      [
        31.2998782,
        31.0333236
      ],
      [
        31.2998782,
        31.0306879
      ],
      [
        31.3025922,
        31.0278971
      ],
      [
        31.3025922,
        31.0265017
      ],
      [
        31.3047634,
        31.0251062
      ],
      [
        31.3038588,
        31.0247961
      ],
      [
        31.3036778,
        31.0237108
      ],
      [
        31.3058491,
        31.0223153
      ],
      [
        31.3063919,
        31.0206097
      ],
      [
        31.3058491,
        31.0190591
      ],
      [
        31.3062109,
        31.0184388
      ],
      [
        31.3092868,
        31.0184388
      ],
      [
        31.308925,
        31.0154926
      ],
      [
        31.3110962,
        31.0125155
      ],
      [
        31.3101915,
        31.01143
      ],
      [
        31.3056681,
        31.0069327
      ],
      [
        31.3040397,
        31.0035209
      ],
      [
        31.3013257,
        30.995301
      ],
      [
        31.2989735,
        30.9861497
      ],
      [
        31.2955357,
        30.9810308
      ],
      [
        31.292098,
        30.9801
      ],
      [
        31.2843177,
        30.9790141
      ],
      [
        31.2727379,
        30.9751359
      ],
      [
        31.264053,
        30.9721883
      ],
      [
        31.2542825,
        30.9679943
      ],
      [
        31.247226,
        30.9608574
      ],
      [
        31.2421598,
        30.9558923
      ],
      [
        31.2390839,
        30.9532544
      ],
      [
        31.238722,
        30.9493752
      ],
      [
        31.241617,
        30.9459613
      ],
      [
        31.2492224,
        30.9385011
      ],
      [
        31.2577264,
        30.9330693
      ],
      [
        31.2604404,
        30.929034
      ],
      [
        31.2609832,
        30.9222046
      ],
      [
        31.2602595,
        30.9177032
      ],
      [
        31.2570027,
        30.9139777
      ],
      [
        31.2528411,
        30.9107177
      ],
      [
        31.244699,
        30.9077682
      ],
      [
        31.2374616,
        30.9043528
      ],
      [
        31.2327573,
        30.9005533
      ],
      [
        31.2327573,
        30.8976034
      ],
      [
        31.2356523,
        30.894964
      ],
      [
        31.2425278,
        30.8918587
      ],
      [
        31.2463275,
        30.888598
      ],
      [
        31.247594,
        30.8839397
      ],
      [
        31.2437944,
        30.8802129
      ],
      [
        31.2356523,
        30.8794365
      ],
      [
        31.2331192,
        30.8778836
      ],
      [
        31.2343857,
        30.8746224
      ],
      [
        31.2396328,
        30.8732248
      ],
      [
        31.2463275,
        30.8700497
      ],
      [
        31.2486796,
        30.8658564
      ],
      [
        31.2515746,
        30.8580906
      ],
      [
        31.253203,
        30.8509455
      ],
      [
        31.2517555,
        30.844732
      ],
      [
        31.2459656,
        30.8417804
      ],
      [
        31.2389091,
        30.8408483
      ],
      [
        31.2342048,
        30.8425571
      ],
      [
        31.2255199,
        30.8433339
      ],
      [
        31.2204537,
        30.8396055
      ],
      [
        31.2162922,
        30.8344787
      ],
      [
        31.2171969,
        30.8291963
      ],
      [
        31.2199109,
        30.8194023
      ],
      [
        31.2217202,
        30.8134975
      ],
      [
        31.2253389,
        30.8075923
      ],
      [
        31.233481,
        30.7951661
      ],
      [
        31.2370998,
        30.7856847
      ],
      [
        31.236376,
        30.7769797
      ],
      [
        31.2331192,
        30.7693622
      ],
      [
        31.2298623,
        30.7659419
      ],
      [
        31.2269674,
        30.7617441
      ],
      [
        31.2255199,
        30.7564577
      ],
      [
        31.2302242,
        30.7524149
      ],
      [
        31.2361951,
        30.7450234
      ],
      [
        31.2425278,
        30.7419133
      ],
      [
        31.2517555,
        30.738492
      ],
      [
        31.2542886,
        30.7349151
      ],
      [
        31.2548314,
        30.7276053
      ],
      [
        31.2513937,
        30.722317
      ],
      [
        31.250308,
        30.7178009
      ],
      [
        31.2517555,
        30.7125121
      ],
      [
        31.2570027,
        30.7086231
      ],
      [
        31.2613451,
        30.7034893
      ],
      [
        31.2651447,
        30.697733
      ],
      [
        31.2651447,
        30.6918207
      ],
      [
        31.2687635,
        30.6813929
      ],
      [
        31.2741915,
        30.6712779
      ],
      [
        31.2761818,
        30.661925
      ],
      [
        31.2761818,
        30.6522749
      ],
      [
        31.2732868,
        30.637798
      ],
      [
        31.2676778,
        30.6254712
      ],
      [
        31.2626117,
        30.6150389
      ],
      [
        31.2618879,
        30.6078758
      ],
      [
        31.2620688,
        30.5971248
      ],
      [
        31.2627926,
        30.5880912
      ],
      [
        31.2600786,
        30.5818607
      ],
      [
        31.2530221,
        30.5773433
          ]
             ]
   ]
]

    }, 
      "type": "Feature", 
      "properties": {
        "source": "https://simplemaps.com", 
        "id": "EG", 
        "name": "Egypt"
      }, 
      "id": 1
      
    }
  ]
}