{
  "type": "Feature",
  "properties": {},
  "geometry": {
    "type": "LineString",
    "coordinates": [
      [
        32.1820039,
        30.9670324
      ],
      [
        32.1564735,
        30.9487878
      ],
      [
        32.1580691,
        30.9150261
      ],
      [
        32.1548778,
        30.9090938
      ],
      [
        32.1511546,
        30.9077247
      ],
      [
        32.1468995,
        30.9013355
      ],
      [
        32.1405169,
        30.8990536
      ],
      [
        32.1383894,
        30.8935767
      ],
      [
        32.1415807,
        30.8858172
      ],
      [
        32.1415807,
        30.8821654
      ],
      [
        32.1277517,
        30.8620784
      ],
      [
        32.1213691,
        30.8593389
      ],
      [
        32.1197734,
        30.8488369
      ],
      [
        32.117114,
        30.8470103
      ],
      [
        32.1144546,
        30.8232619
      ],
      [
        32.1197734,
        30.8232619
      ],
      [
        32.1346662,
        30.7481116
      ],
      [
        32.13573,
        30.7467402
      ],
      [
        32.126156,
        30.7362259
      ],
      [
        32.1245604,
        30.6685409
      ],
      [
        32.121901,
        30.6561879
      ],
      [
        32.119794,
        30.6488158
      ],
      [
        32.1245809,
        30.6382908
      ],
      [
        32.1224534,
        30.6204414
      ],
      [
        32.0889447,
        30.6163219
      ],
      [
        32.0086301,
        30.6117444
      ],
      [
        31.976717,
        30.5893116
      ],
      [
        31.9442721,
        30.5879379
      ],
      [
        31.8862967,
        30.5732849
      ],
      [
        31.8517242,
        30.5700793
      ],
      [
        31.8086415,
        30.5829012
      ],
      [
        31.799041,
        30.5787566
      ],
      [
        31.7937222,
        30.5815041
      ],
      [
        31.7836164,
        30.5824199
      ],
      [
        31.7697874,
        30.5737194
      ],
      [
        31.7612772,
        30.5782987
      ],
      [
        31.7554265,
        30.5787566
      ],
      [
        31.748512,
        30.576467
      ],
      [
        31.748512,
        30.5718877
      ],
      [
        31.7378743,
        30.5663921
      ],
      [
        31.73947,
        30.5549421
      ],
      [
        31.7405337,
        30.5521939
      ],
      [
        31.7463845,
        30.5494456
      ],
      [
        31.748512,
        30.5311217
      ],
      [
        31.7527671,
        30.5311217
      ],
      [
        31.7554265,
        30.5247075
      ],
      [
        31.7857439,
        30.5302054
      ],
      [
        31.7995729,
        30.5292891
      ],
      [
        31.803828,
        30.5127944
      ],
      [
        31.8075512,
        30.5137108
      ],
      [
        31.8123381,
        30.506379
      ],
      [
        31.81287,
        30.4866719
      ],
      [
        31.7974454,
        30.4848385
      ],
      [
        31.7974069,
        30.4732507
      ],
      [
        31.7926199,
        30.4705001
      ],
      [
        31.7835779,
        30.4705001
      ],
      [
        31.7787909,
        30.4672911
      ],
      [
        31.7708127,
        30.4663742
      ],
      [
        31.76443,
        30.4705001
      ],
      [
        31.760175,
        30.4705001
      ],
      [
        31.7569837,
        30.4553709
      ],
      [
        31.7607068,
        30.4521614
      ],
      [
        31.7607068,
        30.4489517
      ],
      [
        31.7660257,
        30.4466591
      ],
      [
        31.7654938,
        30.4145561
      ],
      [
        31.7755996,
        30.4122626
      ],
      [
        31.8516591,
        30.3324162
      ],
      [
        31.8314475,
        30.3151565
      ],
      [
        31.8399576,
        30.2880625
      ],
      [
        31.8351707,
        30.2834696
      ],
      [
        31.8372982,
        30.271527
      ],
      [
        32.1755189,
        30.2508536
      ],
      [
        32.3496644,
        30.2480968
      ],
      [
        32.3608339,
        30.239826
      ],
      [
        32.3666847,
        30.239826
      ],
      [
        32.3725354,
        30.2260398
      ],
      [
        32.4081717,
        30.2375285
      ],
      [
        32.4140224,
        30.2320141
      ],
      [
        32.4310427,
        30.2338522
      ],
      [
        32.4592326,
        30.2733644
      ],
      [
        32.4692716,
        30.2683114
      ],
      [
        32.5070354,
        30.2600423
      ],
      [
        32.5261832,
        30.2508536
      ],
      [
        32.5650108,
        30.2062762
      ],
      [
        32.5708615,
        30.192945
      ],
      [
        32.5910731,
        30.2007601
      ],
      [
        32.610221,
        30.196163
      ],
      [
        32.6107529,
        30.2012198
      ],
      [
        32.6634094,
        30.2127113
      ],
      [
        32.6852167,
        30.2062762
      ],
      [
        32.7096834,
        30.2003004
      ],
      [
        32.7240443,
        30.2048972
      ],
      [
        32.7373414,
        30.2154691
      ],
      [
        32.749929,
        30.2196056
      ],
      [
        32.7616305,
        30.2186864
      ],
      [
        32.7754595,
        30.2150094
      ],
      [
        32.7876928,
        30.2099535
      ],
      [
        32.7967349,
        30.2021391
      ],
      [
        32.805245,
        30.2003004
      ],
      [
        32.8265204,
        30.1975422
      ],
      [
        32.8180103,
        30.2274185
      ],
      [
        32.8121595,
        30.252232
      ],
      [
        32.7839697,
        30.3082689
      ],
      [
        32.7834378,
        30.3165339
      ],
      [
        32.7797146,
        30.3211253
      ],
      [
        32.7743957,
        30.3362754
      ],
      [
        32.7605667,
        30.3555538
      ],
      [
        32.7467377,
        30.4233542
      ],
      [
        32.7275899,
        30.4568297
      ],
      [
        32.6797203,
        30.5081671
      ],
      [
        32.6627,
        30.5177899
      ],
      [
        32.6287109,
        30.5513599
      ],
      [
        32.632434,
        30.5843335
      ],
      [
        32.6393485,
        30.5916595
      ],
      [
        32.6382848,
        30.6470441
      ],
      [
        32.6361572,
        30.663516
      ],
      [
        32.6345616,
        30.668091
      ],
      [
        32.6398804,
        30.6790703
      ],
      [
        32.6446674,
        30.6790703
      ],
      [
        32.6478587,
        30.7447301
      ],
      [
        32.6361572,
        30.7844922
      ],
      [
        32.6366891,
        30.8000269
      ],
      [
        32.618605,
        30.8351992
      ],
      [
        32.6276471,
        30.8648802
      ],
      [
        32.6249877,
        30.8808584
      ],
      [
        32.618605,
        30.9030758
      ],
      [
        32.600521,
        30.9464218
      ],
      [
        32.5914789,
        30.9441409
      ],
      [
        32.5276528,
        31.0029701
      ],
      [
        32.5233977,
        30.9870123
      ],
      [
        32.4941441,
        30.9961314
      ],
      [
        32.4014226,
        30.9614742
      ],
      [
        32.3971676,
        30.9582815
      ],
      [
        32.3131298,
        30.9582815
      ],
      [
        32.3147255,
        30.9176788
      ],
      [
        32.3051516,
        30.9135719
      ],
      [
        32.3051516,
        30.9099212
      ],
      [
        32.2987689,
        30.9062704
      ],
      [
        32.2604733,
        30.9053577
      ],
      [
        32.2578138,
        30.8880142
      ],
      [
        32.211008,
        30.8866448
      ],
      [
        32.206221,
        30.9331919
      ],
      [
        32.1822862,
        30.9660351
      ]
    ]
  }
}