{
  "type": "FeatureCollection",
  "features": [
    {
      "geometry": {
        "type": "MultiPolygon",
        "coordinates": [
    [
 [
          [
            31.2666198,
            30.0368391
          ],
          [
            28.452218,
            27.6768131
          ],
          [
            28.7776314,
            27.9147818
          ],
          [
            29.211516,
            28.0718613
          ],
          [
            29.5933344,
            28.3204196
          ],
          [
            29.7408552,
            28.5988783
          ],
          [
            29.7712271,
            28.7739678
          ],
          [
            30.6433351,
            28.7663613
          ],
          [
            30.6823847,
            28.7815737
          ],
          [
            30.730112,
            28.7853765
          ],
          [
            30.7648228,
            28.7587542
          ],
          [
            30.7951947,
            28.7625578
          ],
          [
            30.8646162,
            28.7131003
          ],
          [
            30.9166824,
            28.7663613
          ],
          [
            30.9470543,
            28.7625578
          ],
          [
            30.9166824,
            28.7092949
          ],
          [
            31.0208147,
            28.7131003
          ],
          [
            31.0598643,
            28.6598122
          ],
          [
            31.1246341,
            28.5844632
          ],
          [
            31.1246341,
            28.5349216
          ],
          [
            31.1767003,
            28.4701013
          ],
          [
            31.2634772,
            28.3785225
          ],
          [
            31.3589318,
            28.34416
          ],
          [
            31.5064525,
            28.2868645
          ],
          [
            31.606246,
            28.2715805
          ],
          [
            31.7277337,
            28.2601161
          ],
          [
            32.1486017,
            28.3365224
          ],
          [
            32.1702959,
            28.3212455
          ],
          [
            32.252734,
            28.2945057
          ],
          [
            32.3742217,
            28.2065991
          ],
          [
            32.4826928,
            28.141578
          ],
          [
            32.5434367,
            27.9807687
          ],
          [
            32.5390978,
            27.9271121
          ],
          [
            32.5738086,
            27.8810996
          ],
          [
            32.5781474,
            27.8542499
          ],
          [
            32.4002548,
            27.8849347
          ],
          [
            32.3395109,
            27.8504137
          ],
          [
            32.1876513,
            27.8465774
          ],
          [
            32.0140975,
            27.8005306
          ],
          [
            31.8752544,
            27.7391046
          ],
          [
            31.7233948,
            27.6930124
          ],
          [
            31.6409568,
            27.6661162
          ],
          [
            31.3545929,
            27.6469007
          ],
          [
            31.2504606,
            27.6430571
          ],
          [
            30.9424026,
            27.6199932
          ],
          [
            30.9424026,
            27.5930791
          ],
          [
            30.8773199,
            27.6123041
          ],
          [
            30.8581186,
            27.6186055
          ],
          [
            30.855274,
            27.5997002
          ],
          [
            30.8438954,
            27.6009606
          ],
          [
            30.8446066,
            27.616085
          ],
          [
            30.8303834,
            27.6009606
          ],
          [
            30.7934031,
            27.5902463
          ],
          [
            30.7841581,
            27.6135644
          ],
          [
            30.7806023,
            27.6066325
          ],
          [
            30.7777576,
            27.6198658
          ],
          [
            30.7656679,
            27.6148247
          ],
          [
            30.7628233,
            27.6192357
          ],
          [
            30.7564228,
            27.6192357
          ],
          [
            30.7535782,
            27.6249066
          ],
          [
            30.7343769,
            27.6299472
          ],
          [
            30.7329546,
            27.6242765
          ],
          [
            30.7279765,
            27.6192357
          ],
          [
            30.73011,
            27.6085231
          ],
          [
            30.7244207,
            27.6053721
          ],
          [
            30.7244207,
            27.6047419
          ],
          [
            28.4440909,
            27.6829711
          ],
          [
            30.6684945,
            27.598629
          ],
          [
            30.6627243,
            27.6318624
          ],
          [
            30.6886901,
            27.6165252
          ],
          [
            30.7060007,
            27.6165252
          ],
          [
            30.7146559,
            27.6011857
          ],
          [
            30.7204261,
            27.6139687
          ]
             ]
   ]
]

    }, 
      "type": "Feature", 
      "properties": {
        "source": "https://simplemaps.com", 
        "id": "EG", 
        "name": "Egypt"
      }, 
      "id": 1
      
    }
  ]
}