{
  "type": "FeatureCollection",
  "features": [
    {
      "geometry": {
        "type": "MultiPolygon",
        "coordinates": [
          [31.3301589, 30.6061546],
          [31.3298129, 30.598709],
          [31.3343111, 30.6007938],
          [31.3439996, 30.5981133],
          [31.3450376, 30.5951349],
          [31.3426155, 30.5867948],
          [31.3415775, 30.583816],
          [31.3381173, 30.5832203],
          [31.3308509, 30.5739854],
          [31.331889, 30.5659415],
          [31.3277286, 30.5650477],
          [31.3232304, 30.5668353],
          [31.315964, 30.5674311],
          [31.3069676, 30.5668353],
          [31.3066215, 30.5650477],
          [31.2993552, 30.5638559],
          [31.2969331, 30.5602805],
          [31.2945109, 30.5578969],
          [31.2913968, 30.5561091],
          [31.2913968, 30.5540233],
          [31.295203, 30.5528314],
          [31.2934729, 30.5498516],
          [31.2913968, 30.5480636],
          [31.295549, 30.5424017],
          [31.296587, 30.5388255],
          [31.3003932, 30.5355472],
          [31.2902248, 30.5348502],
          [31.2881487, 30.5324659],
          [31.2919549, 30.5294855],
          [31.2860726, 30.5300816],
          [31.2846886, 30.532764],
          [31.2812094, 30.5285586],
          [31.2843236, 30.5264722],
          [31.2798253, 30.52528],
          [31.2798253, 30.5228954],
          [31.2843236, 30.5220012],
          [31.2839775, 30.5187224],
          [31.2874377, 30.5184243],
          [31.2808634, 30.5070965],
          [31.2787873, 30.5067984],
          [31.2787873, 30.5035191],
          [31.273943, 30.501134],
          [31.2708289, 30.5008359],
          [31.2722129, 30.4975563],
          [31.2686559, 30.4943328],
          [31.2735027, 30.490536],
          [31.2737671, 30.4874985],
          [31.270859, 30.4869669],
          [31.2680357, 30.4894614],
          [31.2665376, 30.4865757],
          [31.2698863, 30.4843734],
          [31.2714725, 30.4811838],
          [31.2690932, 30.4804244],
          [31.2736756, 30.478146],
          [31.2745568, 30.4768549],
          [31.2729706, 30.4758675],
          [31.2720894, 30.4758675],
          [31.27112, 30.4734631],
          [31.2724419, 30.4727796],
          [31.2720894, 30.4721719],
          [31.2731469, 30.4692857],
          [31.2727062, 30.4659437],
          [31.2749093, 30.4641207],
          [31.2767599, 30.463589],
          [31.2756143, 30.4623737],
          [31.2752618, 30.4615381],
          [31.2756143, 30.4596391],
          [31.2772006, 30.4591074],
          [31.2770243, 30.4581199],
          [31.2755262, 30.4581958],
          [31.2755262, 30.4575881],
          [31.2765837, 30.4558409],
          [31.2765837, 30.4542457],
          [31.2657445, 30.4478643],
          [31.2638939, 30.4480163],
          [31.2636295, 30.4462689],
          [31.262572, 30.4445216],
          [31.2615145, 30.4429261],
          [31.2605452, 30.4419384],
          [31.2605452, 30.4412547],
          [31.2612501, 30.4390513],
          [31.2621314, 30.4389754],
          [31.2635414, 30.4384435],
          [31.2643345, 30.4388994],
          [31.2648632, 30.4398871],
          [31.2706794, 30.4423183],
          [31.2720894, 30.4428501],
          [31.2741162, 30.4421664],
          [31.2754381, 30.4419384],
          [31.2774649, 30.4426982],
          [31.2795799, 30.4420144],
          [31.2847792, 30.4394916],
          [31.2880398, 30.4400235],
          [31.2891854, 30.4391117],
          [31.3013465, 30.4355407],
          [31.300969, 30.4308023],
          [31.3022028, 30.4308783],
          [31.3022028, 30.4304984],
          [31.3041415, 30.4302704],
          [31.3055515, 30.4298145],
          [31.304574, 30.4246433],
          [31.3032522, 30.4207678],
          [31.2989341, 30.4210717],
          [31.2986697, 30.4202358],
          [31.2969073, 30.4200079],
          [31.2963785, 30.4178041],
          [31.2956735, 30.4171201],
          [31.2962904, 30.4165121],
          [31.2973479, 30.4165121],
          [31.3018422, 30.4141563],
          [31.3024591, 30.4143843],
          [31.3095971, 30.4119523],
          [31.3165589, 30.4012359],
          [31.3179689, 30.3995638],
          [31.3156777, 30.3978155],
          [31.3172639, 30.3978155],
          [31.318762, 30.3971315],
          [31.3200838, 30.3971315],
          [31.3209651, 30.3960673],
          [31.325195, 30.3950031],
          [31.3240785, 30.3943801],
          [31.3255766, 30.3928598],
          [31.3270747, 30.394076],
          [31.328749, 30.3933919],
          [31.3295422, 30.3923277],
          [31.3318334, 30.3870066],
          [31.3485769, 30.3800887],
          [31.3497225, 30.3787202],
          [31.3504341, 30.3756677],
          [31.3478786, 30.3698135],
          [31.3486717, 30.3695854],
          [31.3484073, 30.3682928],
          [31.3527254, 30.3674565],
          [31.3523729, 30.3638197],
          [31.3513154, 30.3608542],
          [31.3573959, 30.3603219],
          [31.3547522, 30.3569001],
          [31.3530779, 30.3542386],
          [31.3509629, 30.3528698],
          [31.3505223, 30.3516531],
          [31.3476142, 30.348231],
          [31.3459398, 30.3477747],
          [31.3463804, 30.3464819],
          [31.3464686, 30.3442764],
          [31.348231, 30.3412343],
          [31.3490242, 30.3382682],
          [31.3487598, 30.3351498],
          [31.3484954, 30.3336286],
          [31.3535185, 30.3325638],
          [31.3535185, 30.3362907],
          [31.3566028, 30.3393329],
          [31.3619784, 30.3360625],
          [31.363124, 30.3365949],
          [31.3644458, 30.3349977],
          [31.3662964, 30.3345413],
          [31.3661127, 30.3330161],
          [31.3675227, 30.3330161],
          [31.3685802, 30.3324837],
          [31.3708714, 30.3324076],
          [31.3716645, 30.3327118],
          [31.3729863, 30.3324837],
          [31.3719289, 30.3314188],
          [31.3714882, 30.3286045],
          [31.3698139, 30.3258662],
          [31.3688445, 30.324497],
          [31.3693733, 30.3229756],
          [31.3692851, 30.3216064],
          [31.3716645, 30.3210739],
          [31.3753657, 30.3182593],
          [31.3723695, 30.3173464],
          [31.3703426, 30.3163575],
          [31.3654958, 30.3176507],
          [31.364174, 30.3167379],
          [31.3653196, 30.315825],
          [31.3669058, 30.3133906],
          [31.3667296, 30.3126298],
          [31.3676108, 30.3117169],
          [31.3671702, 30.308826],
          [31.3679648, 30.3083496],
          [31.3686698, 30.3070563],
          [31.3745741, 30.3020348],
          [31.3774822, 30.2989914],
          [31.3778347, 30.2979262],
          [31.3768653, 30.2949587],
          [31.3805665, 30.2916107],
          [31.3862064, 30.290165],
          [31.3907889, 30.2988392],
          [31.3952832, 30.2967849],
          [31.3976625, 30.297774],
          [31.4025975, 30.2985349],
          [31.4032143, 30.2806529],
          [31.4591577, 30.2814139],
          [31.4678849, 30.2722027],
          [31.4724674, 30.2757036],
          [31.4768736, 30.2865859],
          [31.5155074, 30.2579866],
          [31.5292547, 30.2546374],
          [31.5409752, 30.2564642],
          [31.5504926, 30.2559314],
          [31.5516382, 30.2523537],
          [31.6091986, 30.2485475],
          [31.6172178, 30.2503745],
          [31.6491639, 30.2649893],
          [31.6547157, 30.269632],
          [31.7331841, 30.1828204],
          [31.7361392, 30.1805606],
          [31.7435271, 30.1805606],
          [31.7659466, 30.1906801],
          [31.84855, 30.237266],
          [31.8399119, 30.2715629],
          [31.837525, 30.2712685],
          [31.8341152, 30.2848139],
          [31.8401392, 30.288249],
          [31.831842, 30.3128597],
          [31.8296825, 30.3150183],
          [31.8523007, 30.3311084],
          [31.7757617, 30.4135125],
          [31.7654186, 30.4140026],
          [31.7654186, 30.4479285],
          [31.7604176, 30.4471446],
          [31.7604176, 30.4533175],
          [31.7578035, 30.4548851],
          [31.7585991, 30.470464],
          [31.7651913, 30.4699742],
          [31.7700787, 30.4651739],
          [31.7795124, 30.4662515],
          [31.7830359, 30.4700721],
          [31.7925833, 30.4698762],
          [31.797016, 30.4724232],
          [31.796675, 30.4850592],
          [31.8129303, 30.485272],
          [31.8121346, 30.5061325],
          [31.8094068, 30.5076993],
          [31.8079292, 30.5126569],
          [31.8042921, 30.5130486],
          [31.8034965, 30.5130486],
          [31.8034965, 30.5130486],
          [31.7995184, 30.5287144],
          [31.8000867, 30.5298893],
          [31.7986092, 30.5303788],
          [31.7940628, 30.5306725],
          [31.7870159, 30.5302809],
          [31.7795144, 30.529204],
          [31.7713309, 30.5267563],
          [31.7674665, 30.5255815],
          [31.7631474, 30.5252878],
          [31.7557595, 30.5231338],
          [31.7520315, 30.5320547],
          [31.748849, 30.5311736],
          [31.7453255, 30.5493814],
          [31.7419158, 30.5498708],
          [31.7406655, 30.5538839],
          [31.7393016, 30.5540797],
          [31.738847, 30.5556457],
          [31.7394153, 30.556233],
          [31.737483, 30.5601479],
          [31.7382787, 30.5665915],
          [31.7486217, 30.5709953],
          [31.7475987, 30.5735397],
          [31.7480534, 30.5752032],
          [31.7556686, 30.579411],
          [31.759874, 30.5795088],
          [31.770558, 30.5749097],
          [31.7843108, 30.5823465],
          [31.7936308, 30.5812702],
          [31.8002231, 30.5778453],
          [31.8076198, 30.5833673],
          [31.8097793, 30.5837587],
          [31.851606, 30.5701568],
          [31.885075, 30.5730927],
          [31.9443083, 30.5889445],
          [31.9736556, 30.5883574],
          [32.0120636, 30.6118128],
          [32.1055667, 30.6174862],
          [32.1230112, 30.6203061],
          [32.1255117, 30.6372259],
          [32.1228976, 30.6458314],
          [32.1209654, 30.6501355],
          [32.1240342, 30.6611544],
          [32.1252844, 30.7367483],
          [32.137446, 30.7470056],
          [32.1349455, 30.7486662],
          [32.1200561, 30.8226369],
          [32.1151687, 30.8233201],
          [32.115396, 30.838155],
          [32.1169873, 30.8467425],
          [32.1190331, 30.8482062],
          [32.1205107, 30.8560906],
          [32.1216473, 30.8586274],
          [32.1240342, 30.860091],
          [32.12608, 30.8607739],
          [32.142447, 30.8802854],
          [32.1438109, 30.8833597],
          [32.1439246, 30.8861885],
          [32.1391509, 30.8935038],
          [32.1401738, 30.8977952],
          [32.147107, 30.9018913],
          [32.1514551, 30.9075708],
          [32.1556605, 30.9103013],
          [32.1575927, 30.9152745],
          [32.1571381, 30.9461898],
          [32.158843, 30.9480419],
          [32.1571381, 30.9499914],
          [32.2007691, 30.9765521],
          [32.2034619, 30.9834781],
          [32.2013076, 31.0621001],
          [32.1916134, 31.0680974],
          [32.1592995, 31.06902],
          [32.1577586, 31.0688],
          [32.1413225, 31.0872761],
          [32.1277113, 31.0971725],
          [32.1033138, 31.1228983],
          [32.1004889, 31.1231182],
          [32.1015161, 31.1180615],
          [32.1004889, 31.1167423],
          [32.0881618, 31.115643],
          [32.0809709, 31.1127847],
          [32.0635075, 31.1059684],
          [32.0524645, 31.1031098],
          [32.0427055, 31.1044292],
          [32.0370556, 31.1050889],
          [32.0332034, 31.1081673],
          [32.0254989, 31.1070679],
          [32.0211331, 31.1050889],
          [32.0126582, 31.1050889],
          [32.0075219, 31.1057485],
          [31.9957084, 31.104869],
          [31.9818782, 31.1050889],
          [31.9721192, 31.100691],
          [31.9690374, 31.0945335],
          [31.9597921, 31.0901351],
          [31.9528581, 31.0830973],
          [31.9050905, 31.0767188],
          [31.9027792, 31.0749591],
          [31.8925066, 31.0738593],
          [31.8801794, 31.0729794],
          [31.8735023, 31.0720996],
          [31.8673387, 31.0677001],
          [31.8610805, 31.0655003],
          [31.8536329, 31.0672602],
          [31.8456716, 31.0705598],
          [31.8395081, 31.0725395],
          [31.834115, 31.0698999],
          [31.8297491, 31.0663803],
          [31.8235856, 31.0668202],
          [31.8192197, 31.0679201],
          [31.8112584, 31.0650604],
          [31.8058653, 31.0650604],
          [31.7994449, 31.0661603],
          [31.7901996, 31.0668202],
          [31.7840361, 31.0668202],
          [31.7776157, 31.0657203],
          [31.7719657, 31.0608806],
          [31.7696544, 31.0569207],
          [31.7647749, 31.0531806],
          [31.7645181, 31.0509804],
          [31.7634909, 31.0483402],
          [31.7563, 31.04658],
          [31.7503933, 31.0439397],
          [31.739786, 31.0369316],
          [31.7377314, 31.0351712],
          [31.7408132, 31.0261487],
          [31.7400428, 31.021527],
          [31.734136, 31.016685],
          [31.7292566, 31.012283],
          [31.7228362, 31.00634],
          [31.715144, 30.9966241],
          [31.7102645, 30.9928816],
          [31.7020465, 30.9909002],
          [31.6958829, 30.9875979],
          [31.6945988, 30.9814331],
          [31.6897193, 30.9759286],
          [31.6861239, 30.9713045],
          [31.6797036, 30.9688823],
          [31.677649, 30.9655791],
          [31.6714855, 30.961395],
          [31.6717423, 30.9539071],
          [31.6758513, 30.9479605],
          [31.6762999, 30.929953],
          [31.6662841, 30.9218018],
          [31.6583229, 30.9151921],
          [31.6483071, 30.9136498],
          [31.6373831, 30.9135048],
          [31.6327605, 30.9179113],
          [31.6255696, 30.9187926],
          [31.6178652, 30.9207755],
          [31.615297, 30.9205552],
          [31.6124721, 30.916369],
          [31.6096471, 30.9110811],
          [31.6073358, 30.9079963],
          [31.608363, 30.9038096],
          [31.6032267, 30.9033689],
          [31.5983473, 30.8963173],
          [31.6052813, 30.893232],
          [31.6137562, 30.8894855],
          [31.6191493, 30.8855184],
          [31.623772, 30.8778042],
          [31.6273674, 30.8692076],
          [31.617255, 30.8658427],
          [31.6131837, 30.8583537],
          [31.6213263, 30.8558573],
          [31.6149286, 30.8508642],
          [31.617255, 30.8483676],
          [31.6085308, 30.8458709],
          [31.5980617, 30.8408773],
          [31.5910824, 30.8388798],
          [31.5806133, 30.8383805],
          [31.5806133, 30.8283922],
          [31.5794501, 30.819402],
          [31.5631648, 30.815406],
          [31.5474612, 30.8104109],
          [31.5404819, 30.8204009],
          [31.5265231, 30.8159055],
          [31.5183805, 30.8159055],
          [31.5067482, 30.8223988],
          [31.5003504, 30.8159055],
          [31.4916262, 30.814407],
          [31.4794123, 30.8189025],
          [31.4741778, 30.813408],
          [31.4642903, 30.8204009],
          [31.4509132, 30.8218994],
          [31.4410257, 30.8159055],
          [31.4328831, 30.8159055],
          [31.4229956, 30.8139075],
          [31.411945, 30.8089123],
          [31.404384, 30.802418],
          [31.4026391, 30.7969226],
          [31.3974046, 30.8069141],
          [31.3875171, 30.8084127],
          [31.3665789, 30.8094118],
          [31.3659973, 30.8039168],
          [31.3706502, 30.8009193],
          [31.3683238, 30.7944246],
          [31.3642525, 30.7859308],
          [31.3572731, 30.7819334],
          [31.3578547, 30.7644431],
          [31.3613444, 30.7559467],
          [31.3554807, 30.7445321],
          [31.3601336, 30.7365338],
          [31.3665314, 30.7235352],
          [31.3682762, 30.7150351],
          [31.3740924, 30.7115349],
          [31.3665314, 30.7050341],
          [31.3601336, 30.7025337],
          [31.3659498, 30.7000332],
          [31.3735107, 30.6970325],
          [31.3723475, 30.6870296],
          [31.3723475, 30.6764871],
          [31.3770004, 30.6729854],
          [31.3787453, 30.6644809],
          [31.3810717, 30.6554753],
          [31.382235, 30.651973],
          [31.3694394, 30.651973],
          [31.3694394, 30.6389629],
          [31.3770004, 30.6339586],
          [31.3740924, 30.6244497],
          [31.3810717, 30.6244497],
          [31.3775821, 30.616942],
          [31.367113, 30.6144393],
          [31.367113, 30.6224477],
          [31.3548991, 30.6164415],
          [31.3502461, 30.6239492],
          [31.3374506, 30.6274526],
          [31.3287264, 30.6214467],
          [31.3357058, 30.6189441],
          [31.3351242, 30.6119365],
          [31.3391955, 30.6109354],
          [31.3386138, 30.6089331],
          [31.3298896, 30.6084326],
          [31.3302185, 30.6061099]
        ]
      },
      "type": "Feature",
      "properties": {
        "source": "https://simplemaps.com",
        "id": "EG",
        "name": "Egypt"
      },
      "id": 1
    }
  ]
}
