{
  "type": "Feature",
  "properties": {},
  "geometry": {
    "type": "LineString",
    "coordinates": [
      [
        29.3742001,
        30.8917129
      ],
      [
        29.3830016,
        30.8736239
      ],
      [
        29.3906451,
        30.8620928
      ],
      [
        29.3927296,
        30.8620928
      ],
      [
        29.401025,
        30.8474893
      ],
      [
        29.4044993,
        30.8445065
      ],
      [
        29.4049625,
        30.8441087
      ],
      [
        29.4135325,
        30.8456996
      ],
      [
        29.4181649,
        30.8367506
      ],
      [
        29.4211759,
        30.8365518
      ],
      [
        29.4288193,
        30.8252152
      ],
      [
        29.4327569,
        30.8266074
      ],
      [
        29.4454486,
        30.8110303
      ],
      [
        29.4498494,
        30.808842
      ],
      [
        29.4588825,
        30.7951147
      ],
      [
        29.4609671,
        30.7925281
      ],
      [
        29.4660627,
        30.7959105
      ],
      [
        29.474401,
        30.7762114
      ],
      [
        29.4764856,
        30.7770074
      ],
      [
        29.4815812,
        30.7712363
      ],
      [
        29.4906144,
        30.7622803
      ],
      [
        29.4947835,
        30.7620813
      ],
      [
        29.4968681,
        30.7616833
      ],
      [
        29.5049748,
        30.7495416
      ],
      [
        29.5065961,
        30.7489444
      ],
      [
        29.5195668,
        30.7487454
      ],
      [
        29.5265153,
        30.7497407
      ],
      [
        29.5274418,
        30.7521293
      ],
      [
        29.5524567,
        30.7535226
      ],
      [
        29.5573207,
        30.7567074
      ],
      [
        29.5638061,
        30.7553141
      ],
      [
        29.5834937,
        30.7573045
      ],
      [
        29.6037122,
        30.738185
      ],
      [
        29.5976901,
        30.7353979
      ],
      [
        29.5963004,
        30.731217
      ],
      [
        29.6305801,
        30.2582608
      ],
      [
        29.7183751,
        30.5008145
      ],
      [
        29.9136558,
        30.5786247
      ],
      [
        29.935428,
        30.5917847
      ],
      [
        29.8643134,
        30.647565
      ],
      [
        29.810517,
        30.6658477
      ],
      [
        29.7660461,
        30.672422
      ],
      [
        29.7595608,
        30.7381407
      ],
      [
        29.7567813,
        30.7421222
      ],
      [
        29.7614137,
        30.7480941
      ],
      [
        29.7704469,
        30.7520784
      ],
      [
        29.7829543,
        30.7453105
      ],
      [
        29.7899029,
        30.7401347
      ],
      [
        29.7922191,
        30.7379448
      ],
      [
        29.8014839,
        30.7395374
      ],
      [
        29.8137597,
        30.7461067
      ],
      [
        29.8320576,
        30.7321713
      ],
      [
        29.8501239,
        30.7419263
      ],
      [
        29.856146,
        30.7345604
      ],
      [
        29.8691167,
        30.7399356
      ],
      [
        29.8804078,
        30.7389467
      ],
      [
        29.8857351,
        30.7433263
      ],
      [
        29.8817976,
        30.7479048
      ],
      [
        29.8859667,
        30.7506915
      ],
      [
        29.8989374,
        30.7435253
      ],
      [
        29.9167721,
        30.756862
      ],
      [
        29.9200147,
        30.7558668
      ],
      [
        29.9554525,
        30.7873105
      ],
      [
        29.9214045,
        30.8206485
      ],
      [
        29.8609518,
        30.9187989
      ],
      [
        29.8526135,
        30.9323164
      ],
      [
        29.8785549,
        30.943839
      ],
      [
        29.887588,
        30.949997
      ],
      [
        29.9102867,
        30.9533739
      ],
      [
        29.9054227,
        30.9639009
      ],
      [
        29.9123713,
        30.968267
      ],
      [
        29.9158456,
        30.9776009
      ],
      [
        29.9146875,
        30.9849481
      ],
      [
        29.91075,
        30.9865367
      ],
      [
        29.899169,
        31.0010308
      ],
      [
        29.9047279,
        31.0051999
      ],
      [
        29.9086654,
        31.0173092
      ],
      [
        29.9223347,
        31.0245574
      ],
      [
        29.9183972,
        31.031901
      ],
      [
        29.9260406,
        31.0370611
      ],
      [
        29.9216398,
        31.0434116
      ],
      [
        29.9309046,
        31.0473804
      ],
      [
        29.9313678,
        31.0497617
      ],
      [
        29.9292833,
        31.0511507
      ],
      [
        29.9341473,
        31.0543255
      ],
      [
        29.9399378,
        31.0658334
      ],
      [
        29.9475812,
        31.0684125
      ],
      [
        29.9408642,
        31.0747362
      ],
      [
        29.9494342,
        31.0808858
      ],
      [
        29.9492025,
        31.0846547
      ],
      [
        29.9591622,
        31.0947705
      ],
      [
        29.9607835,
        31.1013155
      ],
      [
        29.9695851,
        31.1120245
      ],
      [
        29.9695851,
        31.1207494
      ],
      [
        29.9838038,
        31.1390693
      ],
      [
        29.9814876,
        31.140457
      ],
      [
        29.9854252,
        31.1588919
      ],
      [
        30.0016385,
        31.1636487
      ],
      [
        30.0023334,
        31.1606757
      ],
      [
        30.0243372,
        31.1666216
      ],
      [
        30.0227159,
        31.1711798
      ],
      [
        30.0271167,
        31.1723689
      ],
      [
        30.0273483,
        31.1763323
      ],
      [
        30.030591,
        31.1780744
      ],
      [
        30.030591,
        31.182434
      ],
      [
        30.0340653,
        31.1830284
      ],
      [
        30.0389293,
        31.190558
      ],
      [
        30.0419403,
        31.1927375
      ],
      [
        30.0424035,
        31.1943226
      ],
      [
        30.0435616,
        31.1951151
      ],
      [
        30.0430984,
        31.196502
      ],
      [
        30.0412455,
        31.196502
      ],
      [
        30.0430848,
        31.2061057
      ],
      [
        30.0460958,
        31.2090772
      ],
      [
        30.0477171,
        31.2100677
      ],
      [
        30.0537392,
        31.2084829
      ],
      [
        30.0808462,
        31.2840315
      ],
      [
        30.0815411,
        31.2842294
      ],
      [
        30.0836114,
        31.2763296
      ],
      [
        30.0863909,
        31.2721724
      ],
      [
        30.09056,
        31.2703907
      ],
      [
        30.1299353,
        31.267619
      ],
      [
        30.1308618,
        31.2711826
      ],
      [
        30.1241448,
        31.2717765
      ],
      [
        30.1225235,
        31.2725683
      ],
      [
        30.1209021,
        31.27435
      ],
      [
        30.1007513,
        31.2775174
      ],
      [
        30.0891703,
        31.2818723
      ],
      [
        30.0854644,
        31.28306
      ],
      [
        30.085696,
        31.2895919
      ],
      [
        30.0836114,
        31.2923629
      ],
      [
        30.078979,
        31.2961234
      ],
      [
        30.0771261,
        31.2986963
      ],
      [
        30.0810636,
        31.3008733
      ],
      [
        30.078979,
        31.3044356
      ],
      [
        30.0738834,
        31.3077998
      ],
      [
        30.0734202,
        31.3095809
      ],
      [
        30.0755048,
        31.3095809
      ],
      [
        30.075968,
        31.3081956
      ],
      [
        30.0785158,
        31.3070083
      ],
      [
        30.0801371,
        31.3081956
      ],
      [
        30.0944975,
        31.3095809
      ],
      [
        30.097277,
        31.3163089
      ],
      [
        30.0975086,
        31.3242235
      ],
      [
        30.0863909,
        31.3454016
      ],
      [
        30.0720305,
        31.358852
      ],
      [
        30.0558171,
        31.352127
      ],
      [
        30.0247801,
        31.3246289
      ],
      [
        29.7250079,
        31.1102529
      ],
      [
        29.3741941,
        30.8918632
      ]
    ]
  }
}