{
  "type": "FeatureCollection",
  "features": [
    {
      "geometry": {
        "type": "MultiPolygon",
        "coordinates": [
    [
 [
          [
            31.1476807,
            22.0060783
          ],
          [
            31.1445772,
            22.118252
          ],
          [
            31.1538877,
            22.2059155
          ],
          [
            31.2190612,
            22.3695988
          ],
          [
            31.2299234,
            22.4226828
          ],
          [
            31.2252682,
            22.4614069
          ],
          [
            31.2128542,
            22.492952
          ],
          [
            31.2361304,
            22.5388228
          ],
          [
            31.3013983,
            22.6164376
          ],
          [
            31.3317464,
            22.6519178
          ],
          [
            32.1903492,
            24.2939295
          ],
          [
            32.3739077,
            24.6528122
          ],
          [
            32.5642646,
            25.1092019
          ],
          [
            32.6259871,
            25.1355378
          ],
          [
            32.6322498,
            25.1436372
          ],
          [
            32.6662477,
            25.1740049
          ],
          [
            32.6573009,
            25.1780533
          ],
          [
            32.662669,
            25.1926266
          ],
          [
            32.6662477,
            25.1926266
          ],
          [
            32.668942,
            25.2001171
          ],
          [
            32.6734154,
            25.2074026
          ],
          [
            32.6480387,
            25.2215311
          ],
          [
            32.6460867,
            25.2285947
          ],
          [
            32.6607797,
            25.2281159
          ],
          [
            32.6677695,
            25.2328582
          ],
          [
            32.6513433,
            25.2467678
          ],
          [
            32.6784631,
            25.295602
          ],
          [
            33.4720103,
            25.3073223
          ],
          [
            33.4717431,
            25.0770747
          ],
          [
            33.4757318,
            24.618624
          ],
          [
            33.4800764,
            24.3044048
          ],
          [
            33.4830708,
            24.0563932
          ],
          [
            33.4877847,
            23.771857
          ],
          [
            33.4949211,
            22.0014409
          ],
          [
            33.4949211,
            22.0014409
          ],
          [
            31.3910144,
            21.9906334
          ],
          [
            31.5017463,
            22.1904394
          ],
          [
            31.4667783,
            22.2120231
          ],
          [
            31.3560464,
            22.1580577
          ],
          [
            31.3450881,
            22.1606624
          ],
          [
            31.3244249,
            22.0010988
          ],
          [
            31.1453438,
            22.0010988
          ],
          [
            31.1477418,
            22.005973
          ]
             ]
   ]
]

    }, 
      "type": "Feature", 
      "properties": {
        "source": "https://simplemaps.com", 
        "id": "EG", 
        "name": "Egypt"
      }, 
      "id": 1
      
    }
  ]
}