{
  "type": "FeatureCollection",
  "features": [
    {
      "type": "Feature",
      "properties": {},
      "geometry": {
        "type": "LineString",
        "coordinates": [
          [
            30.8661385,
            26.7941553
          ],
          [
            30.5284725,
            27.6012106
          ],
          [
            30.671146,
            27.6072296
          ],
          [
            30.6630322,
            27.6219675
          ],
          [
            30.6691466,
            27.6217778
          ],
          [
            30.6692894,
            27.6208503
          ],
          [
            30.6708596,
            27.6209768
          ],
          [
            30.671502,
            27.6235907
          ],
          [
            30.6733114,
            27.6234636
          ],
          [
            30.673121,
            27.6228101
          ],
          [
            30.6748102,
            27.6227258
          ],
          [
            30.6762683,
            27.6192223
          ],
          [
            30.6772199,
            27.6175569
          ],
          [
            30.6778147,
            27.616018
          ],
          [
            30.6782905,
            27.6147532
          ],
          [
            30.6792184,
            27.6127083
          ],
          [
            30.685088,
            27.6148599
          ],
          [
            30.6873006,
            27.6151551
          ],
          [
            30.6885615,
            27.6155556
          ],
          [
            30.6895608,
            27.6157875
          ],
          [
            30.6924512,
            27.6173744
          ],
          [
            30.6947352,
            27.6187446
          ],
          [
            30.6973998,
            27.6184495
          ],
          [
            30.6986608,
            27.6225812
          ],
          [
            30.699208,
            27.6189343
          ],
          [
            30.6999819,
            27.6190003
          ],
          [
            30.7005767,
            27.618157
          ],
          [
            30.7019804,
            27.6183679
          ],
          [
            30.7020042,
            27.6195484
          ],
          [
            30.7013142,
            27.6195484
          ],
          [
            30.7006243,
            27.6203283
          ],
          [
            30.7005767,
            27.620497
          ],
          [
            30.7029082,
            27.6208975
          ],
          [
            30.7038361,
            27.6193797
          ],
          [
            30.7045736,
            27.6192954
          ],
          [
            30.7061677,
            27.6166814
          ],
          [
            30.7048591,
            27.6164706
          ],
          [
            30.7056397,
            27.6136788
          ],
          [
            30.7072575,
            27.6139318
          ],
          [
            30.7080426,
            27.6106852
          ],
          [
            30.7035817,
            27.6097363
          ],
          [
            30.7027252,
            27.6087666
          ],
          [
            30.702178,
            27.6076914
          ],
          [
            30.7027728,
            27.606848
          ],
          [
            30.703201,
            27.6059837
          ]
        ]
      }
    },
    {
      "type": "Feature",
      "properties": {},
      "geometry": {
        "type": "LineString",
        "coordinates": [
          [
            30.703194360069734,
            27.60599710236275
          ],
          [
            30.7032109,
            27.60583
          ],
          [
            30.7027272,
            27.6056821
          ],
          [
            30.7010293,
            27.6051804
          ],
          [
            30.7009496,
            27.6030337
          ],
          [
            30.7004236,
            27.602384
          ],
          [
            30.7065277,
            27.602628
          ],
          [
            30.7053483,
            27.5999163
          ],
          [
            30.7240579,
            27.6017092
          ],
          [
            30.7239269,
            27.6040308
          ],
          [
            30.7306073,
            27.6046111
          ],
          [
            30.7306073,
            27.6150576
          ],
          [
            30.7300833,
            27.6215571
          ],
          [
            30.7323101,
            27.6242265
          ],
          [
            30.7317862,
            27.6311896
          ],
          [
            30.7399074,
            27.6311896
          ],
          [
            30.7408243,
            27.6289847
          ],
          [
            30.7438371,
            27.6294489
          ],
          [
            30.7494696,
            27.6292168
          ],
          [
            30.7513034,
            27.6282884
          ],
          [
            30.7529299,
            27.6273984
          ],
          [
            30.7549865,
            27.6186537
          ],
          [
            30.7626771,
            27.6184685
          ],
          [
            30.7666059,
            27.6149502
          ],
          [
            30.7738367,
            27.6163205
          ],
          [
            30.7780782,
            27.6113404
          ],
          [
            30.7775349,
            27.60997
          ],
          [
            30.7782872,
            27.6082663
          ],
          [
            30.7795829,
            27.6114515
          ],
          [
            30.7813801,
            27.6127107
          ],
          [
            30.7818399,
            27.6125626
          ],
          [
            30.783052,
            27.6123404
          ],
          [
            30.7836372,
            27.6116737
          ],
          [
            30.783888,
            27.6106367
          ],
          [
            30.7840969,
            27.6073057
          ],
          [
            30.7843895,
            27.606602
          ],
          [
            30.7840551,
            27.6057501
          ],
          [
            30.7835536,
            27.6046019
          ],
          [
            30.7827594,
            27.603713
          ],
          [
            30.7829666,
            27.6036859
          ],
          [
            30.7830151,
            27.6029478
          ],
          [
            30.7843331,
            27.6024534
          ],
          [
            30.7867592,
            27.6024831
          ],
          [
            30.7876809,
            27.6017737
          ],
          [
            30.7884362,
            27.6009241
          ],
          [
            30.7882745,
            27.5995985
          ],
          [
            30.7876191,
            27.5972885
          ],
          [
            30.7877404,
            27.5954755
          ],
          [
            30.7892746,
            27.5924748
          ],
          [
            30.7898811,
            27.5922096
          ],
          [
            30.7918797,
            27.5921879
          ],
          [
            30.7939901,
            27.5931768
          ],
          [
            30.7953971,
            27.590683
          ],
          [
            30.8061003,
            27.5971621
          ],
          [
            30.8163176,
            27.5976873
          ],
          [
            30.8172798,
            27.5962613
          ],
          [
            30.8189374,
            27.5974866
          ],
          [
            30.8251264,
            27.5970323
          ],
          [
            30.8319993,
            27.5975871
          ],
          [
            30.8382111,
            27.6091599
          ],
          [
            30.8392558,
            27.6090179
          ],
          [
            30.839899,
            27.6098998
          ],
          [
            30.8423784,
            27.6121364
          ],
          [
            30.8457509,
            27.6150305
          ],
          [
            30.8467259,
            27.6153905
          ],
          [
            30.8471524,
            27.6138367
          ],
          [
            30.8473555,
            27.6129248
          ],
          [
            30.8475519,
            27.6124388
          ],
          [
            30.8481601,
            27.611438
          ],
          [
            30.8428858,
            27.6105441
          ],
          [
            30.8425678,
            27.6059273
          ],
          [
            30.8438,
            27.6059333
          ],
          [
            30.8445449,
            27.6028395
          ],
          [
            30.8446784,
            27.6022361
          ],
          [
            30.8447644,
            27.6017599
          ],
          [
            30.8445718,
            27.6012417
          ],
          [
            30.8444353,
            27.60089
          ],
          [
            30.8444412,
            27.6008874
          ],
          [
            30.8448142,
            27.6002447
          ],
          [
            30.8450873,
            27.5997758
          ],
          [
            30.8463008,
            27.5997837
          ],
          [
            30.84739,
            27.6006611
          ],
          [
            30.8489381,
            27.5998984
          ],
          [
            30.8509191,
            27.6017598
          ],
          [
            30.8560071,
            27.6021948
          ],
          [
            30.8587107,
            27.6179784
          ],
          [
            30.8728649,
            27.6130463
          ],
          [
            30.8706384,
            27.6103688
          ],
          [
            30.8720697,
            27.6095232
          ],
          [
            30.873342,
            27.6083958
          ],
          [
            30.8784311,
            27.607973
          ],
          [
            30.9121468,
            27.5945841
          ],
          [
            30.9291636,
            27.5912014
          ],
          [
            30.9290045,
            27.6120598
          ],
          [
            31.355669,
            27.6490198
          ],
          [
            31.5734922,
            27.6564407
          ],
          [
            31.7131225,
            27.6861192
          ],
          [
            31.97842,
            27.7899302
          ],
          [
            32.2102062,
            27.8566136
          ],
          [
            32.3163252,
            27.8541446
          ],
          [
            32.3805551,
            27.8887059
          ],
          [
            32.5844153,
            27.8590826
          ],
          [
            32.6067561,
            27.8047523
          ],
          [
            32.6402674,
            27.7578088
          ],
          [
            32.6402674,
            27.7133173
          ],
          [
            32.6737786,
            27.6811733
          ],
          [
            32.6877417,
            27.6317025
          ],
          [
            32.6626082,
            27.6292284
          ],
          [
            32.6877417,
            27.5822093
          ],
          [
            32.6961195,
            27.5252645
          ],
          [
            32.670986,
            27.4459879
          ],
          [
            32.6765712,
            27.4187234
          ],
          [
            32.6402674,
            27.3815337
          ],
          [
            32.6346822,
            27.3567336
          ],
          [
            32.4224286,
            27.1407259
          ],
          [
            32.2911761,
            27.03879
          ],
          [
            32.1543385,
            26.949209
          ],
          [
            31.8946262,
            27.0139136
          ],
          [
            31.6572548,
            26.899411
          ],
          [
            31.6272086,
            26.8524668
          ],
          [
            31.6038103,
            26.8385491
          ],
          [
            31.5551418,
            26.8630432
          ],
          [
            31.5370471,
            26.8502401
          ],
          [
            31.5420387,
            26.8321463
          ],
          [
            31.5420387,
            26.8115438
          ],
          [
            31.538807,
            26.8039683
          ],
          [
            31.5266399,
            26.802576
          ],
          [
            31.5244561,
            26.8176118
          ],
          [
            31.5204004,
            26.8231802
          ],
          [
            31.5185285,
            26.8382133
          ],
          [
            31.5132249,
            26.8437806
          ],
          [
            31.511353,
            26.8468425
          ],
          [
            31.5079213,
            26.8532444
          ],
          [
            31.5051135,
            26.8627074
          ],
          [
            31.5016817,
            26.8693867
          ],
          [
            31.497314,
            26.8746742
          ],
          [
            31.4960661,
            26.8782919
          ],
          [
            31.4857709,
            26.8894223
          ],
          [
            31.4817152,
            26.8955436
          ],
          [
            31.4817152,
            26.9013863
          ],
          [
            31.4778985,
            26.9125798
          ],
          [
            31.4769626,
            26.9170308
          ],
          [
            31.4719709,
            26.9184217
          ],
          [
            31.4641715,
            26.9242632
          ],
          [
            31.456684,
            26.9317733
          ],
          [
            31.4523163,
            26.937336
          ],
          [
            31.4467008,
            26.9415079
          ],
          [
            31.4442049,
            26.9398391
          ],
          [
            31.4463888,
            26.9348328
          ],
          [
            31.42426,
            26.9279797
          ],
          [
            31.42546,
            26.9264611
          ],
          [
            31.4245696,
            26.9259434
          ],
          [
            31.4205439,
            26.9238726
          ],
          [
            31.4205439,
            26.9231823
          ],
          [
            31.4178342,
            26.9220434
          ],
          [
            31.4154342,
            26.9215947
          ],
          [
            31.4305381,
            26.9064339
          ],
          [
            31.4287962,
            26.9057435
          ],
          [
            31.4272478,
            26.9078147
          ],
          [
            31.4261639,
            26.9074004
          ],
          [
            31.4254284,
            26.9087121
          ],
          [
            31.4228349,
            26.9077456
          ],
          [
            31.4244994,
            26.9053638
          ],
          [
            31.4191575,
            26.9032236
          ],
          [
            31.4197769,
            26.9024296
          ],
          [
            31.4175705,
            26.901325
          ],
          [
            31.4195834,
            26.8983907
          ],
          [
            31.4160221,
            26.8964575
          ],
          [
            31.4150931,
            26.8969753
          ],
          [
            31.4060738,
            26.8974932
          ],
          [
            31.4059189,
            26.8986324
          ],
          [
            31.4166414,
            26.9024642
          ],
          [
            31.4158285,
            26.9044663
          ],
          [
            31.4189253,
            26.9058816
          ],
          [
            31.4181898,
            26.9074695
          ],
          [
            31.4147834,
            26.9061578
          ],
          [
            31.4120347,
            26.910499
          ],
          [
            31.4059573,
            26.9102228
          ],
          [
            31.4069637,
            26.9072888
          ],
          [
            31.3998025,
            26.9054593
          ],
          [
            31.3956606,
            26.901455
          ],
          [
            31.3909381,
            26.8984171
          ],
          [
            31.3909768,
            26.8970363
          ],
          [
            31.3819962,
            26.8918579
          ],
          [
            31.3875316,
            26.8851256
          ],
          [
            31.3825965,
            26.8817553
          ],
          [
            31.3800804,
            26.8855877
          ],
          [
            31.3789191,
            26.8850698
          ],
          [
            31.3774094,
            26.8837924
          ],
          [
            31.3752417,
            26.8872794
          ],
          [
            31.3696643,
            26.8844255
          ],
          [
            31.366645,
            26.8911578
          ],
          [
            31.3628515,
            26.8889828
          ],
          [
            31.3635095,
            26.8873256
          ],
          [
            31.3633547,
            26.8873256
          ],
          [
            31.3633547,
            26.8869113
          ],
          [
            31.3551096,
            26.8820777
          ],
          [
            31.3589039,
            26.8754628
          ],
          [
            31.3589426,
            26.8749103
          ],
          [
            31.3585555,
            26.8742542
          ],
          [
            31.3578201,
            26.8740816
          ],
          [
            31.3544523,
            26.8726659
          ],
          [
            31.3548007,
            26.8720444
          ],
          [
            31.3479879,
            26.8686604
          ],
          [
            31.3475234,
            26.8690403
          ],
          [
            31.3450072,
            26.8683151
          ],
          [
            31.3437298,
            26.8676245
          ],
          [
            31.3439234,
            26.8671756
          ],
          [
            31.3419795,
            26.8659262
          ],
          [
            31.3395021,
            26.8636472
          ],
          [
            31.3381086,
            26.8627493
          ],
          [
            31.3377215,
            26.8632673
          ],
          [
            31.3357086,
            26.8621277
          ],
          [
            31.3353602,
            26.8622313
          ],
          [
            31.3350506,
            26.8621277
          ],
          [
            31.3348957,
            26.8623349
          ],
          [
            31.3317603,
            26.8603666
          ],
          [
            31.3321087,
            26.8580183
          ],
          [
            31.3304055,
            26.8579492
          ],
          [
            31.2902081,
            26.8332586
          ],
          [
            31.1374017,
            26.8273987
          ],
          [
            30.8661385,
            26.7941553
          ]
        ]
      }
    }
  ]
}