{
  "type": "Feature",
  "properties": {},
  "geometry": {
    "type": "LineString",
    "coordinates": [
      [
        29.7684161,
        28.7816627
      ],
      [
        29.8520834,
        29.0903834
      ],
      [
        30.1143918,
        29.0429478
      ],
      [
        30.2885104,
        29.0271311
      ],
      [
        30.2952942,
        28.9717535
      ],
      [
        30.3721777,
        28.9658185
      ],
      [
        30.7905144,
        29.0765503
      ],
      [
        30.8153885,
        29.0666683
      ],
      [
        30.8402626,
        29.1279211
      ],
      [
        30.8538302,
        29.1298964
      ],
      [
        30.8583528,
        29.151622
      ],
      [
        30.9035784,
        29.1832148
      ],
      [
        30.9058397,
        29.1950596
      ],
      [
        30.9420201,
        29.2128242
      ],
      [
        30.9510653,
        29.1990075
      ],
      [
        30.989507,
        29.218745
      ],
      [
        30.9849844,
        29.2365055
      ],
      [
        31.0121198,
        29.25229
      ],
      [
        31.0188613,
        29.3153298
      ],
      [
        31.0505192,
        29.3409586
      ],
      [
        31.0482579,
        29.3586979
      ],
      [
        31.0482579,
        29.3744635
      ],
      [
        31.0346902,
        29.3902267
      ],
      [
        31.0640868,
        29.425685
      ],
      [
        31.1228801,
        29.4237154
      ],
      [
        31.1500155,
        29.4178065
      ],
      [
        31.1726283,
        29.429624
      ],
      [
        31.1726283,
        29.4197762
      ],
      [
        31.1861959,
        29.4059875
      ],
      [
        31.2178539,
        29.4040175
      ],
      [
        31.2291602,
        29.3902267
      ],
      [
        31.2291602,
        29.356727
      ],
      [
        31.2155926,
        29.3271593
      ],
      [
        31.2155926,
        29.3034989
      ],
      [
        31.2201151,
        29.2739158
      ],
      [
        31.2133313,
        29.2482701
      ],
      [
        31.2133313,
        29.2305117
      ],
      [
        31.2065475,
        29.2068289
      ],
      [
        31.2223764,
        29.2206445
      ],
      [
        31.2336828,
        29.2403779
      ],
      [
        31.2382054,
        29.2679981
      ],
      [
        31.2449892,
        29.2877223
      ],
      [
        31.2440663,
        29.2945643
      ],
      [
        31.2602177,
        29.2913446
      ],
      [
        31.2814453,
        29.2663886
      ],
      [
        31.2874444,
        29.2543109
      ],
      [
        31.2989811,
        29.2466609
      ],
      [
        31.2985197,
        29.2438424
      ],
      [
        31.3012885,
        29.2361917
      ],
      [
        31.3197472,
        29.2180693
      ],
      [
        31.3248234,
        29.2156527
      ],
      [
        31.3400519,
        29.1979295
      ],
      [
        31.3483583,
        29.1886639
      ],
      [
        31.3497428,
        29.176577
      ],
      [
        31.3506657,
        29.1705331
      ],
      [
        31.3589721,
        29.1640858
      ],
      [
        31.3649712,
        29.1556231
      ],
      [
        31.3686413,
        29.1552354
      ],
      [
        31.3764862,
        29.1512053
      ],
      [
        31.3912533,
        29.1354864
      ],
      [
        31.3926377,
        29.1250058
      ],
      [
        31.4397076,
        29.0931543
      ],
      [
        31.4577049,
        29.085089
      ],
      [
        31.5038518,
        29.0600828
      ],
      [
        31.5744566,
        29.0516116
      ],
      [
        31.5887622,
        29.0455603
      ],
      [
        31.6026062,
        29.0431396
      ],
      [
        31.6381394,
        29.0221585
      ],
      [
        31.7497126,
        29.0007141
      ],
      [
        31.7843228,
        28.9974852
      ],
      [
        31.8407004,
        28.9752837
      ],
      [
        31.8563903,
        28.9668056
      ],
      [
        31.8739262,
        28.9494433
      ],
      [
        31.7963918,
        28.8586508
      ],
      [
        31.7913156,
        28.8392492
      ],
      [
        31.7839321,
        28.8133749
      ],
      [
        31.7719339,
        28.7972002
      ],
      [
        31.7465531,
        28.7676748
      ],
      [
        31.7359393,
        28.7438058
      ],
      [
        31.7294788,
        28.7320715
      ],
      [
        31.7234796,
        28.7292389
      ],
      [
        31.7322476,
        28.7028061
      ],
      [
        31.7437843,
        28.6712296
      ],
      [
        31.7719339,
        28.6315431
      ],
      [
        31.7830092,
        28.6137199
      ],
      [
        31.7950074,
        28.5720815
      ],
      [
        31.8060827,
        28.5416819
      ],
      [
        31.8116203,
        28.527087
      ],
      [
        31.816235,
        28.5222216
      ],
      [
        31.8153121,
        28.4950521
      ],
      [
        31.8157735,
        28.4865349
      ],
      [
        31.8102359,
        28.4788282
      ],
      [
        31.8046983,
        28.447996
      ],
      [
        31.8097744,
        28.4337939
      ],
      [
        31.8130047,
        28.4309532
      ],
      [
        31.8033139,
        28.4260834
      ],
      [
        31.7950074,
        28.422025
      ],
      [
        31.7917771,
        28.4190294
      ],
      [
        31.7908542,
        28.4149708
      ],
      [
        31.7945459,
        28.4072589
      ],
      [
        31.7973148,
        28.4036057
      ],
      [
        31.7973148,
        28.3934573
      ],
      [
        31.809313,
        28.3889917
      ],
      [
        31.8166965,
        28.3804659
      ],
      [
        31.8259259,
        28.3731576
      ],
      [
        31.8360782,
        28.3487928
      ],
      [
        31.846692,
        28.3422945
      ],
      [
        31.8517681,
        28.3268596
      ],
      [
        31.8573058,
        28.3175164
      ],
      [
        31.8702269,
        28.3089849
      ],
      [
        31.8766875,
        28.2992337
      ],
      [
        31.7160886,
        28.2577748
      ],
      [
        31.5370385,
        28.271594
      ],
      [
        31.4876613,
        28.2923195
      ],
      [
        31.3473277,
        28.3378268
      ],
      [
        31.2222695,
        28.4064471
      ],
      [
        31.1414973,
        28.524067
      ],
      [
        31.106348,
        28.6116987
      ],
      [
        31.029744,
        28.6991675
      ],
      [
        30.9203136,
        28.7080723
      ],
      [
        30.9175447,
        28.7169894
      ],
      [
        30.9184677,
        28.7218458
      ],
      [
        30.9253897,
        28.7351998
      ],
      [
        30.9313888,
        28.7436969
      ],
      [
        30.9438485,
        28.7473383
      ],
      [
        30.9503091,
        28.7453153
      ],
      [
        30.9544623,
        28.7412692
      ],
      [
        30.9535394,
        28.7594754
      ],
      [
        30.9110842,
        28.7590708
      ],
      [
        30.8986245,
        28.7351998
      ],
      [
        30.8838575,
        28.713347
      ],
      [
        30.8677061,
        28.7137517
      ],
      [
        30.8635528,
        28.7186083
      ],
      [
        30.8603225,
        28.7222505
      ],
      [
        30.8497087,
        28.725488
      ],
      [
        30.8506317,
        28.7299394
      ],
      [
        30.8363261,
        28.7384369
      ],
      [
        30.8367876,
        28.7416739
      ],
      [
        30.8298656,
        28.7424831
      ],
      [
        30.8218296,
        28.74046
      ],
      [
        30.8130617,
        28.7420785
      ],
      [
        30.8139847,
        28.7525979
      ],
      [
        30.8029094,
        28.7525979
      ],
      [
        30.7982947,
        28.7465291
      ],
      [
        30.7950644,
        28.7400554
      ],
      [
        30.79368,
        28.7501704
      ],
      [
        30.7862965,
        28.7509796
      ],
      [
        30.785835,
        28.7546207
      ],
      [
        30.7590698,
        28.7570481
      ],
      [
        30.7576854,
        28.7594754
      ],
      [
        30.7516863,
        28.7590708
      ],
      [
        30.7369193,
        28.7631162
      ],
      [
        30.7309202,
        28.7712066
      ],
      [
        30.7133843,
        28.781723
      ],
      [
        30.6921567,
        28.786172
      ],
      [
        30.6666657,
        28.7841498
      ],
      [
        30.6551289,
        28.7764649
      ],
      [
        30.6482069,
        28.7687795
      ],
      [
        30.6405308,
        28.7679705
      ],
      [
        29.973342,
        28.768375
      ],
      [
        29.7758331,
        28.7776784
      ],
      [
        29.7689111,
        28.7805097
      ]
    ]
  }
}