{
  "type": "FeatureCollection",
  "features": [
    {
      "geometry": {
        "type": "MultiPolygon",
        "coordinates": [
    [
 [
      [
        31.3334104,
        29.768081
      ],
      [
        31.3350998,
        29.7670144
      ],
      [
        31.3523018,
        29.7655479
      ],
      [
        31.3607491,
        29.7624813
      ],
      [
        31.3615171,
        29.7754134
      ],
      [
        31.674489,
        29.7787461
      ],
      [
        31.898002,
        29.7815456
      ],
      [
        31.9029193,
        29.8318554
      ],
      [
        31.9062983,
        29.8644641
      ],
      [
        31.9006155,
        29.9248156
      ],
      [
        31.8969294,
        30.0482646
      ],
      [
        31.8758877,
        30.1268993
      ],
      [
        31.8566891,
        30.2047659
      ],
      [
        31.8482418,
        30.2371855
      ],
      [
        31.7841953,
        30.2012192
      ],
      [
        31.7663726,
        30.1909657
      ],
      [
        31.7582324,
        30.187514
      ],
      [
        31.7431808,
        30.180743
      ],
      [
        31.7364229,
        30.1804775
      ],
      [
        31.6963362,
        30.2238834
      ],
      [
        31.6960416,
        30.2242815
      ],
      [
        31.6462789,
        30.1903019
      ],
      [
        31.6271882,
        30.1857907
      ],
      [
        31.5898662,
        30.1783557
      ],
      [
        31.5388748,
        30.1721153
      ],
      [
        31.4780066,
        30.1638782
      ],
      [
        31.4624941,
        30.159496
      ],
      [
        31.4591152,
        30.1669324
      ],
      [
        31.4601903,
        30.1709159
      ],
      [
        31.4571185,
        30.1723765
      ],
      [
        31.4486712,
        30.1808741
      ],
      [
        31.4452971,
        30.1853817
      ],
      [
        31.4428397,
        30.1868421
      ],
      [
        31.4405359,
        30.1865766
      ],
      [
        31.4388464,
        30.1867093
      ],
      [
        31.4383856,
        30.1881697
      ],
      [
        31.4383856,
        30.1934799
      ],
      [
        31.4339316,
        30.1936126
      ],
      [
        31.4317813,
        30.1929489
      ],
      [
        31.4284024,
        30.1917541
      ],
      [
        31.4254842,
        30.1906921
      ],
      [
        31.4231804,
        30.1893645
      ],
      [
        31.419955,
        30.1883024
      ],
      [
        31.4170277,
        30.1879042
      ],
      [
        31.4059693,
        30.1898955
      ],
      [
        31.4024367,
        30.1779467
      ],
      [
        31.4002865,
        30.1747601
      ],
      [
        31.3890745,
        30.177814
      ],
      [
        31.3887674,
        30.1763534
      ],
      [
        31.3844669,
        30.1786106
      ],
      [
        31.3840061,
        30.1758223
      ],
      [
        31.3792449,
        30.1784778
      ],
      [
        31.3764803,
        30.1792744
      ],
      [
        31.3761731,
        30.1618799
      ],
      [
        31.3706439,
        30.1574976
      ],
      [
        31.3711047,
        30.1567008
      ],
      [
        31.3660362,
        30.154576
      ],
      [
        31.3589712,
        30.1654653
      ],
      [
        31.339619,
        30.163739
      ],
      [
        31.337008,
        30.1654653
      ],
      [
        31.3374688,
        30.1691833
      ],
      [
        31.3214955,
        30.1721046
      ],
      [
        31.3210348,
        30.1713079
      ],
      [
        31.3202668,
        30.1705112
      ],
      [
        31.3204204,
        30.1689178
      ],
      [
        31.3288678,
        30.1667932
      ],
      [
        31.3277927,
        30.157232
      ],
      [
        31.3267175,
        30.157232
      ],
      [
        31.3262568,
        30.1520527
      ],
      [
        31.3234978,
        30.1517752
      ],
      [
        31.3218083,
        30.1424783
      ],
      [
        31.3165863,
        30.1418142
      ],
      [
        31.3119786,
        30.1423454
      ],
      [
        31.3096748,
        30.141947
      ],
      [
        31.3078317,
        30.1399546
      ],
      [
        31.3061423,
        30.138892
      ],
      [
        31.3019954,
        30.1354385
      ],
      [
        31.3019954,
        30.1341102
      ],
      [
        31.2998451,
        30.1327819
      ],
      [
        31.2978485,
        30.1309222
      ],
      [
        31.2967734,
        30.1291953
      ],
      [
        31.290169,
        30.1303909
      ],
      [
        31.2843327,
        30.1147149
      ],
      [
        31.2832576,
        30.1131206
      ],
      [
        31.2680523,
        30.1104634
      ],
      [
        31.2583762,
        30.108869
      ],
      [
        31.2565331,
        30.1084704
      ],
      [
        31.2422494,
        30.1043515
      ],
      [
        31.2391986,
        30.1050343
      ],
      [
        31.2325943,
        30.0912148
      ],
      [
        31.2298297,
        30.0869622
      ],
      [
        31.2279866,
        30.0804502
      ],
      [
        31.2253756,
        30.074868
      ],
      [
        31.2236862,
        30.0752668
      ],
      [
        31.2175426,
        30.0700831
      ],
      [
        31.2146244,
        30.0660955
      ],
      [
        31.2183105,
        30.0496117
      ],
      [
        31.2213823,
        30.0375875
      ],
      [
        31.2230718,
        30.0370557
      ],
      [
        31.2230718,
        30.0347953
      ],
      [
        31.2206144,
        30.0296095
      ],
      [
        31.2204608,
        30.0208186
      ],
      [
        31.2195393,
        30.0161641
      ],
      [
        31.220768,
        30.0108443
      ],
      [
        31.22599,
        30.000603
      ],
      [
        31.2266043,
        29.9990069
      ],
      [
        31.2267579,
        29.9911588
      ],
      [
        31.2265772,
        29.9886217
      ],
      [
        31.2298026,
        29.9809058
      ],
      [
        31.2337959,
        29.9733224
      ],
      [
        31.234871,
        29.9676012
      ],
      [
        31.2347174,
        29.9660045
      ],
      [
        31.2357926,
        29.9641417
      ],
      [
        31.2397859,
        29.9613474
      ],
      [
        31.2439327,
        29.9592184
      ],
      [
        31.2471581,
        29.9574885
      ],
      [
        31.248694,
        29.9564239
      ],
      [
        31.2505371,
        29.9536294
      ],
      [
        31.2542232,
        29.9512341
      ],
      [
        31.2612883,
        29.947774
      ],
      [
        31.2662031,
        29.9459108
      ],
      [
        31.270605,
        29.9424002
      ],
      [
        31.2736768,
        29.939206
      ],
      [
        31.2761342,
        29.9337491
      ],
      [
        31.2799739,
        29.9216362
      ],
      [
        31.2827385,
        29.9145808
      ],
      [
        31.284428,
        29.9105869
      ],
      [
        31.2833529,
        29.9024656
      ],
      [
        31.2827385,
        29.8946195
      ],
      [
        31.2816634,
        29.8835673
      ],
      [
        31.2882677,
        29.8647889
      ],
      [
        31.2910348,
        29.8589545
      ],
      [
        31.2947209,
        29.8427028
      ],
      [
        31.2947209,
        29.8383063
      ],
      [
        31.2918027,
        29.8320444
      ],
      [
        31.2910348,
        29.8292464
      ],
      [
        31.2922635,
        29.8196527
      ],
      [
        31.2947209,
        29.8065931
      ],
      [
        31.2950281,
        29.8003643
      ],
      [
        31.2937994,
        29.7923673
      ],
      [
        31.2921099,
        29.7866357
      ],
      [
        31.2921099,
        29.7807704
      ],
      [
        31.2890381,
        29.7731718
      ],
      [
        31.2904204,
        29.7710387
      ],
      [
        31.2971783,
        29.7713054
      ],
      [
        31.2988678,
        29.7683724
      ],
      [
        31.2999429,
        29.7585061
      ],
      [
        31.3033219,
        29.7573061
      ],
      [
        31.3063936,
        29.7555727
      ],
      [
        31.3068544,
        29.7539727
      ],
      [
        31.3125372,
        29.7550394
      ],
      [
        31.3123836,
        29.7593061
      ],
      [
        31.317452,
        29.7607728
      ],
      [
        31.3183736,
        29.7598394
      ],
      [
        31.3225204,
        29.7615728
      ],
      [
        31.3318894,
        29.7642393
      ],
      [
        31.3332717,
        29.7679724
          ]
             ]
   ]
]

    }, 
      "type": "Feature", 
      "properties": {
        "source": "https://simplemaps.com", 
        "id": "EG", 
        "name": "Egypt"
      }, 
      "id": 1
      
    }
  ]
}