{
  "type": "FeatureCollection",
  "features": [
    {
      "geometry": {
        "type": "MultiPolygon",
        "coordinates": [
    [
 [
          [
            31.2666198,
            30.0368391
          ],
          [
            31.8313641,
            31.4064212
          ],
          [
            31.8371208,
            31.3991956
          ],
          [
            31.8363224,
            31.3978475
          ],
          [
            31.8366289,
            31.3970626
          ],
          [
            31.8377017,
            31.3965829
          ],
          [
            31.8382125,
            31.3954056
          ],
          [
            31.8380593,
            31.3944463
          ],
          [
            31.8381614,
            31.3940103
          ],
          [
            31.8386723,
            31.393487
          ],
          [
            31.8386723,
            31.392048
          ],
          [
            31.8395407,
            31.3899985
          ],
          [
            31.8395407,
            31.3897368
          ],
          [
            31.8400005,
            31.3876436
          ],
          [
            31.84092,
            31.3856376
          ],
          [
            31.8430655,
            31.3866406
          ],
          [
            31.8441893,
            31.3853953
          ],
          [
            31.8449045,
            31.38509
          ],
          [
            31.8458751,
            31.3857442
          ],
          [
            31.8473565,
            31.3859622
          ],
          [
            31.8478163,
            31.3853517
          ],
          [
            31.8489401,
            31.3857442
          ],
          [
            31.8498086,
            31.3856134
          ],
          [
            31.8514943,
            31.3847848
          ],
          [
            31.8520562,
            31.3838254
          ],
          [
            31.8514432,
            31.3826479
          ],
          [
            31.8433337,
            31.3778169
          ],
          [
            31.8402095,
            31.3767345
          ],
          [
            31.838489,
            31.3765412
          ],
          [
            31.8379909,
            31.3760387
          ],
          [
            31.835229,
            31.3754588
          ],
          [
            31.8326934,
            31.3748777
          ],
          [
            31.8315615,
            31.3736793
          ],
          [
            31.8321048,
            31.3715144
          ],
          [
            31.8330557,
            31.3700067
          ],
          [
            31.8347762,
            31.368847
          ],
          [
            31.837357,
            31.3678031
          ],
          [
            31.8413415,
            31.3682284
          ],
          [
            31.8417037,
            31.3692336
          ],
          [
            31.845628,
            31.3709448
          ],
          [
            31.8491597,
            31.3708674
          ],
          [
            31.8510161,
            31.3691278
          ],
          [
            31.8519216,
            31.3689731
          ],
          [
            31.8511066,
            31.3702489
          ],
          [
            31.8552269,
            31.3683546
          ],
          [
            31.8526913,
            31.3648738
          ],
          [
            31.8549552,
            31.365879
          ],
          [
            31.857038,
            31.3643326
          ],
          [
            31.8543213,
            31.3603117
          ],
          [
            31.8563135,
            31.3591518
          ],
          [
            31.8568116,
            31.360157
          ],
          [
            31.8597641,
            31.3589458
          ],
          [
            31.8575455,
            31.3548474
          ],
          [
            31.8594925,
            31.3537648
          ],
          [
            31.8592208,
            31.3525661
          ],
          [
            31.8598094,
            31.3526048
          ],
          [
            31.8598094,
            31.3517541
          ],
          [
            31.8572739,
            31.3515221
          ],
          [
            31.8564589,
            31.3509421
          ],
          [
            31.8522481,
            31.3507875
          ],
          [
            31.8514783,
            31.3505555
          ],
          [
            31.8495314,
            31.3507101
          ],
          [
            31.8473128,
            31.3509421
          ],
          [
            31.8453659,
            31.3514061
          ],
          [
            31.8445056,
            31.3518701
          ],
          [
            31.8437811,
            31.3524888
          ],
          [
            31.839525,
            31.3539194
          ],
          [
            31.8378498,
            31.3534168
          ],
          [
            31.8349291,
            31.3536488
          ],
          [
            31.8332991,
            31.3528368
          ],
          [
            31.8317596,
            31.3531461
          ],
          [
            31.831171,
            31.3539581
          ],
          [
            31.8268244,
            31.3543448
          ],
          [
            31.8264169,
            31.3539194
          ],
          [
            31.822523,
            31.3541128
          ],
          [
            31.8219797,
            31.3548474
          ],
          [
            31.8159578,
            31.35593
          ],
          [
            31.815058,
            31.3538034
          ],
          [
            31.8136997,
            31.3547701
          ],
          [
            31.8123413,
            31.3551181
          ],
          [
            31.8091719,
            31.3579406
          ],
          [
            31.8069986,
            31.35651
          ],
          [
            31.8122055,
            31.3524115
          ],
          [
            31.8116169,
            31.3514835
          ],
          [
            31.79663,
            31.3625415
          ],
          [
            31.7942946,
            31.3654031
          ],
          [
            31.7927099,
            31.3646299
          ],
          [
            31.7902649,
            31.368032
          ],
          [
            31.7882274,
            31.3702356
          ],
          [
            31.7815716,
            31.3749519
          ],
          [
            31.7807113,
            31.3739468
          ],
          [
            31.7790361,
            31.3747973
          ],
          [
            31.7779947,
            31.373367
          ],
          [
            31.7771797,
            31.3696171
          ],
          [
            31.7760017,
            31.3663685
          ],
          [
            31.7759111,
            31.3660979
          ],
          [
            31.78551,
            31.3622704
          ],
          [
            31.7932978,
            31.3603372
          ],
          [
            31.7916678,
            31.3587134
          ],
          [
            31.791713,
            31.3374156
          ],
          [
            31.7907622,
            31.3337803
          ],
          [
            31.7896755,
            31.3315758
          ],
          [
            31.7940222,
            31.3297968
          ],
          [
            31.7953353,
            31.3315372
          ],
          [
            31.7963314,
            31.3290233
          ],
          [
            31.7991838,
            31.3282884
          ],
          [
            31.8037116,
            31.3297581
          ],
          [
            31.798187,
            31.3167058
          ],
          [
            31.778264,
            31.2832291
          ],
          [
            31.7784904,
            31.2574659
          ],
          [
            31.7792149,
            31.2570015
          ],
          [
            31.7774038,
            31.249802
          ],
          [
            31.7793054,
            31.2494536
          ],
          [
            31.7530733,
            31.2380998
          ],
          [
            31.7677142,
            31.222895
          ],
          [
            31.7563042,
            31.2188396
          ],
          [
            31.7532706,
            31.2173295
          ],
          [
            31.748607,
            31.2135347
          ],
          [
            31.7465654,
            31.2124885
          ],
          [
            31.7429431,
            31.2115204
          ],
          [
            31.7148251,
            31.2079189
          ],
          [
            31.6928522,
            31.206215
          ],
          [
            31.6859248,
            31.2060214
          ],
          [
            31.681895,
            31.2107459
          ],
          [
            31.676824,
            31.2161284
          ],
          [
            31.674379,
            31.2157412
          ],
          [
            31.6731112,
            31.2172126
          ],
          [
            31.6717076,
            31.2179096
          ],
          [
            31.6703945,
            31.2179871
          ],
          [
            31.6657556,
            31.2140374
          ],
          [
            31.6657556,
            31.2121787
          ],
          [
            31.6654387,
            31.2114429
          ],
          [
            31.6643973,
            31.2109395
          ],
          [
            31.6625409,
            31.2103199
          ],
          [
            31.661092,
            31.2098552
          ],
          [
            31.6590092,
            31.2095454
          ],
          [
            31.6579679,
            31.2093905
          ],
          [
            31.6569265,
            31.2088871
          ],
          [
            31.6567001,
            31.2078415
          ],
          [
            31.6564284,
            31.2071444
          ],
          [
            31.6564562,
            31.2053734
          ],
          [
            31.6492571,
            31.1985572
          ],
          [
            31.647446,
            31.1976277
          ],
          [
            31.6456349,
            31.1968144
          ],
          [
            31.6429635,
            31.1959623
          ],
          [
            31.642101,
            31.1952238
          ],
          [
            31.641603,
            31.1907309
          ],
          [
            31.6411049,
            31.1901887
          ],
          [
            31.6388863,
            31.1894915
          ],
          [
            31.6384335,
            31.1894915
          ],
          [
            31.6372563,
            31.1892203
          ],
          [
            31.6348566,
            31.1893365
          ],
          [
            31.6311438,
            31.1906535
          ],
          [
            31.6282461,
            31.1862378
          ],
          [
            31.6279291,
            31.1848821
          ],
          [
            31.6262086,
            31.182558
          ],
          [
            31.6267519,
            31.1813959
          ],
          [
            31.6206664,
            31.1763386
          ],
          [
            31.6195797,
            31.1732395
          ],
          [
            31.6195345,
            31.1713412
          ],
          [
            31.6192628,
            31.1707601
          ],
          [
            31.6186742,
            31.1702565
          ],
          [
            31.6179498,
            31.1703727
          ],
          [
            31.61718,
            31.1710313
          ],
          [
            31.6168631,
            31.1710313
          ],
          [
            31.6155048,
            31.1704502
          ],
          [
            31.6143275,
            31.1690942
          ],
          [
            31.6116109,
            31.1687456
          ],
          [
            31.6078076,
            31.1619149
          ],
          [
            31.6091206,
            31.1591252
          ],
          [
            31.6076265,
            31.1584278
          ],
          [
            31.5998542,
            31.1581566
          ],
          [
            31.5992203,
            31.1576141
          ],
          [
            31.5989034,
            31.1578466
          ],
          [
            31.5941945,
            31.1569942
          ],
          [
            31.5941945,
            31.1573042
          ],
          [
            31.5934248,
            31.1579628
          ],
          [
            31.593289,
            31.1585828
          ],
          [
            31.5931531,
            31.1619149
          ],
          [
            31.5937417,
            31.1619149
          ],
          [
            31.5935606,
            31.1627672
          ],
          [
            31.5926551,
            31.1628835
          ],
          [
            31.5930626,
            31.1653631
          ],
          [
            31.5933795,
            31.1652856
          ],
          [
            31.594602,
            31.1657117
          ],
          [
            31.5936512,
            31.1719879
          ],
          [
            31.5944209,
            31.1727933
          ],
          [
            31.5939681,
            31.174769
          ],
          [
            31.591659,
            31.1750789
          ],
          [
            31.5912062,
            31.1751177
          ],
          [
            31.5909345,
            31.176551
          ],
          [
            31.5902554,
            31.1765123
          ],
          [
            31.5901648,
            31.176551
          ],
          [
            31.5896667,
            31.1769384
          ],
          [
            31.5895309,
            31.1777519
          ],
          [
            31.5887612,
            31.1786041
          ],
          [
            31.5867237,
            31.1786816
          ],
          [
            31.5857276,
            31.1809671
          ],
          [
            31.5845051,
            31.1831363
          ],
          [
            31.5823793,
            31.1836197
          ],
          [
            31.5839188,
            31.1849755
          ],
          [
            31.5856393,
            31.1858276
          ],
          [
            31.5889899,
            31.1893912
          ],
          [
            31.5996754,
            31.1951622
          ],
          [
            31.605354,
            31.198125
          ],
          [
            31.6057162,
            31.1978152
          ],
          [
            31.6181223,
            31.2049025
          ],
          [
            31.6279475,
            31.2095883
          ],
          [
            31.6332162,
            31.2143293
          ],
          [
            31.6347556,
            31.2182015
          ],
          [
            31.6344387,
            31.2202537
          ],
          [
            31.6338048,
            31.2215702
          ],
          [
            31.6326275,
            31.2224995
          ],
          [
            31.6309976,
            31.2232352
          ],
          [
            31.6286431,
            31.2242032
          ],
          [
            31.6229905,
            31.2260612
          ],
          [
            31.620138,
            31.2276874
          ],
          [
            31.6175572,
            31.2295071
          ],
          [
            31.6155197,
            31.2309396
          ],
          [
            31.6139803,
            31.2324495
          ],
          [
            31.6130294,
            31.2344627
          ],
          [
            31.612305,
            31.2368465
          ],
          [
            31.6122144,
            31.2388209
          ],
          [
            31.6128483,
            31.2406404
          ],
          [
            31.613935,
            31.2426147
          ],
          [
            31.6155197,
            31.2441632
          ],
          [
            31.617195,
            31.2452471
          ],
          [
            31.6192778,
            31.2460987
          ],
          [
            31.6215416,
            31.2463697
          ],
          [
            31.623715,
            31.2463309
          ],
          [
            31.6257977,
            31.2453632
          ],
          [
            31.6293294,
            31.2437373
          ],
          [
            31.6333638,
            31.2421889
          ],
          [
            31.6393405,
            31.2411437
          ],
          [
            31.6426004,
            31.2410663
          ],
          [
            31.6460415,
            31.2410663
          ],
          [
            31.6481696,
            31.2412598
          ],
          [
            31.6502976,
            31.2424986
          ],
          [
            31.6550971,
            31.2440083
          ],
          [
            31.6585834,
            31.2446277
          ],
          [
            31.6531134,
            31.2511332
          ],
          [
            31.652389,
            31.2518686
          ],
          [
            31.6537926,
            31.253146
          ],
          [
            31.6525248,
            31.2545394
          ],
          [
            31.6557848,
            31.2565521
          ],
          [
            31.6531587,
            31.2597259
          ],
          [
            31.654517,
            31.2605
          ],
          [
            31.6526606,
            31.2624739
          ],
          [
            31.6506676,
            31.2634821
          ],
          [
            31.6478151,
            31.266617
          ],
          [
            31.6437854,
            31.2693648
          ],
          [
            31.6404802,
            31.2694422
          ],
          [
            31.6330539,
            31.2733543
          ],
          [
            31.6339595,
            31.2740509
          ],
          [
            31.6337331,
            31.2754827
          ],
          [
            31.6337331,
            31.2760632
          ],
          [
            31.6309259,
            31.2797781
          ],
          [
            31.6290242,
            31.2780367
          ],
          [
            31.6249492,
            31.2803198
          ],
          [
            31.6236362,
            31.2794298
          ],
          [
            31.6225042,
            31.2799329
          ],
          [
            31.6273489,
            31.2850406
          ],
          [
            31.6213378,
            31.2923456
          ],
          [
            31.6084233,
            31.3003987
          ],
          [
            31.60462,
            31.3080198
          ],
          [
            31.600862,
            31.3037258
          ],
          [
            31.6003186,
            31.3018688
          ],
          [
            31.5988697,
            31.301095
          ],
          [
            31.5993678,
            31.2987738
          ],
          [
            31.5978284,
            31.2952531
          ],
          [
            31.564903,
            31.3289435
          ],
          [
            31.5631824,
            31.3256559
          ],
          [
            31.5602847,
            31.32349
          ],
          [
            31.5564361,
            31.3205891
          ],
          [
            31.5521347,
            31.3170305
          ],
          [
            31.5510028,
            31.3161402
          ],
          [
            31.5497803,
            31.3171846
          ],
          [
            31.5490558,
            31.318461
          ],
          [
            31.5486483,
            31.3201243
          ],
          [
            31.5488747,
            31.3216714
          ],
          [
            31.549418,
            31.3233346
          ],
          [
            31.5489653,
            31.3250364
          ],
          [
            31.5491877,
            31.3270584
          ],
          [
            31.5487802,
            31.3284894
          ],
          [
            31.5474219,
            31.329611
          ],
          [
            31.5461541,
            31.3316995
          ],
          [
            31.5442977,
            31.3354895
          ],
          [
            31.5426224,
            31.3373458
          ],
          [
            31.5409472,
            31.3361856
          ],
          [
            31.5446147,
            31.3475479
          ],
          [
            31.5502291,
            31.3466972
          ],
          [
            31.5517685,
            31.3472772
          ],
          [
            31.5539871,
            31.3476639
          ],
          [
            31.5548021,
            31.3482826
          ],
          [
            31.5561605,
            31.349056
          ],
          [
            31.5570215,
            31.3497387
          ],
          [
            31.5581534,
            31.3499707
          ],
          [
            31.5588326,
            31.3534121
          ],
          [
            31.5497771,
            31.3541854
          ],
          [
            31.5489168,
            31.354108
          ],
          [
            31.5482829,
            31.353876
          ],
          [
            31.5475585,
            31.3536054
          ],
          [
            31.5378969,
            31.3551133
          ],
          [
            31.5364028,
            31.35492
          ],
          [
            31.5349086,
            31.354456
          ],
          [
            31.5281623,
            31.3546107
          ],
          [
            31.517024,
            31.3569692
          ],
          [
            31.5159373,
            31.3553067
          ],
          [
            31.5084358,
            31.355616
          ],
          [
            31.4997877,
            31.3546494
          ],
          [
            31.49363,
            31.3558866
          ],
          [
            31.4894192,
            31.3509761
          ],
          [
            31.4865077,
            31.3458712
          ],
          [
            31.4856927,
            31.3431257
          ],
          [
            31.4749166,
            31.3514394
          ],
          [
            31.4807121,
            31.3604902
          ],
          [
            31.4687984,
            31.3615341
          ],
          [
            31.4701567,
            31.3641631
          ],
          [
            31.4696134,
            31.3645497
          ],
          [
            31.471017,
            31.36714
          ],
          [
            31.4746845,
            31.3678359
          ],
          [
            31.4823868,
            31.3753229
          ],
          [
            31.4861449,
            31.3768305
          ],
          [
            31.4889068,
            31.378686
          ],
          [
            31.4909443,
            31.3810826
          ],
          [
            31.4975171,
            31.3865921
          ],
          [
            31.498966,
            31.3911143
          ],
          [
            31.5121878,
            31.4038662
          ],
          [
            31.5145996,
            31.4042533
          ],
          [
            31.5257831,
            31.4044465
          ],
          [
            31.5265981,
            31.4058377
          ],
          [
            31.5285451,
            31.4081564
          ],
          [
            31.5297223,
            31.4091997
          ],
          [
            31.5313976,
            31.4101272
          ],
          [
            31.5353387,
            31.4105822
          ],
          [
            31.539957,
            31.4106982
          ],
          [
            31.540455,
            31.4106982
          ],
          [
            31.5429,
            31.411471
          ],
          [
            31.5433981,
            31.4125143
          ],
          [
            31.5437603,
            31.415567
          ],
          [
            31.5438509,
            31.4173058
          ],
          [
            31.5443942,
            31.4189673
          ],
          [
            31.5450734,
            31.4203582
          ],
          [
            31.5454356,
            31.4209378
          ],
          [
            31.5462506,
            31.4241834
          ],
          [
            31.5506878,
            31.4293972
          ],
          [
            31.55268,
            31.4370079
          ],
          [
            31.5548112,
            31.4422481
          ],
          [
            31.5553093,
            31.4427889
          ],
          [
            31.5640167,
            31.4428293
          ],
          [
            31.564409,
            31.4460086
          ],
          [
            31.4834057,
            31.4695989
          ],
          [
            31.398056,
            31.5104065
          ],
          [
            31.3464727,
            31.5361537
          ],
          [
            31.3073816,
            31.5468547
          ],
          [
            31.2962019,
            31.5405028
          ],
          [
            31.2887489,
            31.5378282
          ],
          [
            31.2840416,
            31.5364909
          ],
          [
            31.2767847,
            31.5348192
          ],
          [
            31.2677625,
            31.5286338
          ],
          [
            31.2558205,
            31.5189243
          ],
          [
            31.2466022,
            31.5139083
          ],
          [
            31.240326,
            31.5040425
          ],
          [
            31.2365994,
            31.4976878
          ],
          [
            31.233069,
            31.4868168
          ],
          [
            31.2336574,
            31.4841407
          ],
          [
            31.2318922,
            31.4787883
          ],
          [
            31.2730803,
            31.4536945
          ],
          [
            31.2574839,
            31.4336831
          ],
          [
            31.2745476,
            31.4258173
          ],
          [
            31.2745476,
            31.4244784
          ],
          [
            31.2747437,
            31.4231395
          ],
          [
            31.2745476,
            31.4141011
          ],
          [
            31.275136,
            31.3369376
          ],
          [
            31.2800393,
            31.3369376
          ],
          [
            31.2794509,
            31.3087896
          ],
          [
            31.2804316,
            31.3089572
          ],
          [
            31.2796471,
            31.306276
          ],
          [
            31.2782741,
            31.3061084
          ],
          [
            31.2782741,
            31.3047678
          ],
          [
            31.2770973,
            31.304265
          ],
          [
            31.2757244,
            31.3024216
          ],
          [
            31.2743514,
            31.3004106
          ],
          [
            31.2743514,
            31.2990699
          ],
          [
            31.2735669,
            31.2977292
          ],
          [
            31.2735669,
            31.296556
          ],
          [
            31.2731746,
            31.2955504
          ],
          [
            31.2749398,
            31.2927013
          ],
          [
            31.2757244,
            31.291528
          ],
          [
            31.2763128,
            31.2893492
          ],
          [
            31.2753321,
            31.2870026
          ],
          [
            31.2749398,
            31.2858294
          ],
          [
            31.2759205,
            31.2841532
          ],
          [
            31.2784703,
            31.2818066
          ],
          [
            31.2800393,
            31.2760593
          ],
          [
            31.2825891,
            31.2740477
          ],
          [
            31.2872963,
            31.2705273
          ],
          [
            31.2867079,
            31.2661686
          ],
          [
            31.2876886,
            31.2638214
          ],
          [
            31.2900422,
            31.2619772
          ],
          [
            31.2918074,
            31.2608037
          ],
          [
            31.2921996,
            31.2586241
          ],
          [
            31.291219,
            31.2559414
          ],
          [
            31.2890615,
            31.2504083
          ],
          [
            31.2859233,
            31.2467193
          ],
          [
            31.2914151,
            31.2460486
          ],
          [
            31.2922063,
            31.245837
          ],
          [
            31.2924025,
            31.2423155
          ],
          [
            31.2890682,
            31.2391294
          ],
          [
            31.2884798,
            31.23544
          ],
          [
            31.287303,
            31.2337629
          ],
          [
            31.2841648,
            31.2330921
          ],
          [
            31.2833803,
            31.2320859
          ],
          [
            31.2786731,
            31.2320859
          ],
          [
            31.2786731,
            31.2312473
          ],
          [
            31.2774963,
            31.2288993
          ],
          [
            31.282988,
            31.2285639
          ],
          [
            31.2820074,
            31.2272222
          ],
          [
            31.2802422,
            31.2272222
          ],
          [
            31.2820074,
            31.2235323
          ],
          [
            31.280046,
            31.2195068
          ],
          [
            31.277104,
            31.2169908
          ],
          [
            31.2757311,
            31.214978
          ],
          [
            31.2753388,
            31.2133006
          ],
          [
            31.2743581,
            31.2112877
          ],
          [
            31.2737697,
            31.2089392
          ],
          [
            31.2729852,
            31.2067584
          ],
          [
            31.2674934,
            31.2032355
          ],
          [
            31.2657282,
            31.2015579
          ],
          [
            31.2625901,
            31.2005513
          ],
          [
            31.2608249,
            31.2012224
          ],
          [
            31.2590597,
            31.2012224
          ],
          [
            31.2578829,
            31.1993769
          ],
          [
            31.25651,
            31.197867
          ],
          [
            31.2572945,
            31.1942003
          ],
          [
            31.265336,
            31.1804416
          ],
          [
            31.2704355,
            31.1772534
          ],
          [
            31.2745543,
            31.17138
          ],
          [
            31.2808306,
            31.172219
          ],
          [
            31.280046,
            31.1754075
          ],
          [
            31.2861262,
            31.1755753
          ],
          [
            31.2886759,
            31.1733937
          ],
          [
            31.2898527,
            31.1715478
          ],
          [
            31.290245,
            31.1700374
          ],
          [
            31.2908334,
            31.1690305
          ],
          [
            31.2953445,
            31.1676879
          ],
          [
            31.2967174,
            31.1661692
          ],
          [
            31.2971097,
            31.1639874
          ],
          [
            31.2969135,
            31.1614699
          ],
          [
            31.3012285,
            31.1597916
          ],
          [
            31.3016207,
            31.1564348
          ],
          [
            31.3016207,
            31.1542528
          ],
          [
            31.3004439,
            31.1540849
          ],
          [
            31.3004439,
            31.1512315
          ],
          [
            31.3024053,
            31.1490494
          ],
          [
            31.3027975,
            31.1478744
          ],
          [
            31.3045628,
            31.1463636
          ],
          [
            31.3045628,
            31.1451886
          ],
          [
            31.3008362,
            31.1458601
          ],
          [
            31.2986787,
            31.1500565
          ],
          [
            31.296129,
            31.1530778
          ],
          [
            31.2914218,
            31.1555955
          ],
          [
            31.2849494,
            31.1591202
          ],
          [
            31.2780847,
            31.1611343
          ],
          [
            31.2774963,
            31.1596237
          ],
          [
            31.2751427,
            31.1564348
          ],
          [
            31.2751427,
            31.1534135
          ],
          [
            31.2731813,
            31.1475387
          ],
          [
            31.2718084,
            31.14351
          ],
          [
            31.2700432,
            31.1443493
          ],
          [
            31.2678857,
            31.1428385
          ],
          [
            31.2655321,
            31.1419992
          ],
          [
            31.2592558,
            31.1406562
          ],
          [
            31.2547447,
            31.1391453
          ],
          [
            31.2523911,
            31.1362914
          ],
          [
            31.252195,
            31.1337732
          ],
          [
            31.2519989,
            31.1305834
          ],
          [
            31.2468994,
            31.1282329
          ],
          [
            31.2470955,
            31.1314228
          ],
          [
            31.2284628,
            31.1362914
          ],
          [
            31.2278744,
            31.1349484
          ],
          [
            31.2292473,
            31.1331017
          ],
          [
            31.230228,
            31.1315907
          ],
          [
            31.230228,
            31.1300797
          ],
          [
            31.2286589,
            31.1284008
          ],
          [
            31.2274821,
            31.1262182
          ],
          [
            31.2274821,
            31.1240355
          ],
          [
            31.2286589,
            31.1226923
          ],
          [
            31.2300319,
            31.1210132
          ],
          [
            31.2304241,
            31.1193342
          ],
          [
            31.2298357,
            31.1161439
          ],
          [
            31.2296396,
            31.1149684
          ],
          [
            31.2286589,
            31.1127855
          ],
          [
            31.2286589,
            31.1104346
          ],
          [
            31.2292473,
            31.1090912
          ],
          [
            31.2312087,
            31.1089233
          ],
          [
            31.2337584,
            31.1089233
          ],
          [
            31.2357198,
            31.1089233
          ],
          [
            31.2365043,
            31.1075798
          ],
          [
            31.2370927,
            31.1055647
          ],
          [
            31.2367004,
            31.1026401
          ],
          [
            31.236112,
            31.0994492
          ],
          [
            31.2351314,
            31.0977697
          ],
          [
            31.2370927,
            31.0955864
          ],
          [
            31.2370927,
            31.0945787
          ],
          [
            31.2343468,
            31.0939069
          ],
          [
            31.2343468,
            31.0922273
          ],
          [
            31.2349352,
            31.0908836
          ],
          [
            31.2325816,
            31.089372
          ],
          [
            31.230228,
            31.0900438
          ],
          [
            31.230228,
            31.0878603
          ],
          [
            31.2300319,
            31.0861807
          ],
          [
            31.2268937,
            31.0848369
          ],
          [
            31.2231672,
            31.0856768
          ],
          [
            31.2231672,
            31.084501
          ],
          [
            31.2180677,
            31.0848369
          ],
          [
            31.2180677,
            31.0799657
          ],
          [
            31.2180677,
            31.076774
          ],
          [
            31.2180677,
            31.0737503
          ],
          [
            31.217087,
            31.0696941
          ],
          [
            31.2153218,
            31.0673421
          ],
          [
            31.2123798,
            31.0656621
          ],
          [
            31.2110069,
            31.0621339
          ],
          [
            31.2153218,
            31.0599498
          ],
          [
            31.2115953,
            31.0495324
          ],
          [
            31.2115953,
            31.047684
          ],
          [
            31.2133605,
            31.0470118
          ],
          [
            31.2151257,
            31.047852
          ],
          [
            31.2176754,
            31.0480201
          ],
          [
            31.2210097,
            31.047516
          ],
          [
            31.2235595,
            31.047852
          ],
          [
            31.2278744,
            31.0485242
          ],
          [
            31.2319932,
            31.0495324
          ],
          [
            31.2341507,
            31.0486922
          ],
          [
            31.234543,
            31.0468438
          ],
          [
            31.2365043,
            31.0451634
          ],
          [
            31.2386618,
            31.043315
          ],
          [
            31.2398386,
            31.0428108
          ],
          [
            31.2398386,
            31.0406262
          ],
          [
            31.2412115,
            31.0386096
          ],
          [
            31.2443497,
            31.0379374
          ],
          [
            31.2468994,
            31.0376013
          ],
          [
            31.2488607,
            31.0389457
          ],
          [
            31.252195,
            31.0389457
          ],
          [
            31.2545486,
            31.0394499
          ],
          [
            31.2576868,
            31.0386096
          ],
          [
            31.2582752,
            31.0416345
          ],
          [
            31.2586674,
            31.0428108
          ],
          [
            31.2606288,
            31.0441552
          ],
          [
            31.2606288,
            31.0465077
          ],
          [
            31.2606288,
            31.047684
          ],
          [
            31.2602365,
            31.0486922
          ],
          [
            31.2641592,
            31.0505405
          ],
          [
            31.2702393,
            31.0505405
          ],
          [
            31.2729852,
            31.0515487
          ],
          [
            31.2823996,
            31.047516
          ],
          [
            31.2837726,
            31.0493643
          ],
          [
            31.2869107,
            31.0505405
          ],
          [
            31.2927947,
            31.0594457
          ],
          [
            31.3037782,
            31.0565895
          ],
          [
            31.3026014,
            31.053397
          ],
          [
            31.3010323,
            31.0495324
          ],
          [
            31.2953445,
            31.0406262
          ],
          [
            31.2925986,
            31.036425
          ],
          [
            31.2967174,
            31.0323915
          ],
          [
            31.299071,
            31.0333999
          ],
          [
            31.3002478,
            31.0300386
          ],
          [
            31.3032897,
            31.0273061
          ],
          [
            31.302671,
            31.0265993
          ],
          [
            31.3043207,
            31.0250973
          ],
          [
            31.3033412,
            31.0238603
          ],
          [
            31.3055065,
            31.0222698
          ],
          [
            31.3058673,
            31.0213421
          ],
          [
            31.3062798,
            31.0208119
          ],
          [
            31.3059189,
            31.0204585
          ],
          [
            31.3063313,
            31.018382
          ],
          [
            31.3068468,
            31.0180727
          ],
          [
            31.3075686,
            31.0184704
          ],
          [
            31.3080326,
            31.0181611
          ],
          [
            31.3085481,
            31.0185145
          ],
          [
            31.3095316,
            31.0179497
          ],
          [
            31.3091191,
            31.0168452
          ],
          [
            31.3093253,
            31.0156965
          ],
          [
            31.3092222,
            31.0150337
          ],
          [
            31.3094285,
            31.0141943
          ],
          [
            31.3114906,
            31.0118525
          ],
          [
            31.3097893,
            31.0103503
          ],
          [
            31.307985,
            31.0088921
          ],
          [
            31.3062837,
            31.0078317
          ],
          [
            31.3054589,
            31.0070805
          ],
          [
            31.3048918,
            31.0061968
          ],
          [
            31.3045309,
            31.0052689
          ],
          [
            31.3023657,
            30.9992431
          ],
          [
            31.3016439,
            30.9958405
          ],
          [
            31.300252,
            30.9909845
          ],
          [
            31.2981383,
            30.985195
          ],
          [
            31.2961793,
            30.981836
          ],
          [
            31.295406,
            30.9812172
          ],
          [
            31.2940656,
            30.9805542
          ],
          [
            31.2927253,
            30.98051
          ],
          [
            31.2905085,
            30.9803332
          ],
          [
            31.2879101,
            30.9801991
          ],
          [
            31.2836312,
            30.9790942
          ],
          [
            31.2769808,
            30.977282
          ],
          [
            31.2563165,
            30.9693519
          ],
          [
            31.2545121,
            30.9682026
          ],
          [
            31.2507487,
            30.964622
          ],
          [
            31.245549,
            30.9585842
          ],
          [
            31.2440024,
            30.9574347
          ],
          [
            31.2424558,
            30.9563737
          ],
          [
            31.2409607,
            30.9554895
          ],
          [
            31.2399297,
            30.9547379
          ],
          [
            31.2389502,
            30.9536769
          ],
          [
            31.2386408,
            30.9528369
          ],
          [
            31.2384862,
            30.9519084
          ],
          [
            31.2383315,
            30.9508473
          ],
          [
            31.2385893,
            30.949742
          ],
          [
            31.2404461,
            30.9469206
          ],
          [
            31.2421989,
            30.9448425
          ],
          [
            31.2438486,
            30.943295
          ],
          [
            31.2456529,
            30.9417032
          ],
          [
            31.2489008,
            30.9389175
          ],
          [
            31.2543139,
            30.9351147
          ],
          [
            31.2581803,
            30.9324615
          ],
          [
            31.2594692,
            30.9316199
          ],
          [
            31.2602425,
            30.9304259
          ],
          [
            31.2610157,
            30.9289666
          ],
          [
            31.2614282,
            30.9271093
          ],
          [
            31.2614282,
            30.9244558
          ],
          [
            31.2614282,
            30.9213163
          ],
          [
            31.2610157,
            30.9193262
          ],
          [
            31.2609126,
            30.9183974
          ],
          [
            31.2607064,
            30.9176013
          ],
          [
            31.2598816,
            30.9168936
          ],
          [
            31.2593661,
            30.9161418
          ],
          [
            31.2581288,
            30.9149034
          ],
          [
            31.2550871,
            30.9126034
          ],
          [
            31.2510006,
            30.9098154
          ],
          [
            31.2482683,
            30.9085327
          ],
          [
            31.2447112,
            30.9069845
          ],
          [
            31.2415149,
            30.906321
          ],
          [
            31.2390919,
            30.9050825
          ],
          [
            31.2362565,
            30.9034459
          ],
          [
            31.2341944,
            30.9013226
          ],
          [
            31.2332664,
            30.8999776
          ],
          [
            31.232854,
            30.8981196
          ],
          [
            31.2330086,
            30.8966598
          ],
          [
            31.2340912,
            30.8951557
          ],
          [
            31.2355863,
            30.8943152
          ],
          [
            31.2378546,
            30.893165
          ],
          [
            31.2404323,
            30.8923244
          ],
          [
            31.2444534,
            30.8905011
          ],
          [
            31.2457422,
            30.889572
          ],
          [
            31.2462062,
            30.8889526
          ],
          [
            31.2470826,
            30.8879351
          ],
          [
            31.2473919,
            30.8867848
          ],
          [
            31.247495,
            30.8856345
          ],
          [
            31.2475981,
            30.8850151
          ],
          [
            31.2475466,
            30.8837763
          ],
          [
            31.2474435,
            30.8830242
          ],
          [
            31.2468764,
            30.882095
          ],
          [
            31.246,
            30.8815641
          ],
          [
            31.2440925,
            30.8810774
          ],
          [
            31.2362254,
            30.87948
          ],
          [
            31.2330993,
            30.8772705
          ],
          [
            31.2349382,
            30.8747452
          ],
          [
            31.2424777,
            30.8719042
          ],
          [
            31.2472588,
            30.8679583
          ],
          [
            31.2498332,
            30.8618023
          ],
          [
            31.2524076,
            30.8551723
          ],
          [
            31.2527754,
            30.8482261
          ],
          [
            31.2505688,
            30.8444371
          ],
          [
            31.2463393,
            30.8415952
          ],
          [
            31.240271,
            30.8415952
          ],
          [
            31.2354899,
            30.8427004
          ],
          [
            31.2299732,
            30.8434898
          ],
          [
            31.2262954,
            30.8434898
          ],
          [
            31.2218821,
            30.84049
          ],
          [
            31.2182043,
            30.8373322
          ],
          [
            31.2169171,
            30.8341743
          ],
          [
            31.2182043,
            30.827066
          ],
          [
            31.2196755,
            30.817591
          ],
          [
            31.2239049,
            30.8099902
          ],
          [
            31.227031,
            30.8036725
          ],
          [
            31.230341,
            30.7983022
          ],
          [
            31.2323638,
            30.7975124
          ],
          [
            31.2340188,
            30.7922997
          ],
          [
            31.235306,
            30.7875606
          ],
          [
            31.2365932,
            30.7821893
          ],
          [
            31.2365208,
            30.7789209
          ],
          [
            31.2357973,
            30.7748668
          ],
          [
            31.2348025,
            30.7723414
          ],
          [
            31.2310041,
            30.7678733
          ],
          [
            31.2296023,
            30.7655434
          ],
          [
            31.2290144,
            30.7640668
          ],
          [
            31.2284266,
            30.7625903
          ],
          [
            31.2271605,
            30.7618909
          ],
          [
            31.2257134,
            30.7605697
          ],
          [
            31.2250804,
            30.759132
          ],
          [
            31.2250351,
            30.7574999
          ],
          [
            31.2261656,
            30.7542929
          ],
          [
            31.2277935,
            30.7530493
          ],
          [
            31.2317276,
            30.7505234
          ],
          [
            31.2327224,
            30.7493186
          ],
          [
            31.2362495,
            30.7449464
          ],
          [
            31.2371087,
            30.7438971
          ],
          [
            31.2405454,
            30.742498
          ],
          [
            31.2438916,
            30.7411377
          ],
          [
            31.2466952,
            30.7402438
          ],
          [
            31.2499903,
            30.7390579
          ],
          [
            31.2516182,
            30.7378141
          ],
          [
            31.2536983,
            30.7353266
          ],
          [
            31.2547835,
            30.7323726
          ],
          [
            31.2547383,
            30.7300246
          ],
          [
            31.2540148,
            30.7273814
          ],
          [
            31.2528843,
            30.7248936
          ],
          [
            31.2514373,
            30.7231444
          ],
          [
            31.2505781,
            30.7212785
          ],
          [
            31.2504425,
            30.718845
          ],
          [
            31.2505329,
            30.7156961
          ],
          [
            31.2513016,
            30.7138689
          ],
          [
            31.2527034,
            30.7110418
          ],
          [
            31.2563662,
            30.7085148
          ],
          [
            31.2588533,
            30.7064931
          ],
          [
            31.2604359,
            30.7043936
          ],
          [
            31.262516,
            30.7013609
          ],
          [
            31.2646413,
            30.6981426
          ],
          [
            31.2655005,
            30.6967039
          ],
          [
            31.265817,
            30.6945653
          ],
          [
            31.2658623,
            30.6929711
          ],
          [
            31.2664501,
            30.6880232
          ],
          [
            31.2671284,
            30.6859232
          ],
          [
            31.2681684,
            30.6834344
          ],
          [
            31.2689824,
            30.6809837
          ],
          [
            31.2707912,
            30.6795837
          ],
          [
            31.272193,
            30.6761606
          ],
          [
            31.2742934,
            30.6710727
          ],
          [
            31.275243,
            30.6667554
          ],
          [
            31.2757856,
            30.6625158
          ],
          [
            31.27669,
            30.6516037
          ],
          [
            31.2749264,
            30.6441662
          ],
          [
            31.2723942,
            30.6354321
          ],
          [
            31.2703141,
            30.6302572
          ],
          [
            31.2685505,
            30.6276502
          ],
          [
            31.2661087,
            30.6224658
          ],
          [
            31.2629885,
            30.6156937
          ],
          [
            31.2614059,
            30.6102842
          ],
          [
            31.2613154,
            30.6061199
          ],
          [
            31.2614963,
            30.6042128
          ],
          [
            31.2615415,
            30.5988124
          ],
          [
            31.2639382,
            30.5986567
          ],
          [
            31.2648878,
            30.5980729
          ],
          [
            31.2665157,
            30.5977615
          ],
          [
            31.2671487,
            30.5983453
          ],
          [
            31.2688671,
            30.5983842
          ],
          [
            31.2697262,
            30.5983064
          ],
          [
            31.2707663,
            30.5983064
          ],
          [
            31.2713993,
            30.598501
          ],
          [
            31.2711732,
            30.5992795
          ],
          [
            31.2713089,
            30.6025489
          ],
          [
            31.2718515,
            30.604456
          ],
          [
            31.2728011,
            30.6048063
          ],
          [
            31.2739768,
            30.6042614
          ],
          [
            31.2790866,
            30.6035998
          ],
          [
            31.2790866,
            30.6013812
          ],
          [
            31.2788153,
            30.6006807
          ],
          [
            31.2782275,
            30.5970244
          ],
          [
            31.2775039,
            30.5963238
          ],
          [
            31.2772778,
            30.5956621
          ],
          [
            31.2770065,
            30.59465
          ],
          [
            31.2768709,
            30.5939105
          ],
          [
            31.2769161,
            30.5930152
          ],
          [
            31.2772778,
            30.5918474
          ],
          [
            31.2775039,
            30.5910689
          ],
          [
            31.2779109,
            30.5903293
          ],
          [
            31.2778657,
            30.5897065
          ],
          [
            31.2779109,
            30.5877213
          ],
          [
            31.2784535,
            30.5864367
          ],
          [
            31.2787701,
            30.5856192
          ],
          [
            31.278951,
            30.5845292
          ],
          [
            31.2790866,
            30.5837117
          ],
          [
            31.2813464,
            30.5834379
          ],
          [
            31.2809395,
            30.5817639
          ],
          [
            31.2807586,
            30.5804014
          ],
          [
            31.2806229,
            30.5795449
          ],
          [
            31.2807586,
            30.5784159
          ],
          [
            31.280849,
            30.5774426
          ],
          [
            31.2811203,
            30.5768197
          ],
          [
            31.2870893,
            30.5794281
          ],
          [
            31.2870441,
            30.5786495
          ],
          [
            31.2890337,
            30.5787663
          ],
          [
            31.2893955,
            30.5800121
          ],
          [
            31.2961332,
            30.5807907
          ],
          [
            31.2951836,
            30.5876032
          ],
          [
            31.2945957,
            30.5878756
          ],
          [
            31.2954288,
            30.5934789
          ],
          [
            31.3001768,
            30.5930507
          ],
          [
            31.3004029,
            30.5934789
          ],
          [
            31.3008551,
            30.5966317
          ],
          [
            31.3069145,
            30.5960868
          ],
          [
            31.311979,
            30.5953083
          ],
          [
            31.3132452,
            30.5950748
          ],
          [
            31.3199829,
            30.5971378
          ],
          [
            31.3194402,
            30.5981498
          ],
          [
            31.319802,
            30.5999402
          ],
          [
            31.3294787,
            30.6062504
          ],
          [
            31.337395,
            30.6077104
          ],
          [
            31.3356987,
            30.6140369
          ],
          [
            31.3283478,
            30.6213362
          ],
          [
            31.3351332,
            30.6271752
          ],
          [
            31.3464422,
            30.622796
          ],
          [
            31.3515313,
            30.6198764
          ],
          [
            31.3543585,
            30.6159834
          ],
          [
            31.3645366,
            30.6218228
          ],
          [
            31.3645366,
            30.6164701
          ],
          [
            31.3781075,
            30.6145235
          ],
          [
            31.3803693,
            30.6242557
          ],
          [
            31.3718875,
            30.6242557
          ],
          [
            31.3741493,
            30.6305811
          ],
          [
            31.377542,
            30.6300946
          ],
          [
            31.3781075,
            30.6330139
          ],
          [
            31.3684948,
            30.6364196
          ],
          [
            31.3690602,
            30.6505277
          ],
          [
            31.3820656,
            30.6515006
          ],
          [
            31.3764111,
            30.6612291
          ],
          [
            31.3781075,
            30.671443
          ],
          [
            31.3735838,
            30.67582
          ],
          [
            31.3735838,
            30.6850597
          ],
          [
            31.3781075,
            30.6884636
          ],
          [
            31.3764111,
            30.6962435
          ],
          [
            31.3667984,
            30.7011056
          ],
          [
            31.3617094,
            30.7025642
          ],
          [
            31.3724529,
            30.7035366
          ],
          [
            31.3764111,
            30.7098568
          ],
          [
            31.3707566,
            30.7152043
          ],
          [
            31.3679293,
            30.7234681
          ],
          [
            31.3628403,
            30.7336754
          ],
          [
            31.360013,
            30.7404796
          ],
          [
            31.3537931,
            30.7409656
          ],
          [
            31.3554894,
            30.7501991
          ],
          [
            31.3622748,
            30.7501991
          ],
          [
            31.3594476,
            30.757974
          ],
          [
            31.3594476,
            30.7662342
          ],
          [
            31.3594476,
            30.7740078
          ],
          [
            31.3617287,
            30.7776505
          ],
          [
            31.3656868,
            30.7854232
          ],
          [
            31.3668177,
            30.7912523
          ],
          [
            31.3707759,
            30.7990239
          ],
          [
            31.3685141,
            30.8067948
          ],
          [
            31.3894357,
            30.8048521
          ],
          [
            31.397352,
            30.8033951
          ],
          [
            31.3979175,
            30.797081
          ],
          [
            31.4030065,
            30.797081
          ],
          [
            31.408661,
            30.8063092
          ],
          [
            31.4250591,
            30.812137
          ],
          [
            31.4369336,
            30.812137
          ],
          [
            31.4442844,
            30.8174788
          ],
          [
            31.4538971,
            30.8208781
          ],
          [
            31.4629443,
            30.8140795
          ],
          [
            31.4719915,
            30.812137
          ],
          [
            31.4821696,
            30.8155364
          ],
          [
            31.4883895,
            30.8087375
          ],
          [
            31.4951749,
            30.8150508
          ],
          [
            31.5013949,
            30.8150508
          ],
          [
            31.5121385,
            30.8189357
          ],
          [
            31.5149657,
            30.8140795
          ],
          [
            31.5358874,
            30.8165076
          ],
          [
            31.540411,
            30.8165076
          ],
          [
            31.5438037,
            30.8101944
          ],
          [
            31.563029,
            30.8111657
          ],
          [
            31.5698144,
            30.8150508
          ],
          [
            31.5805579,
            30.8155364
          ],
          [
            31.579427,
            30.8369013
          ],
          [
            31.5901706,
            30.8369013
          ],
          [
            31.6065687,
            30.8441837
          ],
          [
            31.6139195,
            30.8441837
          ],
          [
            31.6190086,
            30.851951
          ],
          [
            31.6207049,
            30.8616593
          ],
          [
            31.6127886,
            30.855349
          ],
          [
            31.6240976,
            30.8669984
          ],
          [
            31.6246631,
            30.8713665
          ],
          [
            31.6235322,
            30.8820434
          ],
          [
            31.619574,
            30.8854403
          ],
          [
            31.614485,
            30.8912633
          ],
          [
            31.6054378,
            30.8946599
          ],
          [
            31.5986524,
            30.8985416
          ],
          [
            31.603176,
            30.9029083
          ],
          [
            31.6093959,
            30.9029083
          ],
          [
            31.6110923,
            30.9072748
          ],
          [
            31.614485,
            30.9130965
          ],
          [
            31.6184431,
            30.9164923
          ],
          [
            31.6235322,
            30.9155221
          ],
          [
            31.6303176,
            30.9126114
          ],
          [
            31.637103,
            30.911156
          ],
          [
            31.658931,
            30.9132712
          ],
          [
            31.67646,
            30.9263687
          ],
          [
            31.6781563,
            30.9452841
          ],
          [
            31.6747636,
            30.9549829
          ],
          [
            31.6866381,
            30.967105
          ],
          [
            31.6939889,
            30.9772863
          ],
          [
            31.6968162,
            30.9874666
          ],
          [
            31.7132142,
            30.9927987
          ],
          [
            31.726785,
            31.0107317
          ],
          [
            31.738094,
            31.0165471
          ],
          [
            31.7420522,
            31.0228467
          ],
          [
            31.7420522,
            31.0325376
          ],
          [
            31.7482722,
            31.0412586
          ],
          [
            31.7641048,
            31.0465877
          ],
          [
            31.7680629,
            31.0543385
          ],
          [
            31.7776756,
            31.0616044
          ],
          [
            31.7867228,
            31.0645106
          ],
          [
            31.7969009,
            31.0645106
          ],
          [
            31.8116026,
            31.0625731
          ],
          [
            31.8212152,
            31.066448
          ],
          [
            31.8274352,
            31.064995
          ],
          [
            31.8381788,
            31.0703227
          ],
          [
            31.8466605,
            31.069354
          ],
          [
            31.8545768,
            31.064995
          ],
          [
            31.8681476,
            31.0654793
          ],
          [
            31.8738021,
            31.0688697
          ],
          [
            31.8834148,
            31.070807
          ],
          [
            31.897551,
            31.07226
          ],
          [
            31.9044752,
            31.0746898
          ],
          [
            31.9169151,
            31.0771113
          ],
          [
            31.9367059,
            31.0795327
          ],
          [
            31.951973,
            31.0829226
          ],
          [
            31.958193,
            31.0877652
          ],
          [
            31.9672402,
            31.0935758
          ],
          [
            31.9728947,
            31.1022912
          ],
          [
            31.9915546,
            31.1061645
          ],
          [
            31.99834,
            31.1061645
          ],
          [
            32.0164344,
            31.1061645
          ],
          [
            32.0305706,
            31.108101
          ],
          [
            32.0401833,
            31.1051962
          ],
          [
            32.0492305,
            31.1032595
          ],
          [
            32.0650631,
            31.1076169
          ],
          [
            32.0769376,
            31.1105217
          ],
          [
            32.088812,
            31.1134264
          ],
          [
            32.0967283,
            31.116815
          ],
          [
            32.1040792,
            31.1197195
          ],
          [
            32.0939011,
            31.1337567
          ],
          [
            32.0916017,
            31.1410568
          ],
          [
            32.0911856,
            31.1486238
          ],
          [
            32.0900414,
            31.1512944
          ],
          [
            32.0904575,
            31.154855
          ],
          [
            32.0637502,
            31.2092153
          ],
          [
            32.0567811,
            31.3470148
          ],
          [
            32.043675,
            31.3569636
          ],
          [
            32.0018186,
            31.370843
          ],
          [
            31.9717578,
            31.3771484
          ],
          [
            31.96042,
            31.3807005
          ],
          [
            31.9406601,
            31.387094
          ],
          [
            31.9367074,
            31.3878932
          ],
          [
            31.9218186,
            31.3936053
          ],
          [
            31.9146415,
            31.3968017
          ],
          [
            31.9118331,
            31.3978671
          ],
          [
            31.9075684,
            31.3988437
          ],
          [
            31.9041358,
            31.399554
          ],
          [
            31.9010153,
            31.3999979
          ],
          [
            31.8968547,
            31.4010633
          ],
          [
            31.8930061,
            31.4013297
          ],
          [
            31.8894695,
            31.4013297
          ],
          [
            31.886141,
            31.4003531
          ],
          [
            31.8827084,
            31.4004418
          ],
          [
            31.8784437,
            31.4011521
          ],
          [
            31.8734509,
            31.4022175
          ],
          [
            31.8644015,
            31.4037268
          ],
          [
            31.8634888,
            31.4026599
          ],
          [
            31.8618245,
            31.4031038
          ],
          [
            31.8606803,
            31.4040804
          ],
          [
            31.8590161,
            31.4027487
          ],
          [
            31.8554795,
            31.4043467
          ],
          [
            31.8561036,
            31.4056784
          ],
          [
            31.8422694,
            31.4100284
          ],
          [
            31.8395632,
            31.4102962
          ],
          [
            31.838419,
            31.4110952
          ],
          [
            31.8351945,
            31.410385
          ],
          [
            31.8336343,
            31.409586
          ],
          [
            31.8331142,
            31.4082544
          ],
          [
            31.832282,
            31.4074554
          ],
          [
            31.8315539,
            31.4062126
          ]
             ]
   ]
]

    }, 
      "type": "Feature", 
      "properties": {
        "source": "https://simplemaps.com", 
        "id": "EG", 
        "name": "Egypt"
      }, 
      "id": 1
      
    }
  ]
}