{
  "type": "FeatureCollection",
  "features": [
    {
      "geometry": {
        "type": "MultiPolygon",
        "coordinates": [
    [
 [
      [
        32.0727192,
        31.3600902
      ],
      [
        32.0692354,
        31.3551246
      ],
      [
        32.0497139,
        31.355834
      ],
      [
        32.0011177,
        31.3707298
      ],
      [
        31.9658127,
        31.3788861
      ],
      [
        31.9325845,
        31.3888144
      ],
      [
        31.9089095,
        31.3990963
      ],
      [
        31.8931261,
        31.4012234
      ],
      [
        31.8844037,
        31.4012234
      ],
      [
        31.854083,
        31.4019325
      ],
      [
        31.8420378,
        31.4072501
      ],
      [
        31.8466066,
        31.39236
      ],
      [
        31.8557444,
        31.386687
      ],
      [
        31.8486834,
        31.3813682
      ],
      [
        31.8353921,
        31.3753399
      ],
      [
        31.8362228,
        31.3710844
      ],
      [
        31.8507602,
        31.3714391
      ],
      [
        31.8532523,
        31.3700205
      ],
      [
        31.8532523,
        31.3654101
      ],
      [
        31.8598979,
        31.3607995
      ],
      [
        31.8603133,
        31.3537058
      ],
      [
        31.8507602,
        31.3512229
      ],
      [
        31.8407917,
        31.3544152
      ],
      [
        31.8337307,
        31.3529964
      ],
      [
        31.8167013,
        31.3561887
      ],
      [
        31.8162859,
        31.3540605
      ],
      [
        31.8100556,
        31.3561887
      ],
      [
        31.7805656,
        31.3756946
      ],
      [
        31.7759968,
        31.368602
      ],
      [
        31.7921955,
        31.3604448
      ],
      [
        31.7917801,
        31.3370335
      ],
      [
        31.7901187,
        31.3334858
      ],
      [
        31.7971797,
        31.3295832
      ],
      [
        31.8042407,
        31.3295832
      ],
      [
        31.7789042,
        31.2827393
      ],
      [
        31.7791306,
        31.2565066
      ],
      [
        31.7778846,
        31.2497601
      ],
      [
        31.7533788,
        31.2376863
      ],
      [
        31.7675008,
        31.2234798
      ],
      [
        31.757117,
        31.2188622
      ],
      [
        31.7467332,
        31.212113
      ],
      [
        31.6856764,
        31.2057186
      ],
      [
        31.6752926,
        31.2156653
      ],
      [
        31.669893,
        31.2177966
      ],
      [
        31.6657395,
        31.2149549
      ],
      [
        31.6657395,
        31.2124683
      ],
      [
        31.6582631,
        31.2082054
      ],
      [
        31.6561864,
        31.2046529
      ],
      [
        31.6499561,
        31.1986133
      ],
      [
        31.6428951,
        31.1954157
      ],
      [
        31.6428951,
        31.1904414
      ],
      [
        31.6374955,
        31.1893755
      ],
      [
        31.6316806,
        31.1904414
      ],
      [
        31.6283578,
        31.1833349
      ],
      [
        31.6204661,
        31.1772939
      ],
      [
        31.6204661,
        31.1694756
      ],
      [
        31.6158972,
        31.169831
      ],
      [
        31.6092516,
        31.1669878
      ],
      [
        31.6088362,
        31.1616566
      ],
      [
        31.6092516,
        31.1598795
      ],
      [
        31.5938835,
        31.1563252
      ],
      [
        31.5951296,
        31.1623675
      ],
      [
        31.5947143,
        31.1751617
      ],
      [
        31.5888993,
        31.17836
      ],
      [
        31.5834997,
        31.1836902
      ],
      [
        31.5905607,
        31.1900861
      ],
      [
        31.6113283,
        31.2011002
      ],
      [
        31.6291885,
        31.2103369
      ],
      [
        31.6354188,
        31.2188622
      ],
      [
        31.6312652,
        31.223835
      ],
      [
        31.625035,
        31.2252557
      ],
      [
        31.6175586,
        31.2302281
      ],
      [
        31.6117437,
        31.2352003
      ],
      [
        31.6122894,
        31.2418526
      ],
      [
        31.6205964,
        31.246114
      ],
      [
        31.6309802,
        31.2436282
      ],
      [
        31.6384566,
        31.2414975
      ],
      [
        31.6467636,
        31.2422077
      ],
      [
        31.6559013,
        31.2439833
      ],
      [
        31.6534092,
        31.2507302
      ],
      [
        31.6534092,
        31.254281
      ],
      [
        31.6563167,
        31.2557013
      ],
      [
        31.6542399,
        31.2603171
      ],
      [
        31.6430254,
        31.2691929
      ],
      [
        31.634303,
        31.272388
      ],
      [
        31.6347184,
        31.277003
      ],
      [
        31.6309802,
        31.2791329
      ],
      [
        31.6293188,
        31.2780679
      ],
      [
        31.6247499,
        31.2794879
      ],
      [
        31.6289035,
        31.2848124
      ],
      [
        31.6222578,
        31.2922662
      ],
      [
        31.6093819,
        31.2993646
      ],
      [
        31.6060591,
        31.3064624
      ],
      [
        31.6002441,
        31.3004293
      ],
      [
        31.5989981,
        31.2943958
      ],
      [
        31.5640331,
        31.3290269
      ],
      [
        31.5627871,
        31.3247693
      ],
      [
        31.5515726,
        31.3158987
      ],
      [
        31.5490805,
        31.3190922
      ],
      [
        31.5499112,
        31.3265433
      ],
      [
        31.5420195,
        31.3378963
      ],
      [
        31.5453423,
        31.3485385
      ],
      [
        31.5494958,
        31.3471196
      ],
      [
        31.5578029,
        31.3499573
      ],
      [
        31.5586336,
        31.3538591
      ],
      [
        31.5453423,
        31.3542138
      ],
      [
        31.5349585,
        31.3563419
      ],
      [
        31.5274821,
        31.3556326
      ],
      [
        31.5150216,
        31.3584701
      ],
      [
        31.5158523,
        31.3570513
      ],
      [
        31.5038071,
        31.3552779
      ],
      [
        31.4934233,
        31.3563419
      ],
      [
        31.4905158,
        31.3524403
      ],
      [
        31.4867776,
        31.3446365
      ],
      [
        31.4759785,
        31.3510215
      ],
      [
        31.4805473,
        31.3605981
      ],
      [
        31.4701635,
        31.3620168
      ],
      [
        31.4718249,
        31.3673367
      ],
      [
        31.4755631,
        31.3673367
      ],
      [
        31.4838702,
        31.376557
      ],
      [
        31.4888544,
        31.3783301
      ],
      [
        31.4979921,
        31.3871948
      ],
      [
        31.4996535,
        31.3914496
      ],
      [
        31.5116988,
        31.4042128
      ],
      [
        31.5258207,
        31.4049278
      ],
      [
        31.5316357,
        31.4102453
      ],
      [
        31.5424348,
        31.4116632
      ],
      [
        31.5470037,
        31.4265502
      ],
      [
        31.5503265,
        31.4304488
      ],
      [
        31.5553107,
        31.4424979
      ],
      [
        31.5636178,
        31.4424979
      ],
      [
        31.5665253,
        31.4446241
      ],
      [
        31.763001,
        31.4889201
      ],
      [
        31.8402565,
        31.5296428
      ],
      [
        31.9642801,
        31.5168968
      ],
      [
        31.9987543,
        31.4793565
      ],
      [
        32.0091381,
        31.4542032
      ],
      [
        32.0053999,
        31.4340049
      ],
      [
        32.0062306,
        31.4180557
      ],
      [
        32.072687,
        31.3599069
          ]
             ]
   ]
]

    }, 
      "type": "Feature", 
      "properties": {
        "source": "https://simplemaps.com", 
        "id": "EG", 
        "name": "Egypt"
      }, 
      "id": 1
      
    }
  ]
}