{
  "type": "FeatureCollection",
  "features": [
    {
      "geometry": {
        "type": "MultiPolygon",
        "coordinates": [
    [
 [
          [
            31.2529909,
            30.577698
          ],
          [
            31.251232,
            30.5794796
          ],
          [
            31.251439,
            30.5803109
          ],
          [
            31.2491972,
            30.5806672
          ],
          [
            31.2481473,
            30.5805718
          ],
          [
            31.2476653,
            30.5805994
          ],
          [
            31.247087,
            30.580551
          ],
          [
            31.2468299,
            30.5803021
          ],
          [
            31.2463882,
            30.5803436
          ],
          [
            31.2458982,
            30.5804196
          ],
          [
            31.245593,
            30.5804058
          ],
          [
            31.2445809,
            30.5809106
          ],
          [
            31.2434355,
            30.5811298
          ],
          [
            31.2427929,
            30.5808117
          ],
          [
            31.2427608,
            30.5811713
          ],
          [
            31.2441049,
            30.5917484
          ],
          [
            31.2333962,
            30.5900723
          ],
          [
            31.2325997,
            30.5935768
          ],
          [
            31.2273781,
            30.593653
          ],
          [
            31.2267586,
            30.5959384
          ],
          [
            31.2273781,
            30.5980714
          ],
          [
            31.2275551,
            30.5993665
          ],
          [
            31.2268725,
            30.6030337
          ],
          [
            31.2274035,
            30.6036431
          ],
          [
            31.225722,
            30.6060807
          ],
          [
            31.2258105,
            30.6074518
          ],
          [
            31.2277575,
            30.6111841
          ],
          [
            31.2272942,
            30.6127014
          ],
          [
            31.214196,
            30.6132346
          ],
          [
            31.217559,
            30.6181092
          ],
          [
            31.216094,
            30.6188998
          ],
          [
            31.216094,
            30.6220986
          ],
          [
            31.213616,
            30.6212608
          ],
          [
            31.2137045,
            30.6215655
          ],
          [
            31.2069783,
            30.625678
          ],
          [
            31.2052968,
            30.6272773
          ],
          [
            31.1960041,
            30.6332173
          ],
          [
            31.1957386,
            30.6318466
          ],
          [
            31.1944996,
            30.6318466
          ],
          [
            31.1942341,
            30.6284196
          ],
          [
            31.187508,
            30.6303235
          ],
          [
            31.1862689,
            30.6294097
          ],
          [
            31.1847644,
            30.6297143
          ],
          [
            31.1834369,
            30.6297143
          ],
          [
            31.1831714,
            30.631085
          ],
          [
            31.1831714,
            30.6319227
          ],
          [
            31.1785693,
            30.6307804
          ],
          [
            31.1774189,
            30.6348164
          ],
          [
            31.1775959,
            30.6367201
          ],
          [
            31.1767994,
            30.6420503
          ],
          [
            31.1772419,
            30.6434209
          ],
          [
            31.1769764,
            30.6449438
          ],
          [
            31.1847646,
            30.6434209
          ],
          [
            31.1901632,
            30.6434209
          ],
          [
            31.1912252,
            30.6444869
          ],
          [
            31.1948538,
            30.6436493
          ],
          [
            31.1942954,
            30.652211
          ],
          [
            31.1939413,
            30.6525917
          ],
          [
            31.1887197,
            30.6519826
          ],
          [
            31.1831441,
            30.6525155
          ],
          [
            31.1825246,
            30.65617
          ],
          [
            31.1811086,
            30.6563984
          ],
          [
            31.1793386,
            30.6583778
          ],
          [
            31.1773915,
            30.6589869
          ],
          [
            31.176418,
            30.6583778
          ],
          [
            31.1712849,
            30.6597482
          ],
          [
            31.1616382,
            30.6605856
          ],
          [
            31.1611201,
            30.6627381
          ],
          [
            31.1599448,
            30.6624318
          ],
          [
            31.1567036,
            30.6630139
          ],
          [
            31.1555283,
            30.6640861
          ],
          [
            31.1545666,
            30.6644538
          ],
          [
            31.1568817,
            30.6654341
          ],
          [
            31.1562762,
            30.6659856
          ],
          [
            31.1548516,
            30.6665983
          ],
          [
            31.1538187,
            30.6668128
          ],
          [
            31.153142,
            30.6694474
          ],
          [
            31.1446296,
            30.6703052
          ],
          [
            31.1401775,
            30.6703052
          ],
          [
            31.1333747,
            30.6696618
          ],
          [
            31.1335172,
            30.6669047
          ],
          [
            31.1290651,
            30.6661694
          ],
          [
            31.1287089,
            30.6667515
          ],
          [
            31.1263938,
            30.6649133
          ],
          [
            31.1259664,
            30.6635653
          ],
          [
            31.1252185,
            30.6630139
          ],
          [
            31.123972,
            30.6627688
          ],
          [
            31.1225473,
            30.6633509
          ],
          [
            31.122013,
            30.6640249
          ],
          [
            31.1203391,
            30.6652503
          ],
          [
            31.1198404,
            30.6654342
          ],
          [
            31.1195178,
            30.6656993
          ],
          [
            31.1194554,
            30.6660215
          ],
          [
            31.119719,
            30.6663765
          ],
          [
            31.1196541,
            30.66674
          ],
          [
            31.1194598,
            30.666937
          ],
          [
            31.119106,
            30.6674293
          ],
          [
            31.1184545,
            30.6683005
          ],
          [
            31.1176241,
            30.6683385
          ],
          [
            31.1167743,
            30.667897
          ],
          [
            31.115724,
            30.6677189
          ],
          [
            31.1145308,
            30.6679427
          ],
          [
            31.1137678,
            30.6681605
          ],
          [
            31.1127654,
            30.6685364
          ],
          [
            31.1117934,
            30.6689424
          ],
          [
            31.110527,
            30.6697552
          ],
          [
            31.1091188,
            30.6696746
          ],
          [
            31.1073273,
            30.6695378
          ],
          [
            31.1055506,
            30.6700569
          ],
          [
            31.1049188,
            30.6699646
          ],
          [
            31.1045338,
            30.6700601
          ],
          [
            31.1034934,
            30.6704765
          ],
          [
            31.102498,
            30.6706555
          ],
          [
            31.1014609,
            30.6708524
          ],
          [
            31.1008956,
            30.6709956
          ],
          [
            31.1007846,
            30.6707539
          ],
          [
            31.098885,
            30.6708502
          ],
          [
            31.0990771,
            30.6713734
          ],
          [
            31.0945626,
            30.6723363
          ],
          [
            31.0948609,
            30.6710004
          ],
          [
            31.0948892,
            30.669478
          ],
          [
            31.0946779,
            30.6675082
          ],
          [
            31.0943938,
            30.66603
          ],
          [
            31.0907945,
            30.6665763
          ],
          [
            31.0909827,
            30.6676475
          ],
          [
            31.0899497,
            30.6678016
          ],
          [
            31.0884048,
            30.6678978
          ],
          [
            31.0875328,
            30.6680853
          ],
          [
            31.0867559,
            30.668145
          ],
          [
            31.0865027,
            30.6680704
          ],
          [
            31.0849616,
            30.6681003
          ],
          [
            31.085979,
            30.6747085
          ],
          [
            31.0871733,
            30.6786317
          ],
          [
            31.0883251,
            30.6817541
          ],
          [
            31.0885848,
            30.6853773
          ],
          [
            31.0884693,
            30.6862706
          ],
          [
            31.0874882,
            30.6870399
          ],
          [
            31.0702614,
            30.6899184
          ],
          [
            31.070146,
            30.700836
          ],
          [
            31.0717619,
            30.7088001
          ],
          [
            31.0642883,
            30.7137866
          ],
          [
            31.0610565,
            30.7139851
          ],
          [
            31.0605948,
            30.7117523
          ],
          [
            31.0561222,
            30.71205
          ],
          [
            31.0556316,
            30.7098669
          ],
          [
            31.0515918,
            30.7103879
          ],
          [
            31.0519669,
            30.710884
          ],
          [
            31.0493699,
            30.7109337
          ],
          [
            31.0484109,
            30.7058666
          ],
          [
            31.0477472,
            30.7033112
          ],
          [
            31.0466218,
            30.702145
          ],
          [
            31.0429572,
            30.7025668
          ],
          [
            31.0425243,
            30.7027653
          ],
          [
            31.0409373,
            30.7055193
          ],
          [
            31.0368975,
            30.7062636
          ],
          [
            31.0310686,
            30.7071567
          ],
          [
            31.0308378,
            30.7048246
          ],
          [
            31.029799,
            30.704378
          ],
          [
            31.0296547,
            30.7045517
          ],
          [
            31.0251244,
            30.7037826
          ],
          [
            31.0250955,
            30.7028894
          ],
          [
            31.0222388,
            30.7028149
          ],
          [
            31.0222099,
            30.7035096
          ],
          [
            31.0207383,
            30.7037081
          ],
          [
            31.0205363,
            30.7055937
          ],
          [
            31.0119319,
            30.7057392
          ],
          [
            31.0125668,
            30.7079969
          ],
          [
            31.0116722,
            30.7085427
          ],
          [
            31.0121051,
            30.7090885
          ],
          [
            31.0116434,
            30.7102107
          ],
          [
            31.0113661,
            30.7119008
          ],
          [
            31.0115645,
            30.7129039
          ],
          [
            30.9951147,
            30.7121345
          ],
          [
            30.9943081,
            30.7102963
          ],
          [
            30.9932118,
            30.7090162
          ],
          [
            30.9925224,
            30.7076599
          ],
          [
            30.9926382,
            30.7070956
          ],
          [
            30.9892631,
            30.706906
          ],
          [
            30.9888385,
            30.7066167
          ],
          [
            30.9887134,
            30.7049846
          ],
          [
            30.9866961,
            30.7049724
          ],
          [
            30.9867449,
            30.7037234
          ],
          [
            30.9852559,
            30.7035243
          ],
          [
            30.9851291,
            30.7041549
          ],
          [
            30.9811972,
            30.7041399
          ],
          [
            30.9812019,
            30.7056369
          ],
          [
            30.9801044,
            30.7055373
          ],
          [
            30.9796798,
            30.7053192
          ],
          [
            30.9786374,
            30.7053192
          ],
          [
            30.9785877,
            30.705689
          ],
          [
            30.9790718,
            30.7076536
          ],
          [
            30.9760814,
            30.7090904
          ],
          [
            30.9739027,
            30.7124072
          ],
          [
            30.9748582,
            30.7152081
          ],
          [
            30.9781099,
            30.7264986
          ],
          [
            30.9696916,
            30.7264986
          ],
          [
            30.9654825,
            30.7179954
          ],
          [
            30.9623256,
            30.7179954
          ],
          [
            30.9621151,
            30.7226994
          ],
          [
            30.9659034,
            30.7261368
          ],
          [
            30.9656929,
            30.7301168
          ],
          [
            30.9612733,
            30.7324686
          ],
          [
            30.9581164,
            30.7326495
          ],
          [
            30.9589583,
            30.736991
          ],
          [
            30.957906,
            30.7360865
          ],
          [
            30.9469622,
            30.7460352
          ],
          [
            30.9421217,
            30.7454926
          ],
          [
            30.9408589,
            30.7433221
          ],
          [
            30.9389648,
            30.7462161
          ],
          [
            30.933072,
            30.7469396
          ],
          [
            30.9301256,
            30.7527274
          ],
          [
            30.9208654,
            30.7476631
          ],
          [
            30.9189713,
            30.741875
          ],
          [
            30.9210759,
            30.7393426
          ],
          [
            30.9191818,
            30.7384381
          ],
          [
            30.9118158,
            30.7378955
          ],
          [
            30.9107635,
            30.7362674
          ],
          [
            30.9033974,
            30.7348203
          ],
          [
            30.900872,
            30.7355438
          ],
          [
            30.8985569,
            30.7387999
          ],
          [
            30.898136,
            30.7382572
          ],
          [
            30.8975046,
            30.7400661
          ],
          [
            30.8947687,
            30.7397044
          ],
          [
            30.8944108,
            30.7380234
          ],
          [
            30.8928875,
            30.7382317
          ],
          [
            30.8916064,
            30.7384103
          ],
          [
            30.8900484,
            30.7375175
          ],
          [
            30.8884212,
            30.7362082
          ],
          [
            30.8870017,
            30.7353452
          ],
          [
            30.8869671,
            30.7346607
          ],
          [
            30.8877288,
            30.7343334
          ],
          [
            30.8891137,
            30.7347798
          ],
          [
            30.8923622,
            30.7348167
          ],
          [
            30.8937817,
            30.7290135
          ],
          [
            30.8942777,
            30.7228246
          ],
          [
            30.8911512,
            30.7228246
          ],
          [
            30.888626,
            30.724065
          ],
          [
            30.8887462,
            30.7234448
          ],
          [
            30.8863412,
            30.7230313
          ],
          [
            30.885259,
            30.7253055
          ],
          [
            30.8835755,
            30.7249954
          ],
          [
            30.8820122,
            30.7216875
          ],
          [
            30.8814479,
            30.7205141
          ],
          [
            30.8793816,
            30.7205483
          ],
          [
            30.8766796,
            30.7195576
          ],
          [
            30.8763618,
            30.7187036
          ],
          [
            30.8717525,
            30.7182596
          ],
          [
            30.8720703,
            30.716654
          ],
          [
            30.8718717,
            30.7162099
          ],
          [
            30.8706399,
            30.716654
          ],
          [
            30.8689312,
            30.7162441
          ],
          [
            30.866865,
            30.7174056
          ],
          [
            30.8665074,
            30.7180204
          ],
          [
            30.8644014,
            30.7174056
          ],
          [
            30.8638451,
            30.7197968
          ],
          [
            30.8649577,
            30.7200359
          ],
          [
            30.8640429,
            30.724727
          ],
          [
            30.8616191,
            30.7243512
          ],
          [
            30.8616985,
            30.7262299
          ],
          [
            30.8606654,
            30.7280061
          ],
          [
            30.8620959,
            30.7292698
          ],
          [
            30.8641621,
            30.7300896
          ],
          [
            30.8635264,
            30.7305678
          ],
          [
            30.8632879,
            30.7312167
          ],
          [
            30.8605065,
            30.7313533
          ],
          [
            30.8605065,
            30.7339491
          ],
          [
            30.8533938,
            30.7336417
          ],
          [
            30.8537912,
            30.7324463
          ],
          [
            30.853076,
            30.7322414
          ],
          [
            30.8525197,
            30.7325829
          ],
          [
            30.8516852,
            30.7329245
          ],
          [
            30.8504534,
            30.7327537
          ],
          [
            30.8502548,
            30.7324805
          ],
          [
            30.8503342,
            30.7311826
          ],
          [
            30.8501018,
            30.7287013
          ],
          [
            30.8506152,
            30.7277161
          ],
          [
            30.8428722,
            30.7267944
          ],
          [
            30.8433585,
            30.7216346
          ],
          [
            30.8403324,
            30.7217278
          ],
          [
            30.8407171,
            30.7179894
          ],
          [
            30.8388878,
            30.7176761
          ],
          [
            30.8366089,
            30.717898
          ],
          [
            30.8364098,
            30.7185689
          ],
          [
            30.8341393,
            30.718581
          ],
          [
            30.8339957,
            30.7190116
          ],
          [
            30.834146,
            30.7199275
          ],
          [
            30.8340407,
            30.7205756
          ],
          [
            30.8336885,
            30.7213359
          ],
          [
            30.830856,
            30.7215568
          ],
          [
            30.8269581,
            30.7225337
          ],
          [
            30.8260733,
            30.7223792
          ],
          [
            30.8253757,
            30.7218749
          ],
          [
            30.8242803,
            30.7209483
          ],
          [
            30.8237207,
            30.7220708
          ],
          [
            30.8237878,
            30.7231251
          ],
          [
            30.8225553,
            30.7228318
          ],
          [
            30.8230514,
            30.7289438
          ],
          [
            30.8236392,
            30.7298404
          ],
          [
            30.8232971,
            30.7320252
          ],
          [
            30.8233668,
            30.7328714
          ],
          [
            30.8211726,
            30.7315471
          ],
          [
            30.8219118,
            30.7354244
          ],
          [
            30.8181003,
            30.7332251
          ],
          [
            30.813665,
            30.731867
          ],
          [
            30.8138864,
            30.7221365
          ],
          [
            30.8152258,
            30.7198195
          ],
          [
            30.8137188,
            30.7192786
          ],
          [
            30.8110066,
            30.7189673
          ],
          [
            30.8084098,
            30.7166262
          ],
          [
            30.8060713,
            30.7170834
          ],
          [
            30.8022253,
            30.716981
          ],
          [
            30.8018811,
            30.7150637
          ],
          [
            30.8005098,
            30.7152425
          ],
          [
            30.8015242,
            30.7115458
          ],
          [
            30.8009976,
            30.7113221
          ],
          [
            30.8013392,
            30.7091509
          ],
          [
            30.7990304,
            30.7088636
          ],
          [
            30.7990852,
            30.7077183
          ],
          [
            30.7961996,
            30.707679
          ],
          [
            30.7961065,
            30.7048827
          ],
          [
            30.7905845,
            30.7050335
          ],
          [
            30.7907738,
            30.7010476
          ],
          [
            30.7913566,
            30.7010092
          ],
          [
            30.7916797,
            30.7005288
          ],
          [
            30.7917254,
            30.70005
          ],
          [
            30.7920182,
            30.6996601
          ],
          [
            30.7921241,
            30.6991961
          ],
          [
            30.7926704,
            30.6990228
          ],
          [
            30.7942615,
            30.699135
          ],
          [
            30.7951389,
            30.6990433
          ],
          [
            30.7949355,
            30.698237
          ],
          [
            30.7951151,
            30.6971612
          ],
          [
            30.7950325,
            30.6959926
          ],
          [
            30.7952377,
            30.695133
          ],
          [
            30.7951349,
            30.6947576
          ],
          [
            30.794239,
            30.6925004
          ],
          [
            30.8005998,
            30.6862629
          ],
          [
            30.8032921,
            30.6826394
          ],
          [
            30.8025153,
            30.677019
          ],
          [
            30.8000084,
            30.668836
          ],
          [
            30.7972242,
            30.662126
          ],
          [
            30.7922822,
            30.6559986
          ],
          [
            30.7898016,
            30.6499185
          ],
          [
            30.7861561,
            30.6451128
          ],
          [
            30.7860381,
            30.6417861
          ],
          [
            30.7925324,
            30.6353788
          ],
          [
            30.7967284,
            30.6272896
          ],
          [
            30.7994658,
            30.6238751
          ],
          [
            30.8003995,
            30.6183448
          ],
          [
            30.803244,
            30.6126579
          ],
          [
            30.8044007,
            30.6109475
          ],
          [
            30.8044633,
            30.6063122
          ],
          [
            30.8052267,
            30.6011716
          ],
          [
            30.8080542,
            30.5981785
          ],
          [
            30.8106699,
            30.5933997
          ],
          [
            30.8121574,
            30.5896721
          ],
          [
            30.8171161,
            30.5851776
          ],
          [
            30.8266535,
            30.5835251
          ],
          [
            30.8321017,
            30.5860844
          ],
          [
            30.8359533,
            30.5859124
          ],
          [
            30.8367866,
            30.5822879
          ],
          [
            30.8333579,
            30.5780995
          ],
          [
            30.8279985,
            30.5744133
          ],
          [
            30.8201124,
            30.5675235
          ],
          [
            30.8131048,
            30.5604735
          ],
          [
            30.812796,
            30.5545209
          ],
          [
            30.8135661,
            30.5524609
          ],
          [
            30.8161202,
            30.5445496
          ],
          [
            30.822677,
            30.5421486
          ],
          [
            30.835531,
            30.5426155
          ],
          [
            30.8355343,
            30.542631
          ],
          [
            30.8450053,
            30.5465846
          ],
          [
            30.8514631,
            30.5400528
          ],
          [
            30.8509186,
            30.5355772
          ],
          [
            30.8429162,
            30.5224315
          ],
          [
            30.8365351,
            30.5177602
          ],
          [
            30.8347483,
            30.5111603
          ],
          [
            30.8294826,
            30.500261
          ],
          [
            30.8336255,
            30.4922911
          ],
          [
            30.8350813,
            30.4856963
          ],
          [
            30.8351731,
            30.4857779
          ],
          [
            30.8258653,
            30.4829999
          ],
          [
            30.8263306,
            30.4809638
          ],
          [
            30.8200116,
            30.4794325
          ],
          [
            30.818463,
            30.4856684
          ],
          [
            30.816337,
            30.4849718
          ],
          [
            30.8168625,
            30.4840624
          ],
          [
            30.8166768,
            30.483472
          ],
          [
            30.8158039,
            30.4819057
          ],
          [
            30.8026231,
            30.4815753
          ],
          [
            30.802395,
            30.4731873
          ],
          [
            30.7970896,
            30.4725879
          ],
          [
            30.7980485,
            30.470369
          ],
          [
            30.7952257,
            30.4692143
          ],
          [
            30.7960073,
            30.4644418
          ],
          [
            30.7894931,
            30.4628378
          ],
          [
            30.7904802,
            30.4607187
          ],
          [
            30.7945854,
            30.4605863
          ],
          [
            30.7955277,
            30.4571311
          ],
          [
            30.7921501,
            30.4553408
          ],
          [
            30.800429,
            30.4452481
          ],
          [
            30.800665,
            30.4418525
          ],
          [
            30.8078354,
            30.4335877
          ],
          [
            30.7983585,
            30.432142
          ],
          [
            30.7968897,
            30.4277755
          ],
          [
            30.7867956,
            30.4299408
          ],
          [
            30.7878222,
            30.428294
          ],
          [
            30.7771642,
            30.4299807
          ],
          [
            30.769742,
            30.4290773
          ],
          [
            30.7643793,
            30.4281448
          ],
          [
            30.7623472,
            30.4266852
          ],
          [
            30.7591389,
            30.4277867
          ],
          [
            30.7578403,
            30.4297733
          ],
          [
            30.7573576,
            30.4307403
          ],
          [
            30.7553255,
            30.4292807
          ],
          [
            30.7498131,
            30.4292625
          ],
          [
            30.7437569,
            30.4299241
          ],
          [
            30.7366403,
            30.4304566
          ],
          [
            30.731617,
            30.4327358
          ],
          [
            30.7299728,
            30.4282463
          ],
          [
            30.7229596,
            30.4195593
          ],
          [
            30.7245912,
            30.4175198
          ],
          [
            30.7265559,
            30.4154274
          ],
          [
            30.7205271,
            30.4146002
          ],
          [
            30.7074976,
            30.4116151
          ],
          [
            30.7063699,
            30.4079337
          ],
          [
            30.7023269,
            30.4002595
          ],
          [
            30.7059906,
            30.3996795
          ],
          [
            30.6990448,
            30.394543
          ],
          [
            30.7030416,
            30.3939103
          ],
          [
            30.7004867,
            30.3883752
          ],
          [
            30.6968379,
            30.3809341
          ],
          [
            30.6870231,
            30.380112
          ],
          [
            30.6851259,
            30.3857584
          ],
          [
            30.6800014,
            30.3827088
          ],
          [
            30.678315,
            30.3877277
          ],
          [
            30.6712384,
            30.3933027
          ],
          [
            30.6738304,
            30.4653259
          ],
          [
            30.6695069,
            30.469274
          ],
          [
            30.6539964,
            30.4675733
          ],
          [
            30.6424214,
            30.4649531
          ],
          [
            30.6236746,
            30.4476677
          ],
          [
            30.6052591,
            30.463046
          ],
          [
            30.5986131,
            30.4650313
          ],
          [
            30.5945649,
            30.4663197
          ],
          [
            30.5922348,
            30.4668503
          ],
          [
            30.5821405,
            30.4605974
          ],
          [
            30.5341948,
            30.4989618
          ],
          [
            30.5108927,
            30.4799935
          ],
          [
            30.4887517,
            30.4639723
          ],
          [
            30.4791158,
            30.4609154
          ],
          [
            30.4652036,
            30.4546367
          ],
          [
            30.4421057,
            30.4388719
          ],
          [
            30.4165345,
            30.4221865
          ],
          [
            30.3926314,
            30.4103638
          ],
          [
            30.3784559,
            30.3913236
          ],
          [
            30.4369782,
            30.3579175
          ],
          [
            30.510687,
            30.3300791
          ],
          [
            30.5326071,
            30.3210321
          ],
          [
            30.5865295,
            30.2948984
          ],
          [
            30.6748731,
            30.2502934
          ],
          [
            30.6876238,
            30.2435894
          ],
          [
            30.7535995,
            30.267553
          ],
          [
            30.747462,
            30.2790421
          ],
          [
            30.7498275,
            30.2810571
          ],
          [
            30.7483736,
            30.2846333
          ],
          [
            30.7614582,
            30.2902067
          ],
          [
            30.7602941,
            30.2925418
          ],
          [
            30.7597688,
            30.297882
          ],
          [
            30.7873158,
            30.3037913
          ],
          [
            30.7950459,
            30.310212
          ],
          [
            30.7953407,
            30.3115988
          ],
          [
            30.8036283,
            30.3167361
          ],
          [
            30.8027646,
            30.3225626
          ],
          [
            30.811877,
            30.3263038
          ],
          [
            30.8078625,
            30.3313268
          ],
          [
            30.8185168,
            30.3336271
          ],
          [
            30.8203501,
            30.3357294
          ],
          [
            30.8274115,
            30.3298252
          ],
          [
            30.8367533,
            30.3259524
          ],
          [
            30.8424001,
            30.3242601
          ],
          [
            30.8512665,
            30.3268438
          ],
          [
            30.8602969,
            30.3301991
          ],
          [
            30.8710049,
            30.3392703
          ],
          [
            30.8863301,
            30.3396343
          ],
          [
            30.9111159,
            30.3345118
          ],
          [
            30.9167175,
            30.330434
          ],
          [
            30.919227,
            30.3248517
          ],
          [
            30.9205963,
            30.3182532
          ],
          [
            30.9199316,
            30.3107799
          ],
          [
            30.917807,
            30.305133
          ],
          [
            30.9142141,
            30.2969258
          ],
          [
            30.9132665,
            30.2902936
          ],
          [
            30.9156939,
            30.2843231
          ],
          [
            30.9223168,
            30.2828744
          ],
          [
            30.9356532,
            30.2847508
          ],
          [
            30.9425674,
            30.2868469
          ],
          [
            30.9535783,
            30.2843039
          ],
          [
            30.9564075,
            30.2758751
          ],
          [
            30.9619639,
            30.2694077
          ],
          [
            30.9658512,
            30.2616082
          ],
          [
            30.9652537,
            30.2534783
          ],
          [
            30.9684479,
            30.2445898
          ],
          [
            30.9660772,
            30.2377806
          ],
          [
            30.9702106,
            30.2311371
          ],
          [
            30.9767798,
            30.2229092
          ],
          [
            30.9815611,
            30.2149641
          ],
          [
            30.9874824,
            30.2080355
          ],
          [
            30.9925183,
            30.2056395
          ],
          [
            31.0063299,
            30.2010528
          ],
          [
            31.0146956,
            30.1969303
          ],
          [
            31.0206423,
            30.2031752
          ],
          [
            31.0312598,
            30.2074809
          ],
          [
            31.0386664,
            30.2118964
          ],
          [
            31.0466019,
            30.2166271
          ],
          [
            31.0605493,
            30.2192063
          ],
          [
            31.0694422,
            30.2180841
          ],
          [
            31.076102,
            30.2146322
          ],
          [
            31.0828437,
            30.2115665
          ],
          [
            31.0871044,
            30.2076963
          ],
          [
            31.0919114,
            30.2023335
          ],
          [
            31.0978569,
            30.2054238
          ],
          [
            31.1046502,
            30.2081107
          ],
          [
            31.1120284,
            30.2018315
          ],
          [
            31.1203876,
            30.2074968
          ],
          [
            31.1104166,
            30.2176821
          ],
          [
            31.1095611,
            30.2283025
          ],
          [
            31.1081971,
            30.2306694
          ],
          [
            31.1052149,
            30.2404822
          ],
          [
            31.1059635,
            30.2454704
          ],
          [
            31.1123871,
            30.2552027
          ],
          [
            31.1156846,
            30.261936
          ],
          [
            31.1166237,
            30.2663555
          ],
          [
            31.1125012,
            30.2718459
          ],
          [
            31.0979182,
            30.2749635
          ],
          [
            31.0925861,
            30.2776895
          ],
          [
            31.0893554,
            30.2872892
          ],
          [
            31.0937216,
            30.294657
          ],
          [
            31.0991013,
            30.3024008
          ],
          [
            31.1051878,
            30.3076145
          ],
          [
            31.1088415,
            30.3145564
          ],
          [
            31.1078947,
            30.3203467
          ],
          [
            31.1003012,
            30.3285323
          ],
          [
            31.0869526,
            30.3330638
          ],
          [
            31.0839731,
            30.335147
          ],
          [
            31.0807792,
            30.3396365
          ],
          [
            31.0783273,
            30.3456636
          ],
          [
            31.0748068,
            30.3510542
          ],
          [
            31.0664151,
            30.3569474
          ],
          [
            31.0581034,
            30.3617538
          ],
          [
            31.0539561,
            30.368585
          ],
          [
            31.0566764,
            30.3740598
          ],
          [
            31.0645937,
            30.3776378
          ],
          [
            31.0718366,
            30.3721961
          ],
          [
            31.0772736,
            30.3670401
          ],
          [
            31.0831525,
            30.3639615
          ],
          [
            31.0893934,
            30.3640471
          ],
          [
            31.0944551,
            30.3629771
          ],
          [
            31.0968744,
            30.3684999
          ],
          [
            31.098526,
            30.3733386
          ],
          [
            31.10089,
            30.3786012
          ],
          [
            31.1049496,
            30.3830582
          ],
          [
            31.1087082,
            30.3875626
          ],
          [
            31.1112627,
            30.3922575
          ],
          [
            31.1115142,
            30.3949014
          ],
          [
            31.1078831,
            30.3997701
          ],
          [
            31.1025814,
            30.4040979
          ],
          [
            31.0984284,
            30.4079753
          ],
          [
            31.0942507,
            30.4131982
          ],
          [
            31.094784,
            30.4200898
          ],
          [
            31.0988379,
            30.4215946
          ],
          [
            31.1072657,
            30.4202608
          ],
          [
            31.1114187,
            30.4163838
          ],
          [
            31.1156708,
            30.4071244
          ],
          [
            31.1186141,
            30.4004865
          ],
          [
            31.1219746,
            30.397271
          ],
          [
            31.126078,
            30.3960846
          ],
          [
            31.1305186,
            30.3994071
          ],
          [
            31.133399,
            30.4027081
          ],
          [
            31.1343133,
            30.4084669
          ],
          [
            31.1342999,
            30.4157137
          ],
          [
            31.1337036,
            30.4187595
          ],
          [
            31.1315983,
            30.4220256
          ],
          [
            31.1276415,
            30.4282859
          ],
          [
            31.1256316,
            30.4363837
          ],
          [
            31.1279404,
            30.4413833
          ],
          [
            31.133063,
            30.4435234
          ],
          [
            31.1347394,
            30.4470134
          ],
          [
            31.1333258,
            30.452065
          ],
          [
            31.133,
            30.4534576
          ],
          [
            31.1311693,
            30.4550883
          ],
          [
            31.128386,
            30.4595516
          ],
          [
            31.1291842,
            30.4618391
          ],
          [
            31.1424145,
            30.4669869
          ],
          [
            31.1421249,
            30.4729323
          ],
          [
            31.1390597,
            30.473149
          ],
          [
            31.1404903,
            30.476945
          ],
          [
            31.1424868,
            30.4760929
          ],
          [
            31.1446165,
            30.4875538
          ],
          [
            31.1599976,
            30.4867298
          ],
          [
            31.1642838,
            30.4951676
          ],
          [
            31.1660898,
            30.494882
          ],
          [
            31.1652782,
            30.4998359
          ],
          [
            31.1693264,
            30.4983915
          ],
          [
            31.1721076,
            30.5070662
          ],
          [
            31.1831892,
            30.5050458
          ],
          [
            31.1877459,
            30.5118309
          ],
          [
            31.1824137,
            30.5145503
          ],
          [
            31.1833833,
            30.5205618
          ],
          [
            31.1838253,
            30.5226361
          ],
          [
            31.1896564,
            30.5258051
          ],
          [
            31.192211,
            30.5304933
          ],
          [
            31.1962344,
            30.5303932
          ],
          [
            31.2055957,
            30.5305213
          ],
          [
            31.2111736,
            30.5274955
          ],
          [
            31.2141474,
            30.5224691
          ],
          [
            31.2132388,
            30.5196645
          ],
          [
            31.2198854,
            30.5172735
          ],
          [
            31.2228706,
            30.5181417
          ],
          [
            31.2247623,
            30.5197188
          ],
          [
            31.2235449,
            30.5271477
          ],
          [
            31.2215293,
            30.5322903
          ],
          [
            31.2205576,
            30.5394115
          ],
          [
            31.2240209,
            30.5469029
          ],
          [
            31.2275337,
            30.5517066
          ],
          [
            31.2330316,
            30.5497658
          ],
          [
            31.240004,
            30.5459843
          ],
          [
            31.2456372,
            30.5432181
          ],
          [
            31.2523943,
            30.5413461
          ],
          [
            31.2553795,
            30.5422141
          ],
          [
            31.2568406,
            30.5476103
          ],
          [
            31.2527676,
            30.5503976
          ],
          [
            31.2469744,
            30.5553323
          ],
          [
            31.2428214,
            30.5592037
          ],
          [
            31.2400934,
            30.5639214
          ],
          [
            31.2401295,
            30.56847
          ],
          [
            31.2440538,
            30.5737433
          ],
          [
            31.2493726,
            30.5782603
          ],
          [
            31.2520815,
            30.5778323
          ]
             ]
   ]
]

    }, 
      "type": "Feature", 
      "properties": {
        "source": "https://simplemaps.com", 
        "id": "EG", 
        "name": "Egypt"
      }, 
      "id": 1
      
    }
  ]
}