{
  "type": "FeatureCollection",
  "features": [
    {
      "geometry": {
        "type": "MultiPolygon",
        "coordinates": [
    [
 [
          [
            31.2529747,
            30.5777085
          ],
          [
            31.2564399,
            30.5794408
          ],
          [
            31.258601,
            30.5811089
          ],
          [
            31.2620662,
            30.5864978
          ],
          [
            31.2626638,
            30.5925632
          ],
          [
            31.2616629,
            30.5984514
          ],
          [
            31.2637621,
            30.5987656
          ],
          [
            31.2643097,
            30.5982157
          ],
          [
            31.2662264,
            30.5975872
          ],
          [
            31.2671912,
            30.5984545
          ],
          [
            31.2700856,
            30.5982568
          ],
          [
            31.2714639,
            30.5985732
          ],
          [
            31.2711882,
            30.6022904
          ],
          [
            31.2718314,
            30.604149
          ],
          [
            31.2730259,
            30.6047816
          ],
          [
            31.2743239,
            30.6039131
          ],
          [
            31.2789743,
            30.6035492
          ],
          [
            31.2791152,
            30.6011233
          ],
          [
            31.2781992,
            30.5968779
          ],
          [
            31.2776527,
            30.5963432
          ],
          [
            31.2772301,
            30.5956392
          ],
          [
            31.2771892,
            30.5949352
          ],
          [
            31.2770393,
            30.5942664
          ],
          [
            31.2769711,
            30.5929405
          ],
          [
            31.2773119,
            30.5915441
          ],
          [
            31.2778435,
            30.5905702
          ],
          [
            31.2779389,
            30.5891268
          ],
          [
            31.2779934,
            30.5875427
          ],
          [
            31.278934,
            30.585231
          ],
          [
            31.2792202,
            30.5835295
          ],
          [
            31.2813603,
            30.5833417
          ],
          [
            31.2814421,
            30.58333
          ],
          [
            31.2808968,
            30.5809947
          ],
          [
            31.2808783,
            30.580642
          ],
          [
            31.2808333,
            30.5780466
          ],
          [
            31.2812109,
            30.5767551
          ],
          [
            31.283832,
            30.5781569
          ],
          [
            31.2871421,
            30.5794031
          ],
          [
            31.287111,
            30.5787067
          ],
          [
            31.2891023,
            30.5788138
          ],
          [
            31.2893201,
            30.5801263
          ],
          [
            31.2963205,
            30.5808228
          ],
          [
            31.2952334,
            30.5874154
          ],
          [
            31.2947356,
            30.58771
          ],
          [
            31.2954823,
            30.5934684
          ],
          [
            31.2998381,
            30.5929595
          ],
          [
            31.3001493,
            30.5930666
          ],
          [
            31.3009271,
            30.5964411
          ],
          [
            31.3074005,
            30.5961235
          ],
          [
            31.3133743,
            30.5950254
          ],
          [
            31.31989,
            30.597146
          ],
          [
            31.3195166,
            30.5981369
          ],
          [
            31.3197966,
            30.5999847
          ],
          [
            31.3218812,
            30.6010292
          ],
          [
            31.3278238,
            30.6029305
          ],
          [
            31.3300337,
            30.6043749
          ],
          [
            31.3304676,
            30.6056288
          ],
          [
            31.3310876,
            30.5985051
          ],
          [
            31.3352103,
            30.6003995
          ],
          [
            31.3436727,
            30.5982383
          ],
          [
            31.3442927,
            30.5950098
          ],
          [
            31.3431148,
            30.5929018
          ],
          [
            31.3429415,
            30.5913334
          ],
          [
            31.3431585,
            30.5903461
          ],
          [
            31.3423526,
            30.5868504
          ],
          [
            31.3407097,
            30.5840218
          ],
          [
            31.3393505,
            30.5840012
          ],
          [
            31.3372427,
            30.5818129
          ],
          [
            31.3360957,
            30.5809056
          ],
          [
            31.3344218,
            30.5791443
          ],
          [
            31.3332129,
            30.5775964
          ],
          [
            31.3304541,
            30.57378
          ],
          [
            31.3303921,
            30.5706575
          ],
          [
            31.3308299,
            30.5695711
          ],
          [
            31.3314723,
            30.5657353
          ],
          [
            31.3310415,
            30.5659519
          ],
          [
            31.3295949,
            30.5649569
          ],
          [
            31.3274013,
            30.5650745
          ],
          [
            31.3265239,
            30.5655102
          ],
          [
            31.3265282,
            30.5661707
          ],
          [
            31.3249838,
            30.5661714
          ],
          [
            31.3236833,
            30.5665036
          ],
          [
            31.3193797,
            30.5666158
          ],
          [
            31.3160876,
            30.5671618
          ],
          [
            31.3070735,
            30.5662817
          ],
          [
            31.3069636,
            30.565073
          ],
          [
            31.3048788,
            30.564679
          ],
          [
            31.3037721,
            30.5644671
          ],
          [
            31.3026287,
            30.5642449
          ],
          [
            31.3003894,
            30.5638735
          ],
          [
            31.2982743,
            30.5626514
          ],
          [
            31.2966308,
            30.5605646
          ],
          [
            31.2945407,
            30.5571579
          ],
          [
            31.2938869,
            30.5574943
          ],
          [
            31.2915731,
            30.5558456
          ],
          [
            31.2909168,
            30.5544175
          ],
          [
            31.2917985,
            30.5540892
          ],
          [
            31.2917962,
            30.5534206
          ],
          [
            31.2933299,
            30.5525526
          ],
          [
            31.2939993,
            30.5523242
          ],
          [
            31.294106,
            30.5512089
          ],
          [
            31.293995,
            30.5486999
          ],
          [
            31.292455,
            30.547817
          ],
          [
            31.2915801,
            30.5473784
          ],
          [
            31.2922362,
            30.5461667
          ],
          [
            31.2933387,
            30.5451784
          ],
          [
            31.2964054,
            30.5407996
          ],
          [
            31.2974017,
            30.5386951
          ],
          [
            31.2982802,
            30.5358381
          ],
          [
            31.2999244,
            30.5354026
          ],
          [
            31.3009261,
            30.5346297
          ],
          [
            31.3012517,
            30.5340836
          ],
          [
            31.29092,
            30.5344152
          ],
          [
            31.29092,
            30.5339697
          ],
          [
            31.2889304,
            30.5319691
          ],
          [
            31.291594,
            30.5288145
          ],
          [
            31.2859164,
            30.5297956
          ],
          [
            31.2845648,
            30.5314704
          ],
          [
            31.2816715,
            30.5292631
          ],
          [
            31.2844395,
            30.5265027
          ],
          [
            31.2852008,
            30.5247409
          ],
          [
            31.280356,
            30.5247204
          ],
          [
            31.280119,
            30.5231454
          ],
          [
            31.2836741,
            30.5232037
          ],
          [
            31.2834879,
            30.5219205
          ],
          [
            31.284639,
            30.5218184
          ],
          [
            31.2838772,
            30.517828
          ],
          [
            31.2880934,
            30.5168211
          ],
          [
            31.2875709,
            30.5156915
          ],
          [
            31.2875621,
            30.515218
          ],
          [
            31.2863039,
            30.5135227
          ],
          [
            31.2862526,
            30.5130509
          ],
          [
            31.2848149,
            30.5116206
          ],
          [
            31.2835141,
            30.5105147
          ],
          [
            31.2829836,
            30.5093646
          ],
          [
            31.2822647,
            30.5077426
          ],
          [
            31.2817513,
            30.507138
          ],
          [
            31.2816486,
            30.5068873
          ],
          [
            31.2816395,
            30.5067623
          ],
          [
            31.2810709,
            30.5066115
          ],
          [
            31.279995,
            30.5062988
          ],
          [
            31.2798069,
            30.5060312
          ],
          [
            31.2797393,
            30.5055676
          ],
          [
            31.2799393,
            30.502988
          ],
          [
            31.27962,
            30.5025622
          ],
          [
            31.2789465,
            30.5024152
          ],
          [
            31.2779956,
            30.5023479
          ],
          [
            31.2773553,
            30.5022158
          ],
          [
            31.2771016,
            30.5019633
          ],
          [
            31.2770229,
            30.5014847
          ],
          [
            31.2768348,
            30.501138
          ],
          [
            31.2764061,
            30.5009646
          ],
          [
            31.2756845,
            30.5006518
          ],
          [
            31.2748753,
            30.5003654
          ],
          [
            31.2740048,
            30.5000224
          ],
          [
            31.2736374,
            30.4999658
          ],
          [
            31.2730907,
            30.4999018
          ],
          [
            31.2712965,
            30.5001853
          ],
          [
            31.2714174,
            30.4991303
          ],
          [
            31.2716374,
            30.4971793
          ],
          [
            31.2717792,
            30.495997
          ],
          [
            31.269855,
            30.4947233
          ],
          [
            31.2683556,
            30.4941958
          ],
          [
            31.2701634,
            30.4928999
          ],
          [
            31.2737542,
            30.4903414
          ],
          [
            31.2737459,
            30.4874874
          ],
          [
            31.273141,
            30.4874179
          ],
          [
            31.2711319,
            30.4871525
          ],
          [
            31.2694712,
            30.4877022
          ],
          [
            31.2688187,
            30.4883435
          ],
          [
            31.2677026,
            30.4894192
          ],
          [
            31.2664854,
            30.4865201
          ],
          [
            31.2698042,
            30.484508
          ],
          [
            31.2715841,
            30.4809957
          ],
          [
            31.2687375,
            30.4801453
          ],
          [
            31.2737474,
            30.4782645
          ],
          [
            31.2747504,
            30.4768219
          ],
          [
            31.2726229,
            30.4759276
          ],
          [
            31.2717729,
            30.475968
          ],
          [
            31.2711013,
            30.4733326
          ],
          [
            31.2723997,
            30.472699
          ],
          [
            31.2720001,
            30.4719113
          ],
          [
            31.2724264,
            30.4705881
          ],
          [
            31.2729887,
            30.4691324
          ],
          [
            31.2724685,
            30.4661925
          ],
          [
            31.2752674,
            30.4638019
          ],
          [
            31.2768593,
            30.4632652
          ],
          [
            31.2753592,
            30.4616522
          ],
          [
            31.2755198,
            30.4591852
          ],
          [
            31.277225,
            30.4590683
          ],
          [
            31.2768778,
            30.457971
          ],
          [
            31.2752508,
            30.4580924
          ],
          [
            31.2753499,
            30.4572788
          ],
          [
            31.2757306,
            30.456636
          ],
          [
            31.2764923,
            30.4558148
          ],
          [
            31.27668,
            30.4552395
          ],
          [
            31.2767009,
            30.4550282
          ],
          [
            31.2766956,
            30.4544496
          ],
          [
            31.2766904,
            30.454108
          ],
          [
            31.2762103,
            30.4536449
          ],
          [
            31.2753447,
            30.4531055
          ],
          [
            31.2740703,
            30.4523471
          ],
          [
            31.271242,
            30.4509677
          ],
          [
            31.2706266,
            30.450662
          ],
          [
            31.2682957,
            30.4493449
          ],
          [
            31.2660295,
            30.4480942
          ],
          [
            31.2653672,
            30.4478739
          ],
          [
            31.264074,
            30.4480493
          ],
          [
            31.2637447,
            30.4465022
          ],
          [
            31.2633414,
            30.4459148
          ],
          [
            31.262965,
            30.4447544
          ],
          [
            31.2622561,
            30.4441406
          ],
          [
            31.2619068,
            30.4436236
          ],
          [
            31.2612427,
            30.4422896
          ],
          [
            31.260691,
            30.4418754
          ],
          [
            31.2607444,
            30.4405252
          ],
          [
            31.2611893,
            30.4389296
          ],
          [
            31.2621147,
            30.4390677
          ],
          [
            31.2623104,
            30.4388375
          ],
          [
            31.2628799,
            30.4384693
          ],
          [
            31.2642146,
            30.4386227
          ],
          [
            31.2647306,
            30.4402951
          ],
          [
            31.2700337,
            30.44186
          ],
          [
            31.2717753,
            30.4427138
          ],
          [
            31.2726651,
            30.4426985
          ],
          [
            31.2741421,
            30.441778
          ],
          [
            31.2760358,
            30.4418494
          ],
          [
            31.2778477,
            30.4428564
          ],
          [
            31.2816375,
            30.4409743
          ],
          [
            31.2850542,
            30.4395781
          ],
          [
            31.2864779,
            30.4396241
          ],
          [
            31.2880083,
            30.4398543
          ],
          [
            31.2888447,
            30.43944
          ],
          [
            31.2893429,
            30.4389644
          ],
          [
            31.3009783,
            30.4360966
          ],
          [
            31.3010767,
            30.4305837
          ],
          [
            31.3054048,
            30.4301596
          ],
          [
            31.3048146,
            30.4249009
          ],
          [
            31.3027489,
            30.4201508
          ],
          [
            31.2978306,
            30.4211687
          ],
          [
            31.2992077,
            30.4202356
          ],
          [
            31.297142,
            30.4202356
          ],
          [
            31.2964268,
            30.4169939
          ],
          [
            31.3009517,
            30.4146187
          ],
          [
            31.3091161,
            30.4120737
          ],
          [
            31.3148214,
            30.4045234
          ],
          [
            31.3182642,
            30.3992632
          ],
          [
            31.3151165,
            30.3980754
          ],
          [
            31.3245597,
            30.3953604
          ],
          [
            31.3237728,
            30.393918
          ],
          [
            31.3261336,
            30.3926452
          ],
          [
            31.3274124,
            30.3941725
          ],
          [
            31.3296748,
            30.3928149
          ],
          [
            31.3318388,
            30.387045
          ],
          [
            31.3480693,
            30.3802565
          ],
          [
            31.3496432,
            30.3778804
          ],
          [
            31.350135,
            30.3755042
          ],
          [
            31.3489546,
            30.3729583
          ],
          [
            31.347971,
            30.3699879
          ],
          [
            31.3487579,
            30.3695636
          ],
          [
            31.3485612,
            30.3682056
          ],
          [
            31.3529877,
            30.3676115
          ],
          [
            31.3514569,
            30.360931
          ],
          [
            31.3573589,
            30.3599973
          ],
          [
            31.3530307,
            30.3539708
          ],
          [
            31.3510634,
            30.3526976
          ],
          [
            31.3506699,
            30.3514243
          ],
          [
            31.3476206,
            30.3481137
          ],
          [
            31.3453581,
            30.3476893
          ],
          [
            31.3465385,
            30.3466706
          ],
          [
            31.3461234,
            30.3461833
          ],
          [
            31.346332,
            30.3450583
          ],
          [
            31.3483135,
            30.3408282
          ],
          [
            31.3490363,
            30.338187
          ],
          [
            31.3484888,
            30.3351718
          ],
          [
            31.3477073,
            30.3339579
          ],
          [
            31.3535765,
            30.3323038
          ],
          [
            31.353816,
            30.3365424
          ],
          [
            31.3570501,
            30.3390235
          ],
          [
            31.361961,
            30.3357154
          ],
          [
            31.3633984,
            30.3365424
          ],
          [
            31.3644764,
            30.3346816
          ],
          [
            31.3671116,
            30.3343715
          ],
          [
            31.3662731,
            30.3324072
          ],
          [
            31.3702258,
            30.3319937
          ],
          [
            31.3713038,
            30.3328207
          ],
          [
            31.3731005,
            30.3322004
          ],
          [
            31.3713038,
            30.3297192
          ],
          [
            31.3693874,
            30.3255837
          ],
          [
            31.3693874,
            30.3233091
          ],
          [
            31.3693765,
            30.3212903
          ],
          [
            31.3720382,
            30.3212903
          ],
          [
            31.37399,
            30.3199118
          ],
          [
            31.375587,
            30.3182269
          ],
          [
            31.3704412,
            30.3166186
          ],
          [
            31.3652954,
            30.3179205
          ],
          [
            31.3639646,
            30.3166186
          ],
          [
            31.3669811,
            30.3132487
          ],
          [
            31.3668037,
            30.3126359
          ],
          [
            31.3677796,
            30.3114105
          ],
          [
            31.3668037,
            30.3089595
          ],
          [
            31.3678683,
            30.3079638
          ],
          [
            31.3778937,
            30.2982358
          ],
          [
            31.3763854,
            30.2947887
          ],
          [
            31.3802004,
            30.2918011
          ],
          [
            31.3855236,
            30.2902689
          ],
          [
            31.3906694,
            30.2990784
          ],
          [
            31.3943956,
            30.2971634
          ],
          [
            31.4022917,
            30.2988486
          ],
          [
            31.4035853,
            30.2806645
          ],
          [
            31.4593903,
            30.2813541
          ],
          [
            31.4674639,
            30.2720832
          ],
          [
            31.4722548,
            30.2755311
          ],
          [
            31.4768682,
            30.2863339
          ],
          [
            31.5154927,
            30.2577612
          ],
          [
            31.5288895,
            30.2544659
          ],
          [
            31.5410441,
            30.256535
          ],
          [
            31.550271,
            30.2556154
          ],
          [
            31.5517117,
            30.2521639
          ],
          [
            31.6088947,
            30.2484852
          ],
          [
            31.6170569,
            30.2503245
          ],
          [
            31.64873,
            30.2645784
          ],
          [
            31.6549404,
            30.2697124
          ],
          [
            31.6955634,
            30.2245513
          ],
          [
            31.646165,
            30.1891491
          ],
          [
            31.5832724,
            30.1783177
          ],
          [
            31.5345969,
            30.171235
          ],
          [
            31.4792913,
            30.1641623
          ],
          [
            31.4619416,
            30.1595787
          ],
          [
            31.4600138,
            30.167079
          ],
          [
            31.4612187,
            30.1704122
          ],
          [
            31.4568813,
            30.1729121
          ],
          [
            31.4484474,
            30.1835358
          ],
          [
            31.4461503,
            30.1844119
          ],
          [
            31.444487,
            30.1858176
          ],
          [
            31.4422693,
            30.1867761
          ],
          [
            31.4402734,
            30.1863927
          ],
          [
            31.4381297,
            30.1866803
          ],
          [
            31.4381297,
            30.1875749
          ],
          [
            31.4379818,
            30.1894201
          ],
          [
            31.4380558,
            30.1937906
          ],
          [
            31.4334602,
            30.193503
          ],
          [
            31.4278051,
            30.1916501
          ],
          [
            31.4235176,
            30.189222
          ],
          [
            31.419204,
            30.1879769
          ],
          [
            31.4160231,
            30.187561
          ],
          [
            31.4144337,
            30.1880083
          ],
          [
            31.4057586,
            30.1898406
          ],
          [
            31.4028322,
            30.1787946
          ],
          [
            31.3999123,
            30.1746408
          ],
          [
            31.3887869,
            30.1777082
          ],
          [
            31.3881585,
            30.1765579
          ],
          [
            31.3843515,
            30.1783153
          ],
          [
            31.383834,
            30.1754396
          ],
          [
            31.379115,
            30.1785119
          ],
          [
            31.3765646,
            30.179055
          ],
          [
            31.3761581,
            30.1617333
          ],
          [
            31.370466,
            30.1577066
          ],
          [
            31.3706138,
            30.156588
          ],
          [
            31.3653653,
            30.1544148
          ],
          [
            31.3589886,
            30.1659538
          ],
          [
            31.339433,
            30.1635571
          ],
          [
            31.338435,
            30.1644838
          ],
          [
            31.3366978,
            30.165826
          ],
          [
            31.3368087,
            30.1693088
          ],
          [
            31.3213901,
            30.1720892
          ],
          [
            31.3206139,
            30.1710667
          ],
          [
            31.3199117,
            30.1705554
          ],
          [
            31.3201334,
            30.1687659
          ],
          [
            31.3287455,
            30.1667527
          ],
          [
            31.3277475,
            30.1622469
          ],
          [
            31.3278572,
            30.1567175
          ],
          [
            31.3267114,
            30.1569092
          ],
          [
            31.3259352,
            30.1514441
          ],
          [
            31.3229783,
            30.1520514
          ],
          [
            31.3216841,
            30.1423647
          ],
          [
            31.3152159,
            30.142109
          ],
          [
            31.3117784,
            30.142077
          ],
          [
            31.3102261,
            30.1418533
          ],
          [
            31.3095238,
            30.141214
          ],
          [
            31.3073431,
            30.1400313
          ],
          [
            31.3068256,
            30.1392002
          ],
          [
            31.3056798,
            30.1389764
          ],
          [
            31.3025381,
            30.1349808
          ],
          [
            31.3017619,
            30.134789
          ],
          [
            31.3018358,
            30.1338939
          ],
          [
            31.3002748,
            30.1331205
          ],
          [
            31.2987594,
            30.1320017
          ],
          [
            31.2969113,
            30.1296361
          ],
          [
            31.2963569,
            30.1288049
          ],
          [
            31.2942871,
            30.1291886
          ],
          [
            31.289556,
            30.1304353
          ],
          [
            31.2855619,
            30.1176781
          ],
          [
            31.2845269,
            30.114353
          ],
          [
            31.2822723,
            30.1124346
          ],
          [
            31.2747477,
            30.111123
          ],
          [
            31.2554902,
            30.1083251
          ],
          [
            31.2514983,
            30.1073659
          ],
          [
            31.2439582,
            30.1052236
          ],
          [
            31.239301,
            30.1051916
          ],
          [
            31.2422949,
            30.1101796
          ],
          [
            31.2363007,
            30.1215522
          ],
          [
            31.2254959,
            30.1297717
          ],
          [
            31.2013295,
            30.1320544
          ],
          [
            31.1887926,
            30.1325537
          ],
          [
            31.176728,
            30.1398036
          ],
          [
            31.1675729,
            30.1435126
          ],
          [
            31.1624592,
            30.1484339
          ],
          [
            31.1393653,
            30.1724665
          ],
          [
            31.1151552,
            30.1856035
          ],
          [
            31.0914546,
            30.2002033
          ],
          [
            31.0982235,
            30.2043507
          ],
          [
            31.0974153,
            30.2056604
          ],
          [
            31.1032244,
            30.2063589
          ],
          [
            31.1058006,
            30.2077122
          ],
          [
            31.1108521,
            30.2014694
          ],
          [
            31.1174694,
            30.2042198
          ],
          [
            31.1217631,
            30.2067081
          ],
          [
            31.1151458,
            30.2112918
          ],
          [
            31.1096902,
            30.2191491
          ],
          [
            31.109716,
            30.224586
          ],
          [
            31.1085542,
            30.2265937
          ],
          [
            31.1087563,
            30.2288633
          ],
          [
            31.1089078,
            30.2310456
          ],
          [
            31.1064326,
            30.2356779
          ],
          [
            31.1045635,
            30.2380782
          ],
          [
            31.1037048,
            30.2413949
          ],
          [
            31.104614,
            30.2437514
          ],
          [
            31.1056332,
            30.2468003
          ],
          [
            31.1078053,
            30.2488949
          ],
          [
            31.1123615,
            30.2548815
          ],
          [
            31.1164531,
            30.2624299
          ],
          [
            31.1170088,
            30.2659202
          ],
          [
            31.1150387,
            30.2683634
          ],
          [
            31.1112275,
            30.2712343
          ],
          [
            31.1015287,
            30.2735901
          ],
          [
            31.0954165,
            30.2756405
          ],
          [
            31.0928908,
            30.2773855
          ],
          [
            31.0881425,
            30.2849321
          ],
          [
            31.0910723,
            30.2907334
          ],
          [
            31.1035233,
            30.3046638
          ],
          [
            31.1087986,
            30.3149579
          ],
          [
            31.106801,
            30.3243159
          ],
          [
            31.0831604,
            30.3352161
          ],
          [
            31.0792974,
            30.3417045
          ],
          [
            31.0757892,
            30.3492919
          ],
          [
            31.0710914,
            30.3532586
          ],
          [
            31.0625545,
            30.3589688
          ],
          [
            31.0552825,
            30.3661667
          ],
          [
            31.0547774,
            30.3713531
          ],
          [
            31.0594752,
            30.3748396
          ],
          [
            31.0662441,
            30.3768007
          ],
          [
            31.0702852,
            30.3736629
          ],
          [
            31.0739728,
            30.3693919
          ],
          [
            31.082117,
            30.3646385
          ],
          [
            31.0903508,
            30.3623721
          ],
          [
            31.0957053,
            30.3647693
          ],
          [
            31.0966146,
            30.3682124
          ],
          [
            31.097928,
            30.3725271
          ],
          [
            31.1077277,
            30.3862108
          ],
          [
            31.1115163,
            30.3932262
          ],
          [
            31.1112637,
            30.3971476
          ],
          [
            31.1075761,
            30.4018967
          ],
          [
            31.1022721,
            30.4057742
          ],
          [
            31.0969681,
            30.4096951
          ],
          [
            31.0942404,
            30.4142258
          ],
          [
            31.0939373,
            30.4194532
          ],
          [
            31.0972207,
            30.4220668
          ],
          [
            31.1040907,
            30.422241
          ],
          [
            31.1083338,
            30.4200194
          ],
          [
            31.1123244,
            30.4154455
          ],
          [
            31.1154563,
            30.4081703
          ],
          [
            31.1177025,
            30.3999022
          ],
          [
            31.1193695,
            30.3976366
          ],
          [
            31.1225519,
            30.3961552
          ],
          [
            31.1281615,
            30.3965038
          ],
          [
            31.1325058,
            30.4010787
          ],
          [
            31.1337686,
            30.4077009
          ],
          [
            31.1338191,
            30.4209004
          ],
          [
            31.1286014,
            30.4281228
          ],
          [
            31.1242725,
            30.4369187
          ],
          [
            31.1260237,
            30.4389797
          ],
          [
            31.1341236,
            30.4429084
          ],
          [
            31.1338637,
            30.4435821
          ],
          [
            31.1337342,
            30.4441686
          ],
          [
            31.1352405,
            30.4464726
          ],
          [
            31.1355644,
            30.4465703
          ],
          [
            31.1335449,
            30.4507874
          ],
          [
            31.1345653,
            30.4515632
          ],
          [
            31.1338364,
            30.4524987
          ],
          [
            31.131585,
            30.4536716
          ],
          [
            31.1304836,
            30.4547747
          ],
          [
            31.1302568,
            30.4552773
          ],
          [
            31.1296575,
            30.4559335
          ],
          [
            31.1287575,
            30.4601276
          ],
          [
            31.1307012,
            30.460714
          ],
          [
            31.1430346,
            30.4670137
          ],
          [
            31.1421112,
            30.4730817
          ],
          [
            31.139552,
            30.4732073
          ],
          [
            31.1401837,
            30.4753013
          ],
          [
            31.1444838,
            30.4749802
          ],
          [
            31.1443326,
            30.4861801
          ],
          [
            31.1587459,
            30.4852739
          ],
          [
            31.1593927,
            30.4858347
          ],
          [
            31.1600755,
            30.4851331
          ],
          [
            31.1600755,
            30.4843297
          ],
          [
            31.1596947,
            30.4837187
          ],
          [
            31.1601149,
            30.4834471
          ],
          [
            31.1605088,
            30.4834471
          ],
          [
            31.1610603,
            30.4856763
          ],
          [
            31.161441,
            30.4870115
          ],
          [
            31.1646091,
            30.4946076
          ],
          [
            31.1679574,
            30.4942342
          ],
          [
            31.1645082,
            30.49986
          ],
          [
            31.1654011,
            30.5004144
          ],
          [
            31.1661101,
            30.5000297
          ],
          [
            31.1672525,
            30.4985929
          ],
          [
            31.17017,
            30.4981748
          ],
          [
            31.1716668,
            30.4983558
          ],
          [
            31.1720377,
            30.5070095
          ],
          [
            31.1840489,
            30.5055112
          ],
          [
            31.18689,
            30.5121534
          ],
          [
            31.1836205,
            30.5132393
          ],
          [
            31.1811483,
            30.5146727
          ],
          [
            31.1840021,
            30.5198284
          ],
          [
            31.182794,
            30.5202696
          ],
          [
            31.1854723,
            30.5232552
          ],
          [
            31.1905383,
            30.5259032
          ],
          [
            31.1925506,
            30.5292923
          ],
          [
            31.1950454,
            30.5288286
          ],
          [
            31.1966998,
            30.5294168
          ],
          [
            31.1999824,
            30.5288173
          ],
          [
            31.2022672,
            30.5288965
          ],
          [
            31.2036972,
            30.5293198
          ],
          [
            31.2059031,
            30.5295008
          ],
          [
            31.2076889,
            30.5292293
          ],
          [
            31.2083245,
            30.5287407
          ],
          [
            31.2086134,
            30.5280621
          ],
          [
            31.2104517,
            30.5271685
          ],
          [
            31.2113314,
            30.5265578
          ],
          [
            31.2120405,
            30.5265238
          ],
          [
            31.2126051,
            30.5258678
          ],
          [
            31.211604,
            30.5224296
          ],
          [
            31.2115778,
            30.521536
          ],
          [
            31.213459,
            30.5178279
          ],
          [
            31.2230976,
            30.5161224
          ],
          [
            31.2252646,
            30.5258042
          ],
          [
            31.2214182,
            30.5345766
          ],
          [
            31.2222811,
            30.5442626
          ],
          [
            31.2273533,
            30.5497707
          ],
          [
            31.2317214,
            30.5497128
          ],
          [
            31.2340734,
            30.5475136
          ],
          [
            31.2444224,
            30.5424205
          ],
          [
            31.254301,
            30.5404527
          ],
          [
            31.2577283,
            30.5448514
          ],
          [
            31.2567875,
            30.5494234
          ],
          [
            31.2465729,
            30.5553842
          ],
          [
            31.2421376,
            30.5675361
          ],
          [
            31.2445568,
            30.5728014
          ],
          [
            31.2529766,
            30.5777093
          ]
             ]
   ]
]

    }, 
      "type": "Feature", 
      "properties": {
        "source": "https://simplemaps.com", 
        "id": "EG", 
        "name": "Egypt"
      }, 
      "id": 1
      
    }
  ]
}