{
  "type": "FeatureCollection",
  "features": [
    {
      "geometry": {
        "type": "MultiPolygon",
        "coordinates": [
    [
 [
      [
        29.8488796,
        29.0967053
      ],
      [
        30.2182707,
        29.408018
      ],
      [
        30.7590333,
        29.7274642
      ],
      [
        31.0356836,
        29.7206389
      ],
      [
        31.0938431,
        29.4568292
      ],
      [
        31.13314,
        29.4226066
      ],
      [
        31.0639774,
        29.4226066
      ],
      [
        31.0356836,
        29.3883724
      ],
      [
        31.0424866,
        29.3827811
      ],
      [
        31.0489125,
        29.3811813
      ],
      [
        31.0489125,
        29.3691819
      ],
      [
        31.0456996,
        29.3599814
      ],
      [
        31.0489126,
        29.3455789
      ],
      [
        31.0195116,
        29.3182361
      ],
      [
        31.0144627,
        29.2834125
      ],
      [
        31.0176756,
        29.2613914
      ],
      [
        31.0167576,
        29.2525816
      ],
      [
        31.0075777,
        29.2529821
      ],
      [
        30.986005,
        29.238965
      ],
      [
        30.9961028,
        29.2205397
      ],
      [
        30.9931125,
        29.2140555
      ],
      [
        30.9876046,
        29.2140555
      ],
      [
        30.9848506,
        29.2104499
      ],
      [
        30.9761297,
        29.2080461
      ],
      [
        30.9678678,
        29.2024371
      ],
      [
        30.9614419,
        29.2004338
      ],
      [
        30.9614419,
        29.1972284
      ],
      [
        30.952721,
        29.2008344
      ],
      [
        30.95318,
        29.2060429
      ],
      [
        30.948131,
        29.2080461
      ],
      [
        30.9192143,
        29.2012351
      ],
      [
        30.9114114,
        29.1932215
      ],
      [
        30.9063625,
        29.1932215
      ],
      [
        30.9017725,
        29.1820015
      ],
      [
        30.8636759,
        29.1543469
      ],
      [
        30.857709,
        29.1359064
      ],
      [
        30.8354814,
        29.114636
      ],
      [
        30.8162036,
        29.0713189
      ],
      [
        30.7918769,
        29.0745282
      ],
      [
        30.5231865,
        28.9955313
      ],
      [
        30.3818161,
        28.964614
      ],
      [
        30.3010214,
        28.970236
      ],
      [
        30.2936775,
        29.0264394
      ],
      [
        30.1319426,
        29.0396829
      ],
      [
        29.8492844,
        29.0966571
          ]
             ]
   ]
]

    }, 
      "type": "Feature", 
      "properties": {
        "source": "https://simplemaps.com", 
        "id": "EG", 
        "name": "Egypt"
      }, 
      "id": 1
      
    }
  ]
}