{
  "type": "FeatureCollection",
  "features": [
    {
      "geometry": {
        "type": "MultiPolygon",
        "coordinates": [
    [
 [
      [
        31.2851155,
        29.774423
      ],
      [
        31.2929842,
        29.771008
      ],
      [
        31.2956071,
        29.7607622
      ],
      [
        31.3047872,
        29.7562082
      ],
      [
        31.3139673,
        29.7630391
      ],
      [
        31.3297047,
        29.7630391
      ],
      [
        31.3611794,
        29.7619007
      ],
      [
        31.3624908,
        29.774423
      ],
      [
        31.8936264,
        29.7801144
      ],
      [
        31.8971681,
        29.7801144
      ],
      [
        31.8329424,
        28.9950601
      ],
      [
        31.8412062,
        28.9754392
      ],
      [
        31.7838315,
        28.9977448
      ],
      [
        31.7517206,
        29.0002229
      ],
      [
        31.6377122,
        29.0216973
      ],
      [
        31.6039485,
        29.0419287
      ],
      [
        31.5869067,
        29.0460637
      ],
      [
        31.5729762,
        29.052256
      ],
      [
        31.5033238,
        29.0598925
      ],
      [
        31.4690368,
        29.0761958
      ],
      [
        31.4591202,
        29.0842433
      ],
      [
        31.4389465,
        29.0928159
      ],
      [
        31.390544,
        29.1254094
      ],
      [
        31.3914884,
        29.1311844
      ],
      [
        31.390544,
        29.1363403
      ],
      [
        31.3813357,
        29.1435582
      ],
      [
        31.3744885,
        29.1520129
      ],
      [
        31.3683497,
        29.1553121
      ],
      [
        31.3624469,
        29.1569616
      ],
      [
        31.355832,
        29.1671144
      ],
      [
        31.353707,
        29.1685576
      ],
      [
        31.3487487,
        29.1724747
      ],
      [
        31.3487487,
        29.1755671
      ],
      [
        31.3504015,
        29.1774225
      ],
      [
        31.3518181,
        29.1842252
      ],
      [
        31.3478043,
        29.1916459
      ],
      [
        31.3440265,
        29.195356
      ],
      [
        31.3419015,
        29.1951499
      ],
      [
        31.3357627,
        29.2021576
      ],
      [
        31.3274988,
        29.2145229
      ],
      [
        31.3197072,
        29.217614
      ],
      [
        31.3007605,
        29.2369959
      ],
      [
        31.2986355,
        29.2446188
      ],
      [
        31.2986355,
        29.2470909
      ],
      [
        31.2873022,
        29.254919
      ],
      [
        31.280455,
        29.2685138
      ],
      [
        31.2736078,
        29.2755165
      ],
      [
        31.2714828,
        29.281077
      ],
      [
        31.265344,
        29.2891085
      ],
      [
        31.2606218,
        29.2905499
      ],
      [
        31.245983,
        29.2946683
      ],
      [
        31.2420715,
        29.2701338
      ],
      [
        31.2418354,
        29.2538613
      ],
      [
        31.2335716,
        29.2338776
      ],
      [
        31.2307383,
        29.2281084
      ],
      [
        31.2271966,
        29.2281084
      ],
      [
        31.2132661,
        29.2035857
      ],
      [
        31.2125578,
        29.2031701
      ],
      [
        31.2012245,
        29.2064676
      ],
      [
        31.2101967,
        29.2215113
      ],
      [
        31.2094884,
        29.2309897
      ],
      [
        31.2085439,
        29.2464418
      ],
      [
        31.2146828,
        29.2563299
      ],
      [
        31.2179883,
        29.2709543
      ],
      [
        31.2153911,
        29.2857825
      ],
      [
        31.2146828,
        29.2915485
      ],
      [
        31.2163356,
        29.314327
      ],
      [
        31.2153911,
        29.3254436
      ],
      [
        31.2132661,
        29.3482907
      ],
      [
        31.2286133,
        29.3684053
      ],
      [
        31.2361688,
        29.3821907
      ],
      [
        31.2267244,
        29.4025568
      ],
      [
        31.2212939,
        29.4035852
      ],
      [
        31.2205855,
        29.4021454
      ],
      [
        31.2097245,
        29.3990598
      ],
      [
        31.1962662,
        29.3988541
      ],
      [
        31.1939051,
        29.3998827
      ],
      [
        31.1880024,
        29.4000884
      ],
      [
        31.184933,
        29.4029681
      ],
      [
        31.1861135,
        29.4093445
      ],
      [
        31.1816274,
        29.4144865
      ],
      [
        31.178558,
        29.4144865
      ],
      [
        31.1778497,
        29.4196282
      ],
      [
        31.1787941,
        29.4243583
      ],
      [
        31.170058,
        29.4299108
      ],
      [
        31.1658081,
        29.4272374
      ],
      [
        31.1601414,
        29.4264148
      ],
      [
        31.1584887,
        29.4245639
      ],
      [
        31.1537665,
        29.4204508
      ],
      [
        31.1514054,
        29.4171602
      ],
      [
        31.1455026,
        29.4190112
      ],
      [
        31.1405443,
        29.4231244
      ],
      [
        31.1391277,
        29.4210678
      ],
      [
        31.1310999,
        29.4235357
      ],
      [
        31.1306277,
        29.4202451
      ],
      [
        31.1261416,
        29.4202451
      ],
      [
        31.1004018,
        29.4545411
      ],
      [
        31.0341635,
        29.7225404
      ],
      [
        30.8503752,
        29.7307419
      ],
      [
        30.7601813,
        29.7307419
      ],
      [
        30.2282363,
        29.4118007
      ],
      [
        29.8602123,
        29.0948081
      ],
      [
        29.7886376,
        28.8551487
      ],
      [
        29.7402662,
        28.6004657
      ],
      [
        29.5932951,
        28.3199859
      ],
      [
        29.2796905,
        28.1144278
      ],
      [
        29.2190732,
        28.0841807
      ],
      [
        29.1437607,
        28.0469002
      ],
      [
        28.7840279,
        27.9182042
      ],
      [
        28.4663086,
        27.6743829
      ],
      [
        28.4467151,
        27.670587
      ],
      [
        27.3692402,
        27.6776363
      ],
      [
        27.8286982,
        28.5768723
      ],
      [
        28.772235,
        28.7559657
      ],
      [
        29.6060434,
        29.5074255
      ],
      [
        30.3328869,
        29.8805729
      ],
      [
        30.703472,
        30.2362748
      ],
      [
        30.6889329,
        30.2437366
      ],
      [
        30.7530218,
        30.2679876
      ],
      [
        30.7475516,
        30.280171
      ],
      [
        30.7497109,
        30.2814141
      ],
      [
        30.7488472,
        30.2851433
      ],
      [
        30.7623787,
        30.2904883
      ],
      [
        30.7596436,
        30.2947918
      ],
      [
        30.7597875,
        30.2988934
      ],
      [
        30.7887219,
        30.3042376
      ],
      [
        30.7954876,
        30.3103273
      ],
      [
        30.7951997,
        30.3114457
      ],
      [
        30.8048167,
        30.3177904
      ],
      [
        30.8017937,
        30.3232579
      ],
      [
        30.8107187,
        30.3273583
      ],
      [
        30.8089913,
        30.3313343
      ],
      [
        30.8186361,
        30.3339435
      ],
      [
        30.8213712,
        30.3361799
      ],
      [
        30.8235304,
        30.3339435
      ],
      [
        30.8265534,
        30.3318313
      ],
      [
        30.8288567,
        30.3303404
      ],
      [
        30.8324554,
        30.3287251
      ],
      [
        30.8351905,
        30.3273583
      ],
      [
        30.8402288,
        30.3253703
      ],
      [
        30.8452672,
        30.3240035
      ],
      [
        30.8495857,
        30.3256188
      ],
      [
        30.8530406,
        30.3274826
      ],
      [
        30.8593744,
        30.3302161
      ],
      [
        30.8626853,
        30.3333223
      ],
      [
        30.8677195,
        30.3356849
      ],
      [
        30.8726138,
        30.3394121
      ],
      [
        30.8753489,
        30.3402818
      ],
      [
        30.8864332,
        30.3401575
      ],
      [
        30.8983812,
        30.3386667
      ],
      [
        30.9065865,
        30.3366789
      ],
      [
        30.9116248,
        30.3359334
      ],
      [
        30.9163752,
        30.334194
      ],
      [
        30.919974,
        30.3297211
      ],
      [
        30.9214135,
        30.3245025
      ],
      [
        30.9215575,
        30.3164255
      ],
      [
        30.9217014,
        30.3090935
      ],
      [
        30.9181026,
        30.3028795
      ],
      [
        30.9160873,
        30.2992514
      ],
      [
        30.913928,
        30.2945283
      ],
      [
        30.9132083,
        30.2893078
      ],
      [
        30.9146478,
        30.2849572
      ],
      [
        30.9183905,
        30.2833412
      ],
      [
        30.9251563,
        30.2823467
      ],
      [
        30.9281792,
        30.282471
      ],
      [
        30.9326417,
        30.2834655
      ],
      [
        30.9358087,
        30.2849572
      ],
      [
        30.9396954,
        30.2863245
      ],
      [
        30.9441579,
        30.2855787
      ],
      [
        30.9491962,
        30.2849572
      ],
      [
        30.9555301,
        30.2830926
      ],
      [
        30.9563938,
        30.2802334
      ],
      [
        30.9568256,
        30.2760067
      ],
      [
        30.9625334,
        30.2662916
      ],
      [
        30.9637934,
        30.2541961
      ],
      [
        30.9673089,
        30.249641
      ],
      [
        30.9673089,
        30.2371135
      ],
      [
        30.9756581,
        30.2223062
      ],
      [
        30.9831284,
        30.2139523
      ],
      [
        30.9963114,
        30.205218
      ],
      [
        31.0125704,
        30.1987617
      ],
      [
        31.0200407,
        30.2014202
      ],
      [
        31.0327593,
        30.208549
      ],
      [
        31.0451324,
        30.2153085
      ],
      [
        31.0563676,
        30.2196098
      ],
      [
        31.0671762,
        30.2201014
      ],
      [
        31.0718694,
        30.2173978
      ],
      [
        31.0822256,
        30.2115852
      ],
      [
        31.0911894,
        30.2001085
      ],
      [
        31.1041372,
        30.1926479
      ],
      [
        31.1283727,
        30.1765771
      ],
      [
        31.1429804,
        30.1708369
      ],
      [
        31.1512803,
        30.1607908
      ],
      [
        31.1585841,
        30.1504565
      ],
      [
        31.1702654,
        30.1429047
      ],
      [
        31.1798932,
        30.1377367
      ],
      [
        31.188525,
        30.1342913
      ],
      [
        31.2130926,
        30.1319942
      ],
      [
        31.2303562,
        30.1265386
      ],
      [
        31.2383241,
        30.1170623
      ],
      [
        31.2403161,
        30.1110314
      ],
      [
        31.2379921,
        30.1041385
      ],
      [
        31.2247124,
        30.0751258
      ],
      [
        31.2207284,
        30.0751258
      ],
      [
        31.2137566,
        30.0656445
      ],
      [
        31.2213924,
        30.0374827
      ],
      [
        31.2197324,
        30.0161204
      ],
      [
        31.2240484,
        30.0020335
      ],
      [
        31.2257083,
        29.9870819
      ],
      [
        31.2353362,
        29.9698272
      ],
      [
        31.2369961,
        29.9611988
      ],
      [
        31.2628916,
        29.9468164
      ],
      [
        31.2721875,
        29.9414136
      ],
      [
        31.2801553,
        29.9186839
      ],
      [
        31.2824793,
        29.9060221
      ],
      [
        31.2811513,
        29.8907682
      ],
      [
        31.2844712,
        29.8751686
      ],
      [
        31.2897831,
        29.8578946
      ],
      [
        31.2931031,
        29.8437852
      ],
      [
        31.2921071,
        29.8290978
      ],
      [
        31.2934351,
        29.8112397
      ],
      [
        31.2934351,
        29.7936665
      ],
      [
        31.2907791,
        29.7789717
      ],
      [
        31.2864632,
        29.7734967
          ]
             ]
   ]
]

    }, 
      "type": "Feature", 
      "properties": {
        "source": "https://simplemaps.com", 
        "id": "EG", 
        "name": "Egypt"
      }, 
      "id": 1
      
    }
  ]
}