{
  "type": "FeatureCollection",
  "features": [
    {
      "geometry": {
        "type": "MultiPolygon",
        "coordinates": [
    [
 [
          [
            31.3076968,
            31.5463629
          ],
          [
            31.2965572,
            31.5408552
          ],
          [
            31.2845674,
            31.5365793
          ],
          [
            31.2761489,
            31.5349848
          ],
          [
            31.2466419,
            31.5136017
          ],
          [
            31.2366998,
            31.4981768
          ],
          [
            31.2335535,
            31.4873004
          ],
          [
            31.2337236,
            31.4826594
          ],
          [
            31.2330433,
            31.4796861
          ],
          [
            31.2318528,
            31.4778006
          ],
          [
            31.2731934,
            31.4539267
          ],
          [
            31.2575666,
            31.4339288
          ],
          [
            31.2757477,
            31.4253386
          ],
          [
            31.2743954,
            31.4231674
          ],
          [
            31.2745265,
            31.3365473
          ],
          [
            31.2806563,
            31.3370233
          ],
          [
            31.2792692,
            31.3090694
          ],
          [
            31.2807283,
            31.3089447
          ],
          [
            31.2799258,
            31.307137
          ],
          [
            31.2781019,
            31.3061397
          ],
          [
            31.2786126,
            31.3053294
          ],
          [
            31.2756213,
            31.3032723
          ],
          [
            31.2739433,
            31.3003425
          ],
          [
            31.2739433,
            31.2979736
          ],
          [
            31.2729949,
            31.2959164
          ],
          [
            31.2751106,
            31.2931733
          ],
          [
            31.2765698,
            31.2902011
          ],
          [
            31.2765698,
            31.2888918
          ],
          [
            31.2754025,
            31.2872085
          ],
          [
            31.2750377,
            31.2848393
          ],
          [
            31.2781018,
            31.2822829
          ],
          [
            31.2800717,
            31.2765466
          ],
          [
            31.2872563,
            31.2705541
          ],
          [
            31.2871104,
            31.2699928
          ],
          [
            31.2864538,
            31.266376
          ],
          [
            31.2876211,
            31.2641934
          ],
          [
            31.2892261,
            31.2625719
          ],
          [
            31.2913419,
            31.2622601
          ],
          [
            31.2919985,
            31.2611376
          ],
          [
            31.2919255,
            31.2588925
          ],
          [
            31.2905126,
            31.2561223
          ],
          [
            31.2891994,
            31.2532534
          ],
          [
            31.289783,
            31.2516318
          ],
          [
            31.2883969,
            31.2488875
          ],
          [
            31.2858434,
            31.247141
          ],
          [
            31.2922635,
            31.2458936
          ],
          [
            31.2925554,
            31.2438976
          ],
          [
            31.2923365,
            31.2422758
          ],
          [
            31.289856,
            31.2403421
          ],
          [
            31.2891264,
            31.2386579
          ],
          [
            31.2884698,
            31.2354141
          ],
          [
            31.2870107,
            31.2336675
          ],
          [
            31.284749,
            31.2333556
          ],
          [
            31.283217,
            31.2321703
          ],
          [
            31.2808824,
            31.2314841
          ],
          [
            31.2783289,
            31.2317336
          ],
          [
            31.2779525,
            31.2310269
          ],
          [
            31.2784621,
            31.2303652
          ],
          [
            31.2775751,
            31.229397
          ],
          [
            31.2775751,
            31.2291227
          ],
          [
            31.2831612,
            31.2281706
          ],
          [
            31.2821421,
            31.2271539
          ],
          [
            31.2807456,
            31.2271862
          ],
          [
            31.2810664,
            31.2255078
          ],
          [
            31.2821798,
            31.223426
          ],
          [
            31.2799838,
            31.2196945
          ],
          [
            31.2779645,
            31.2180321
          ],
          [
            31.2770021,
            31.2176771
          ],
          [
            31.2760203,
            31.2156923
          ],
          [
            31.2755674,
            31.2139331
          ],
          [
            31.2746556,
            31.212505
          ],
          [
            31.2741838,
            31.2106651
          ],
          [
            31.2740894,
            31.2086313
          ],
          [
            31.2733912,
            31.2069688
          ],
          [
            31.2711077,
            31.2055645
          ],
          [
            31.2695602,
            31.2043055
          ],
          [
            31.2671258,
            31.202885
          ],
          [
            31.2656915,
            31.2013516
          ],
          [
            31.262851,
            31.2008045
          ],
          [
            31.2602655,
            31.2010467
          ],
          [
            31.2581896,
            31.199836
          ],
          [
            31.2571328,
            31.1987868
          ],
          [
            31.2563402,
            31.1974469
          ],
          [
            31.2569598,
            31.1951382
          ],
          [
            31.2611115,
            31.1885596
          ],
          [
            31.2620242,
            31.1867442
          ],
          [
            31.2658302,
            31.1804873
          ],
          [
            31.2686596,
            31.1779104
          ],
          [
            31.2698918,
            31.1775004
          ],
          [
            31.2746647,
            31.1718411
          ],
          [
            31.2761251,
            31.1711773
          ],
          [
            31.2806202,
            31.1727001
          ],
          [
            31.2804376,
            31.1750429
          ],
          [
            31.2864615,
            31.1754529
          ],
          [
            31.2880132,
            31.1741448
          ],
          [
            31.2897701,
            31.1718606
          ],
          [
            31.2899299,
            31.171314
          ],
          [
            31.2906144,
            31.1712554
          ],
          [
            31.2906385,
            31.1680139
          ],
          [
            31.2918022,
            31.1678577
          ],
          [
            31.2948598,
            31.167682
          ],
          [
            31.2958181,
            31.167272
          ],
          [
            31.2965483,
            31.1665105
          ],
          [
            31.2972999,
            31.1659459
          ],
          [
            31.2978475,
            31.1650478
          ],
          [
            31.2972543,
            31.163271
          ],
          [
            31.2969576,
            31.1621386
          ],
          [
            31.2975509,
            31.1615723
          ],
          [
            31.2990341,
            31.1607132
          ],
          [
            31.3004716,
            31.1601079
          ],
          [
            31.3018407,
            31.1597955
          ],
          [
            31.3022513,
            31.1589754
          ],
          [
            31.3017721,
            31.1543867
          ],
          [
            31.3003574,
            31.1539571
          ],
          [
            31.3002878,
            31.1534023
          ],
          [
            31.3004703,
            31.1520549
          ],
          [
            31.3004247,
            31.1510785
          ],
          [
            31.3023642,
            31.1491648
          ],
          [
            31.3024863,
            31.148517
          ],
          [
            31.3028514,
            31.1471305
          ],
          [
            31.3048138,
            31.1462126
          ],
          [
            31.3049963,
            31.1449432
          ],
          [
            31.3017562,
            31.1455096
          ],
          [
            31.3004327,
            31.1461345
          ],
          [
            31.2997482,
            31.1475796
          ],
          [
            31.2989724,
            31.1502159
          ],
          [
            31.2975349,
            31.1518758
          ],
          [
            31.289788,
            31.1569639
          ],
          [
            31.2832956,
            31.1591561
          ],
          [
            31.2791046,
            31.1608438
          ],
          [
            31.2776254,
            31.1587342
          ],
          [
            31.2756531,
            31.15673
          ],
          [
            31.2751601,
            31.1515611
          ],
          [
            31.2740507,
            31.1483963
          ],
          [
            31.2720784,
            31.1437544
          ],
          [
            31.2701062,
            31.1443874
          ],
          [
            31.2655453,
            31.1416444
          ],
          [
            31.2623404,
            31.1416444
          ],
          [
            31.2537118,
            31.1387958
          ],
          [
            31.2523814,
            31.1344408
          ],
          [
            31.2522581,
            31.1302203
          ],
          [
            31.2473275,
            31.1287431
          ],
          [
            31.2472042,
            31.1313809
          ],
          [
            31.2288376,
            31.136551
          ],
          [
            31.2309331,
            31.1388721
          ],
          [
            31.2306866,
            31.1402437
          ],
          [
            31.2287143,
            31.1416152
          ],
          [
            31.2257559,
            31.1429867
          ],
          [
            31.2227976,
            31.1411932
          ],
          [
            31.2198392,
            31.1438307
          ],
          [
            31.2198392,
            31.1477342
          ],
          [
            31.2215649,
            31.1485781
          ],
          [
            31.2211951,
            31.150477
          ],
          [
            31.2197159,
            31.1520594
          ],
          [
            31.220702,
            31.1550131
          ],
          [
            31.2193461,
            31.1564899
          ],
          [
            31.2158947,
            31.1568063
          ],
          [
            31.2139224,
            31.1568063
          ],
          [
            31.2133061,
            31.1551186
          ],
          [
            31.2103477,
            31.1546966
          ],
          [
            31.2080056,
            31.1530088
          ],
          [
            31.2078824,
            31.1521649
          ],
          [
            31.1928439,
            31.1534307
          ],
          [
            31.1932094,
            31.1559624
          ],
          [
            31.1929628,
            31.1571228
          ],
          [
            31.1921,
            31.1571228
          ],
          [
            31.1904975,
            31.1565953
          ],
          [
            31.1890183,
            31.1545911
          ],
          [
            31.1832836,
            31.1559266
          ],
          [
            31.180202,
            31.156876
          ],
          [
            31.1785995,
            31.1563486
          ],
          [
            31.1785995,
            31.1540278
          ],
          [
            31.1756411,
            31.1539224
          ],
          [
            31.1763807,
            31.1564541
          ],
          [
            31.1660264,
            31.1530784
          ],
          [
            31.1660684,
            31.1528806
          ],
          [
            31.1655373,
            31.1529579
          ],
          [
            31.1646559,
            31.1514397
          ],
          [
            31.1648819,
            31.1510238
          ],
          [
            31.1646568,
            31.1508111
          ],
          [
            31.1633686,
            31.1495635
          ],
          [
            31.1633573,
            31.1488285
          ],
          [
            31.1634816,
            31.1485094
          ],
          [
            31.1631652,
            31.1479291
          ],
          [
            31.1627132,
            31.1478228
          ],
          [
            31.1622951,
            31.1478324
          ],
          [
            31.1617527,
            31.1478614
          ],
          [
            31.161086,
            31.1483933
          ],
          [
            31.1594403,
            31.1476236
          ],
          [
            31.1587058,
            31.1470627
          ],
          [
            31.1598697,
            31.1464921
          ],
          [
            31.1601974,
            31.144906
          ],
          [
            31.1600187,
            31.1416904
          ],
          [
            31.1590291,
            31.1382173
          ],
          [
            31.1585997,
            31.1372598
          ],
          [
            31.1576618,
            31.1361281
          ],
          [
            31.1572717,
            31.1353492
          ],
          [
            31.1570344,
            31.133908
          ],
          [
            31.1567334,
            31.1325775
          ],
          [
            31.1563605,
            31.1316682
          ],
          [
            31.1563492,
            31.1310008
          ],
          [
            31.1561571,
            31.1275951
          ],
          [
            31.1559989,
            31.1252541
          ],
          [
            31.1556033,
            31.1247221
          ],
          [
            31.1546744,
            31.1243146
          ],
          [
            31.152663,
            31.1249143
          ],
          [
            31.1515556,
            31.1261525
          ],
          [
            31.1411377,
            31.1293647
          ],
          [
            31.1409134,
            31.130743
          ],
          [
            31.140255,
            31.1315885
          ],
          [
            31.1399431,
            31.1317071
          ],
          [
            31.1393192,
            31.1320186
          ],
          [
            31.1328457,
            31.1382231
          ],
          [
            31.1312066,
            31.139752
          ],
          [
            31.130974,
            31.1384082
          ],
          [
            31.1253914,
            31.1395032
          ],
          [
            31.1271941,
            31.1440324
          ],
          [
            31.1224838,
            31.1450776
          ],
          [
            31.1156219,
            31.1497559
          ],
          [
            31.1169594,
            31.1502535
          ],
          [
            31.1155055,
            31.1519456
          ],
          [
            31.1114349,
            31.1497559
          ],
          [
            31.1089993,
            31.1470972
          ],
          [
            31.1076113,
            31.1463487
          ],
          [
            31.1064325,
            31.1455676
          ],
          [
            31.1051777,
            31.1450469
          ],
          [
            31.1037644,
            31.1439729
          ],
          [
            31.1019391,
            31.142248
          ],
          [
            31.1005512,
            31.139628
          ],
          [
            31.0948094,
            31.1426222
          ],
          [
            31.0903853,
            31.1427199
          ],
          [
            31.0893206,
            31.1419225
          ],
          [
            31.087289,
            31.1425191
          ],
          [
            31.0853687,
            31.1425191
          ],
          [
            31.0832583,
            31.1428446
          ],
          [
            31.0819464,
            31.1427957
          ],
          [
            31.0806536,
            31.1425354
          ],
          [
            31.0796649,
            31.1427306
          ],
          [
            31.0792276,
            31.1435605
          ],
          [
            31.0792707,
            31.1453079
          ],
          [
            31.0786813,
            31.1462355
          ],
          [
            31.0776166,
            31.1471955
          ],
          [
            31.0661237,
            31.1539207
          ],
          [
            31.063662,
            31.1515383
          ],
          [
            31.0607975,
            31.1490069
          ],
          [
            31.0574815,
            31.1451563
          ],
          [
            31.0555936,
            31.1436652
          ],
          [
            31.0544769,
            31.1428644
          ],
          [
            31.0535412,
            31.1418052
          ],
          [
            31.0529979,
            31.1402294
          ],
          [
            31.0529375,
            31.1390668
          ],
          [
            31.0531516,
            31.1379921
          ],
          [
            31.054208,
            31.1361837
          ],
          [
            31.0547513,
            31.1342977
          ],
          [
            31.0559846,
            31.1296679
          ],
          [
            31.0564373,
            31.1271359
          ],
          [
            31.0579887,
            31.1199621
          ],
          [
            31.0600809,
            31.1142267
          ],
          [
            31.0609173,
            31.1121461
          ],
          [
            31.063664,
            31.1084248
          ],
          [
            31.0710179,
            31.1027672
          ],
          [
            31.0723158,
            31.1011649
          ],
          [
            31.0615261,
            31.0951495
          ],
          [
            31.0587396,
            31.0882077
          ],
          [
            31.0605129,
            31.0790958
          ],
          [
            31.0620328,
            31.0725868
          ],
          [
            31.0498733,
            31.069983
          ],
          [
            31.0518999,
            31.0628224
          ],
          [
            31.04962,
            31.0604354
          ],
          [
            31.0513932,
            31.053057
          ],
          [
            31.0489593,
            31.0522535
          ],
          [
            31.0481961,
            31.0508956
          ],
          [
            31.0476091,
            31.0507699
          ],
          [
            31.0459066,
            31.0509962
          ],
          [
            31.044439,
            31.0515243
          ],
          [
            31.0406232,
            31.0483809
          ],
          [
            31.0364419,
            31.048693
          ],
          [
            31.0359171,
            31.0479982
          ],
          [
            31.0349153,
            31.0381889
          ],
          [
            31.0361629,
            31.0376641
          ],
          [
            31.0324897,
            31.0316145
          ],
          [
            31.0304863,
            31.0299015
          ],
          [
            31.0296235,
            31.0301104
          ],
          [
            31.0266903,
            31.0264884
          ],
          [
            31.0206321,
            31.0293975
          ],
          [
            31.0196943,
            31.02861
          ],
          [
            31.0181375,
            31.0295904
          ],
          [
            31.0095065,
            31.031823
          ],
          [
            31.0030024,
            31.0322115
          ],
          [
            30.9895411,
            31.0342721
          ],
          [
            30.9891097,
            31.035156
          ],
          [
            30.9858836,
            31.0355256
          ],
          [
            30.9857899,
            31.0349792
          ],
          [
            30.9670825,
            31.0343685
          ],
          [
            30.9667449,
            31.0373417
          ],
          [
            30.9660767,
            31.0390929
          ],
          [
            30.960131,
            31.038193
          ],
          [
            30.9590432,
            31.0395429
          ],
          [
            30.9596976,
            31.0418757
          ],
          [
            30.9518442,
            31.0401682
          ],
          [
            30.9371933,
            31.040581
          ],
          [
            30.9369271,
            31.0295082
          ],
          [
            30.9253911,
            31.029277
          ],
          [
            30.9245816,
            31.0317627
          ],
          [
            30.9230974,
            31.0323986
          ],
          [
            30.920264,
            31.0323408
          ],
          [
            30.9145972,
            31.0312425
          ],
          [
            30.9124384,
            31.0296817
          ],
          [
            30.9090653,
            31.0285833
          ],
          [
            30.9071089,
            31.0271381
          ],
          [
            30.9050176,
            31.024421
          ],
          [
            30.9051525,
            31.0234382
          ],
          [
            30.9104146,
            31.0243054
          ],
          [
            30.9110217,
            31.0229179
          ],
          [
            30.9102122,
            31.0228022
          ],
          [
            30.9127758,
            31.0128002
          ],
          [
            30.9119662,
            31.0110078
          ],
          [
            30.914125,
            31.007076
          ],
          [
            30.9103471,
            31.0066712
          ],
          [
            30.9100098,
            31.0059196
          ],
          [
            30.906097,
            31.0056304
          ],
          [
            30.9021168,
            31.0089841
          ],
          [
            30.9011723,
            31.0145347
          ],
          [
            30.8967727,
            31.0143638
          ],
          [
            30.8957607,
            31.018989
          ],
          [
            30.8890145,
            31.0179484
          ],
          [
            30.8879352,
            31.0191625
          ],
          [
            30.8881375,
            31.0160983
          ],
          [
            30.8818044,
            31.0152449
          ],
          [
            30.8725621,
            31.0145511
          ],
          [
            30.8721573,
            31.0196967
          ],
          [
            30.8704033,
            31.0201014
          ],
          [
            30.8699986,
            31.0211999
          ],
          [
            30.860419,
            31.0198123
          ],
          [
            30.8587999,
            31.0200436
          ],
          [
            30.8495576,
            31.0184248
          ],
          [
            30.8491528,
            31.0168638
          ],
          [
            30.8498949,
            31.0161122
          ],
          [
            30.8543474,
            31.0137417
          ],
          [
            30.8552919,
            31.0097522
          ],
          [
            30.8523498,
            31.0009487
          ],
          [
            30.848419,
            30.9972328
          ],
          [
            30.8472649,
            30.9944628
          ],
          [
            30.8428793,
            30.9953531
          ],
          [
            30.8440334,
            30.9988156
          ],
          [
            30.8424177,
            31.0010909
          ],
          [
            30.841379,
            31.0010909
          ],
          [
            30.8393016,
            31.0020802
          ],
          [
            30.8296073,
            31.0017833
          ],
          [
            30.8290302,
            31.0029704
          ],
          [
            30.8248755,
            31.0027725
          ],
          [
            30.8226827,
            31.0017833
          ],
          [
            30.8219902,
            31.0003984
          ],
          [
            30.819105,
            30.999508
          ],
          [
            30.8185279,
            30.9978263
          ],
          [
            30.8178355,
            30.9980241
          ],
          [
            30.8163352,
            31.0010908
          ],
          [
            30.8163352,
            31.0030693
          ],
          [
            30.8185279,
            31.0063337
          ],
          [
            30.8169122,
            31.0126643
          ],
          [
            30.8128216,
            31.0113125
          ],
          [
            30.8121292,
            31.0097299
          ],
          [
            30.8100518,
            31.009631
          ],
          [
            30.8107361,
            31.0106356
          ],
          [
            30.8049113,
            31.0082862
          ],
          [
            30.7968879,
            31.0065242
          ],
          [
            30.7943307,
            31.0216329
          ],
          [
            30.7890088,
            31.0272964
          ],
          [
            30.7883236,
            31.029107
          ],
          [
            30.7851827,
            31.0291804
          ],
          [
            30.7809987,
            31.0289905
          ],
          [
            30.7769233,
            31.0293397
          ],
          [
            30.7761082,
            31.0340541
          ],
          [
            30.7706064,
            31.0354509
          ],
          [
            30.7634744,
            31.0349271
          ],
          [
            30.7640857,
            31.0254981
          ],
          [
            30.7651046,
            31.0254981
          ],
          [
            30.7677536,
            31.0160683
          ],
          [
            30.7579726,
            31.0146712
          ],
          [
            30.7563424,
            31.0111783
          ],
          [
            30.7575651,
            31.0062881
          ],
          [
            30.7532859,
            31.0029697
          ],
          [
            30.7475803,
            31.00786
          ],
          [
            30.7408559,
            31.0101305
          ],
          [
            30.7359654,
            31.011353
          ],
          [
            30.7310749,
            31.0127501
          ],
          [
            30.7245542,
            31.015719
          ],
          [
            30.7190524,
            31.0237519
          ],
          [
            30.720275,
            31.0300381
          ],
          [
            30.7243505,
            31.0403396
          ],
          [
            30.7245542,
            31.0495925
          ],
          [
            30.7245542,
            31.0570989
          ],
          [
            30.7249618,
            31.062161
          ],
          [
            30.7223569,
            31.0680078
          ],
          [
            30.7154287,
            31.0755128
          ],
          [
            30.7078892,
            31.0795268
          ],
          [
            30.7015723,
            31.0847623
          ],
          [
            30.6946441,
            31.0879034
          ],
          [
            30.6901612,
            31.0906954
          ],
          [
            30.6705992,
            31.1015138
          ],
          [
            30.6528276,
            31.1130661
          ],
          [
            30.634692,
            31.1338243
          ],
          [
            30.6183927,
            31.1472547
          ],
          [
            30.6124833,
            31.1643439
          ],
          [
            30.6057589,
            31.1739334
          ],
          [
            30.5957741,
            31.177769
          ],
          [
            30.5718887,
            31.196266
          ],
          [
            30.5592549,
            31.2028894
          ],
          [
            30.550395,
            31.1959173
          ],
          [
            30.5426517,
            31.1908623
          ],
          [
            30.5271651,
            31.1959173
          ],
          [
            30.5215061,
            31.1995052
          ],
          [
            30.5202438,
            31.2092371
          ],
          [
            30.5249981,
            31.2199209
          ],
          [
            30.5247918,
            31.2272865
          ],
          [
            30.5202531,
            31.2294475
          ],
          [
            30.5141671,
            31.2268013
          ],
          [
            30.4997774,
            31.2310352
          ],
          [
            30.4980166,
            31.2476214
          ],
          [
            30.5184724,
            31.2692078
          ],
          [
            30.5202084,
            31.2856873
          ],
          [
            30.5181969,
            31.2978515
          ],
          [
            30.5202695,
            31.3190745
          ],
          [
            30.5205046,
            31.3265467
          ],
          [
            30.5162754,
            31.3302475
          ],
          [
            30.4979558,
            31.3424923
          ],
          [
            30.4832017,
            31.3485355
          ],
          [
            30.4759751,
            31.3475069
          ],
          [
            30.4710069,
            31.3395349
          ],
          [
            30.464232,
            31.3346484
          ],
          [
            30.4589627,
            31.3363201
          ],
          [
            30.4532417,
            31.3597209
          ],
          [
            30.4487251,
            31.3734757
          ],
          [
            30.4451119,
            31.3774604
          ],
          [
            30.4387887,
            31.3772033
          ],
          [
            30.4237334,
            31.3759179
          ],
          [
            30.4216213,
            31.3819452
          ],
          [
            30.4267677,
            31.39678
          ],
          [
            30.4296712,
            31.4129401
          ],
          [
            30.4291468,
            31.4259354
          ],
          [
            30.4226995,
            31.4364964
          ],
          [
            30.4166637,
            31.4394698
          ],
          [
            30.3964004,
            31.4420447
          ],
          [
            30.3851985,
            31.4438838
          ],
          [
            30.3713789,
            31.4571736
          ],
          [
            30.3616896,
            31.4818716
          ],
          [
            30.3883529,
            31.4957569
          ],
          [
            30.4634301,
            31.463942
          ],
          [
            30.5874696,
            31.4805637
          ],
          [
            30.9199542,
            31.5803303
          ],
          [
            31.0006272,
            31.6025741
          ],
          [
            31.1036834,
            31.6085318
          ],
          [
            31.1465846,
            31.5993972
          ],
          [
            31.2705533,
            31.5652871
          ],
          [
            31.299465,
            31.5549561
          ],
          [
            31.3085377,
            31.5464801
          ],
          [
            31.2967237,
            31.5408691
          ],
          [
            31.2844598,
            31.5364874
          ],
          [
            31.2765102,
            31.5349461
          ],
          [
            31.2468775,
            31.5136505
          ],
          [
            31.2367823,
            31.4980847
          ],
          [
            31.2336678,
            31.4874383
          ],
          [
            31.2337182,
            31.4830018
          ]
             ]
   ]
]

    }, 
      "type": "Feature", 
      "properties": {
        "source": "https://simplemaps.com", 
        "id": "EG", 
        "name": "Egypt"
      }, 
      "id": 1
      
    }
  ]
}