{
  "type": "FeatureCollection",
  "features": [
    {
      "type": "Feature",
      "properties": {},
      "geometry": {
        "type": "LineString",
        "coordinates": [
          [
            33.4702758,
            25.3081026
          ],
          [
            33.4425402,
            25.3375775
          ],
          [
            33.4342944,
            25.3487558
          ],
          [
            33.4228628,
            25.3658599
          ],
          [
            33.4146171,
            25.3765276
          ],
          [
            33.398119,
            25.389443
          ]
        ]
      }
    },
    {
      "type": "Feature",
      "properties": {},
      "geometry": {
        "type": "LineString",
        "coordinates": [
          [
            33.3977273,
            25.3896851
          ],
          [
            33.382735,
            25.405937
          ],
          [
            33.3726153,
            25.4242178
          ],
          [
            33.3546246,
            25.451803
          ],
          [
            33.3467453,
            25.4640714
          ],
          [
            33.3343132,
            25.483842
          ],
          [
            33.3287048,
            25.492668
          ],
          [
            33.3189607,
            25.5023679
          ],
          [
            33.293232,
            25.5281662
          ],
          [
            33.277731,
            25.5437257
          ],
          [
            33.258653,
            25.5627596
          ],
          [
            33.2494529,
            25.5718662
          ],
          [
            33.2346563,
            25.5833319
          ],
          [
            33.2243431,
            25.5913513
          ],
          [
            33.2157217,
            25.5943168
          ],
          [
            33.2117118,
            25.5973185
          ],
          [
            33.2101079,
            25.5985495
          ]
        ]
      }
    },
    {
      "type": "Feature",
      "properties": {},
      "geometry": {
        "type": "LineString",
        "coordinates": [
          [
            33.2099871,
            25.5986088
          ],
          [
            33.2102142,
            25.6192069
          ],
          [
            33.2100794,
            25.6227711
          ],
          [
            33.2091257,
            25.6347267
          ],
          [
            33.2072659,
            25.6521905
          ],
          [
            33.2050533,
            25.6762271
          ],
          [
            33.2033286,
            25.6928885
          ],
          [
            32.8334602,
            25.6933244
          ],
          [
            32.7925177,
            25.7114859
          ],
          [
            32.8088316,
            25.710559
          ],
          [
            32.8183667,
            25.7402598
          ],
          [
            32.8179541,
            25.7430256
          ],
          [
            32.8039917,
            25.7649334
          ],
          [
            32.7962756,
            25.760764
          ],
          [
            32.7720986,
            25.7664555
          ],
          [
            32.7681303,
            25.7623523
          ],
          [
            32.7663667,
            25.7583152
          ],
          [
            32.7643826,
            25.7556678
          ],
          [
            32.7633537,
            25.7530865
          ],
          [
            32.7570339,
            25.750439
          ],
          [
            32.7557847,
            25.7487842
          ],
          [
            32.7466324,
            25.7349578
          ],
          [
            32.7465604,
            25.7346603
          ],
          [
            32.7447733,
            25.7359313
          ],
          [
            32.7426726,
            25.7352534
          ],
          [
            32.7400076,
            25.7373434
          ],
          [
            32.739506,
            25.7385296
          ],
          [
            32.7358063,
            25.7377671
          ],
          [
            32.7351165,
            25.7403089
          ],
          [
            32.7332836,
            25.7395843
          ],
          [
            32.729239,
            25.7384264
          ],
          [
            32.7280163,
            25.7414201
          ],
          [
            32.7273578,
            25.742352
          ],
          [
            32.731438,
            25.748108
          ],
          [
            32.7337581,
            25.7513273
          ],
          [
            32.731555,
            25.7583757
          ],
          [
            32.7403458,
            25.7646028
          ],
          [
            32.7375492,
            25.7717201
          ],
          [
            32.7372984,
            25.7742612
          ],
          [
            32.7417505,
            25.7762093
          ],
          [
            32.740342,
            25.7797192
          ],
          [
            32.7404674,
            25.7842363
          ],
          [
            32.7401164,
            25.7919859
          ],
          [
            32.7399283,
            25.7948155
          ],
          [
            32.7390334,
            25.7965689
          ],
          [
            32.7384691,
            25.7973593
          ],
          [
            32.7366506,
            25.7986578
          ],
          [
            32.7374971,
            25.7995329
          ],
          [
            32.73571,
            25.801029
          ],
          [
            32.7361803,
            25.8032872
          ],
          [
            32.7331028,
            25.8042763
          ],
          [
            32.7303437,
            25.8044174
          ],
          [
            32.728776,
            25.8034013
          ],
          [
            32.7268321,
            25.8052642
          ],
          [
            32.7270094,
            25.8111301
          ]
        ]
      }
    },
    {
      "type": "Feature",
      "properties": {},
      "geometry": {
        "type": "LineString",
        "coordinates": [
          [
            32.7270017,
            25.8108937
          ],
          [
            32.7268189,
            25.8121583
          ],
          [
            32.7267302,
            25.8126241
          ]
        ]
      }
    },
    {
      "type": "Feature",
      "properties": {},
      "geometry": {
        "type": "LineString",
        "coordinates": [
          [
            32.7267327,
            25.8126242
          ],
          [
            32.725235,
            25.8129533
          ],
          [
            32.7235793,
            25.8133185
          ],
          [
            32.7205868,
            25.8139199
          ],
          [
            32.7156423,
            25.8148795
          ],
          [
            32.7131449,
            25.8154099
          ],
          [
            32.7113909,
            25.8157829
          ]
        ]
      }
    },
    {
      "type": "Feature",
      "properties": {},
      "geometry": {
        "type": "LineString",
        "coordinates": [
          [
            32.7113831,
            25.8157945
          ],
          [
            32.7113996,
            25.8157817
          ],
          [
            32.7111071,
            25.8158751
          ],
          [
            32.7108594,
            25.8159516
          ],
          [
            32.7085412,
            25.8166975
          ],
          [
            32.7082275,
            25.8167952
          ],
          [
            32.707398,
            25.8169873
          ],
          [
            32.7065056,
            25.8171968
          ],
          [
            32.7054416,
            25.8174339
          ],
          [
            32.7052621,
            25.8182562
          ],
          [
            32.7050498,
            25.8192042
          ],
          [
            32.7035344,
            25.8194299
          ],
          [
            32.7012743,
            25.8197501
          ],
          [
            32.6997545,
            25.819973
          ],
          [
            32.6994078,
            25.8199815
          ],
          [
            32.6993016,
            25.8199687
          ],
          [
            32.6978947,
            25.8199517
          ],
          [
            32.6962042,
            25.819934
          ],
          [
            32.6925648,
            25.8198936
          ],
          [
            32.688745,
            25.8198553
          ],
          [
            32.6858546,
            25.8205202
          ],
          [
            32.6600371,
            25.8268201
          ],
          [
            32.6420671,
            25.7901924
          ],
          [
            32.6392258,
            25.7881574
          ],
          [
            32.6385801,
            25.7865876
          ],
          [
            32.6329622,
            25.7821686
          ],
          [
            32.6104655,
            25.7621902
          ],
          [
            32.531749,
            25.691753
          ],
          [
            32.5259366,
            25.6891341
          ],
          [
            32.4952895,
            25.6910388
          ],
          [
            32.461718,
            25.681616
          ],
          [
            32.4421673,
            25.6682816
          ],
          [
            32.4236733,
            25.6470864
          ],
          [
            32.4234091,
            25.639703
          ],
          [
            32.413898,
            25.6201703
          ],
          [
            32.4133696,
            25.6025405
          ],
          [
            32.4202387,
            25.5799916
          ],
          [
            32.4255227,
            25.5556822
          ],
          [
            32.4234091,
            25.536851
          ],
          [
            32.4191819,
            25.5301759
          ],
          [
            32.4325274,
            25.4993229
          ],
          [
            32.4365267,
            25.4538509
          ],
          [
            32.4360936,
            25.4084579
          ],
          [
            32.4317417,
            25.4153715
          ],
          [
            32.4363524,
            25.4109594
          ],
          [
            32.4369442,
            25.3956723
          ],
          [
            32.4617172,
            25.3100363
          ],
          [
            32.48235,
            25.2848532
          ],
          [
            32.4782235,
            25.2689945
          ],
          [
            32.4936981,
            25.2605979
          ],
          [
            32.5174258,
            25.2316717
          ],
          [
            32.5277422,
            25.2279388
          ],
          [
            32.5463117,
            25.2102059
          ],
          [
            32.6432858,
            25.1616607
          ],
          [
            32.6670135,
            25.178467
          ],
          [
            32.6566971,
            25.1812678
          ],
          [
            32.6670135,
            25.1906034
          ],
          [
            32.6752666,
            25.1999384
          ],
          [
            32.6603164,
            25.2220704
          ],
          [
            32.6510317,
            25.2202038
          ],
          [
            32.6438102,
            25.2342025
          ],
          [
            32.6623797,
            25.2314029
          ],
          [
            32.6623797,
            25.2426009
          ],
          [
            32.65,
            25.2463334
          ],
          [
            32.675791,
            25.2967103
          ],
          [
            33.4702507,
            25.3076292
          ]
        ]
      }
    }
  ]
}