{
  "type": "Feature",
  "properties": {},
  "geometry": {
    "type": "LineString",
    "coordinates": [
      [
        25.1474398,
        31.6585542
      ],
      [
        25.139461,
        31.6540265
      ],
      [
        25.1403475,
        31.660818
      ],
      [
        25.1430071,
        31.6661
      ],
      [
        25.1403475,
        31.6721361
      ],
      [
        25.1350283,
        31.6706271
      ],
      [
        25.1297092,
        31.6615726
      ],
      [
        25.1274352,
        31.6497168
      ],
      [
        25.1132229,
        31.6412475
      ],
      [
        25.1052641,
        31.6347135
      ],
      [
        25.0955997,
        31.6264848
      ],
      [
        25.0890621,
        31.6175292
      ],
      [
        25.0825244,
        31.6066362
      ],
      [
        25.0782607,
        31.5957418
      ],
      [
        25.0754183,
        31.5870254
      ],
      [
        25.0745656,
        31.5754023
      ],
      [
        25.0742813,
        31.5635356
      ],
      [
        25.076271,
        31.5540895
      ],
      [
        25.0776923,
        31.5521517
      ],
      [
        25.0712184,
        31.5500072
      ],
      [
        25.0507527,
        31.5366836
      ],
      [
        25.0433623,
        31.5337764
      ],
      [
        25.0408041,
        31.5301423
      ],
      [
        25.0334138,
        31.5257811
      ],
      [
        25.0268761,
        31.5240851
      ],
      [
        25.0220439,
        31.5209352
      ],
      [
        25.0189172,
        31.5187544
      ],
      [
        24.9813969,
        31.4998523
      ],
      [
        24.9660476,
        31.4862792
      ],
      [
        24.9383707,
        31.4679554
      ],
      [
        24.9233057,
        31.4519529
      ],
      [
        24.8590663,
        31.4034436
      ],
      [
        24.8616245,
        31.3651636
      ],
      [
        24.8607718,
        31.3547266
      ],
      [
        24.8630457,
        31.351571
      ],
      [
        24.8616245,
        31.3469588
      ],
      [
        24.8681621,
        31.3348203
      ],
      [
        24.8775422,
        31.3224374
      ],
      [
        24.878395,
        31.318795
      ],
      [
        24.8835114,
        31.3034956
      ],
      [
        24.8860696,
        31.2883388
      ],
      [
        24.8863538,
        31.2708479
      ],
      [
        24.8880593,
        31.2628302
      ],
      [
        24.8872066,
        31.2567557
      ],
      [
        24.8880593,
        31.2531108
      ],
      [
        24.8894805,
        31.2511668
      ],
      [
        24.8894805,
        31.2475217
      ],
      [
        24.8883436,
        31.2441195
      ],
      [
        24.8866381,
        31.2416893
      ],
      [
        24.8809532,
        31.2292901
      ],
      [
        24.879532,
        31.2234566
      ],
      [
        24.878395,
        31.2001187
      ],
      [
        24.877258,
        31.1959853
      ],
      [
        24.879532,
        31.1925813
      ],
      [
        24.8775422,
        31.1823683
      ],
      [
        24.8758368,
        31.1641282
      ],
      [
        24.8729943,
        31.1604758
      ],
      [
        24.8681621,
        31.1565839
      ],
      [
        24.8775422,
        31.137565
      ],
      [
        24.8818059,
        31.128806
      ],
      [
        24.8849326,
        31.1219929
      ],
      [
        24.8877751,
        31.1132325
      ],
      [
        24.8894805,
        31.1061749
      ],
      [
        24.8931757,
        31.1022809
      ],
      [
        24.8951654,
        31.0988734
      ],
      [
        24.8982921,
        31.0935187
      ],
      [
        24.9068195,
        31.0801304
      ],
      [
        24.9105147,
        31.0728268
      ],
      [
        24.9147784,
        31.0699053
      ],
      [
        24.9187578,
        31.0595135
      ],
      [
        24.9187578,
        31.053426
      ],
      [
        24.9216003,
        31.0495298
      ],
      [
        24.9230215,
        31.0414933
      ],
      [
        24.9261482,
        31.0371095
      ],
      [
        24.9338228,
        31.0147002
      ],
      [
        24.9360968,
        31.0127513
      ],
      [
        24.9378022,
        31.0064171
      ],
      [
        24.9403605,
        31.0008135
      ],
      [
        24.9474666,
        30.9896052
      ],
      [
        24.9474666,
        30.9871685
      ],
      [
        24.9466138,
        30.9835132
      ],
      [
        24.9469442,
        30.9771648
      ],
      [
        24.9475127,
        30.9674161
      ],
      [
        24.9514921,
        30.9552289
      ],
      [
        24.9540504,
        30.9501098
      ],
      [
        24.9588825,
        30.9415773
      ],
      [
        24.9654202,
        30.9303621
      ],
      [
        24.9679784,
        30.9249978
      ],
      [
        24.9699681,
        30.918414
      ],
      [
        24.973379,
        30.9132929
      ],
      [
        24.9770742,
        30.9081716
      ],
      [
        24.9773585,
        30.9047572
      ],
      [
        24.9799167,
        30.9015866
      ],
      [
        24.9870274,
        30.8783796
      ],
      [
        24.9870274,
        30.8737443
      ],
      [
        24.9861747,
        30.8693528
      ],
      [
        24.9881644,
        30.8530048
      ],
      [
        24.9921438,
        30.8432435
      ],
      [
        24.9929966,
        30.8368981
      ],
      [
        24.9938493,
        30.8334812
      ],
      [
        25.0040821,
        30.8076063
      ],
      [
        25.015452,
        30.7830901
      ],
      [
        25.015452,
        30.7791828
      ],
      [
        25.015452,
        30.7764965
      ],
      [
        25.013178,
        30.7708794
      ],
      [
        25.0117568,
        30.763308
      ],
      [
        25.0046506,
        30.7523162
      ],
      [
        24.9975445,
        30.7347247
      ],
      [
        24.9949863,
        30.72544
      ],
      [
        24.9952705,
        30.715177
      ],
      [
        24.9890171,
        30.6973363
      ],
      [
        24.9884487,
        30.6868259
      ],
      [
        24.9858904,
        30.681448
      ],
      [
        24.9816268,
        30.6787589
      ],
      [
        24.9804898,
        30.6750919
      ],
      [
        24.9810583,
        30.6572438
      ],
      [
        24.9824795,
        30.6557767
      ],
      [
        24.9785001,
        30.6380149
      ],
      [
        24.9713939,
        30.6265196
      ],
      [
        24.9665618,
        30.6145337
      ],
      [
        24.9520653,
        30.5991211
      ],
      [
        24.9500755,
        30.594717
      ],
      [
        24.9449591,
        30.5748963
      ],
      [
        24.9460961,
        30.5670648
      ],
      [
        24.949507,
        30.560946
      ],
      [
        24.9497913,
        30.5516224
      ],
      [
        24.9492228,
        30.5455026
      ],
      [
        24.9443906,
        30.5305687
      ],
      [
        24.9452434,
        30.5200401
      ],
      [
        24.9424009,
        30.5117144
      ],
      [
        24.9298941,
        30.4935913
      ],
      [
        24.9225037,
        30.4710551
      ],
      [
        24.8933686,
        30.4482945
      ],
      [
        24.8842727,
        30.4394726
      ],
      [
        24.8609646,
        30.395841
      ],
      [
        24.834814,
        30.3705846
      ],
      [
        24.8328288,
        30.3661158
      ],
      [
        24.8189008,
        30.3509091
      ],
      [
        24.8058255,
        30.3437955
      ],
      [
        24.7975824,
        30.337908
      ],
      [
        24.7904763,
        30.3322654
      ],
      [
        24.7842229,
        30.3251504
      ],
      [
        24.7805277,
        30.3195071
      ],
      [
        24.778538,
        30.3141089
      ],
      [
        24.7754113,
        30.3119005
      ],
      [
        24.7754113,
        30.3069926
      ],
      [
        24.7711476,
        30.2880951
      ],
      [
        24.7691579,
        30.2861315
      ],
      [
        24.7697264,
        30.280486
      ],
      [
        24.7627285,
        30.2684949
      ],
      [
        24.7607388,
        30.268004
      ],
      [
        24.7584648,
        30.2626029
      ],
      [
        24.7522114,
        30.256465
      ],
      [
        24.7445368,
        30.2441879
      ],
      [
        24.7379991,
        30.2363298
      ],
      [
        24.733167,
        30.2292079
      ],
      [
        24.7303245,
        30.2230679
      ],
      [
        24.7263451,
        30.2188924
      ],
      [
        24.7246396,
        30.2137343
      ],
      [
        24.7229341,
        30.2129974
      ],
      [
        24.7019,
        30.1695107
      ],
      [
        24.7004788,
        30.1611551
      ],
      [
        24.6970678,
        30.1560063
      ],
      [
        24.6982048,
        30.1533027
      ],
      [
        24.7001945,
        30.1471579
      ],
      [
        24.7084376,
        30.1358506
      ],
      [
        24.718102,
        30.1252795
      ],
      [
        24.7263451,
        30.115199
      ],
      [
        24.7368622,
        30.1041339
      ],
      [
        24.7442525,
        30.0970024
      ],
      [
        24.7496532,
        30.0908542
      ],
      [
        24.7539169,
        30.0851974
      ],
      [
        24.758749,
        30.0721611
      ],
      [
        24.7615915,
        30.0659966
      ],
      [
        24.7627285,
        30.055418
      ],
      [
        24.764434,
        30.0490211
      ],
      [
        24.7667079,
        30.048283
      ],
      [
        24.7664237,
        30.0445923
      ],
      [
        24.7797832,
        30.0106311
      ],
      [
        24.779499,
        30.006862
      ],
      [
        24.7840469,
        29.9945539
      ],
      [
        24.7866051,
        29.9908612
      ],
      [
        24.7891633,
        29.9837215
      ],
      [
        24.7883106,
        29.980767
      ],
      [
        24.7903003,
        29.9778124
      ],
      [
        24.7903003,
        29.9755964
      ],
      [
        24.79229,
        29.9726417
      ],
      [
        24.7920058,
        29.9709181
      ],
      [
        24.7999646,
        29.958113
      ],
      [
        24.8016701,
        29.958113
      ],
      [
        24.8042283,
        29.9531875
      ],
      [
        24.8059338,
        29.9494932
      ],
      [
        24.8067865,
        29.9453062
      ],
      [
        24.808492,
        29.9440747
      ],
      [
        24.8059338,
        29.9403801
      ],
      [
        24.8119121,
        29.9176411
      ],
      [
        24.8238505,
        29.8976833
      ],
      [
        24.8249874,
        29.8772286
      ],
      [
        24.8235662,
        29.8673694
      ],
      [
        24.8235662,
        29.8530719
      ],
      [
        24.8207238,
        29.8478947
      ],
      [
        24.8178813,
        29.8223836
      ],
      [
        24.8175971,
        29.8139987
      ],
      [
        24.8181655,
        29.8100527
      ],
      [
        24.8181655,
        29.8065997
      ],
      [
        24.9120903,
        29.6092169
      ],
      [
        24.902426,
        29.6027914
      ],
      [
        24.8947513,
        29.5961183
      ],
      [
        24.8876452,
        29.589692
      ],
      [
        24.8836658,
        29.5852427
      ],
      [
        24.8774124,
        29.576838
      ],
      [
        24.8725802,
        29.5667021
      ],
      [
        24.8680323,
        29.5563178
      ],
      [
        24.8651898,
        29.5419893
      ],
      [
        24.8651898,
        29.5308606
      ],
      [
        24.8660426,
        29.5182465
      ],
      [
        24.8697377,
        29.5041466
      ],
      [
        24.8813918,
        29.483859
      ],
      [
        24.8902034,
        29.4739612
      ],
      [
        24.9010047,
        29.4640624
      ],
      [
        25.0005044,
        29.2524855
      ],
      [
        24.9988155,
        27.6345441
      ],
      [
        27.3648377,
        27.677047
      ],
      [
        27.8309788,
        28.5778042
      ],
      [
        28.7680737,
        28.7561065
      ],
      [
        29.6071636,
        29.5099039
      ],
      [
        30.3372228,
        29.879101
      ],
      [
        29.6208736,
        30.2647002
      ],
      [
        29.5964495,
        30.7303055
      ],
      [
        29.5964495,
        30.7362409
      ],
      [
        29.6042177,
        30.7384665
      ],
      [
        29.5826392,
        30.7577534
      ],
      [
        29.5645133,
        30.7547864
      ],
      [
        29.5571766,
        30.7566408
      ],
      [
        29.5519978,
        30.7536738
      ],
      [
        29.5269667,
        30.752932
      ],
      [
        29.5265351,
        30.7510776
      ],
      [
        29.5161775,
        30.7481104
      ],
      [
        29.5045251,
        30.7499649
      ],
      [
        29.4963252,
        30.7629453
      ],
      [
        29.491578,
        30.7633162
      ],
      [
        29.4756099,
        30.7774072
      ],
      [
        29.4661153,
        30.7963155
      ],
      [
        29.4605049,
        30.7933498
      ],
      [
        29.4488525,
        30.8092897
      ],
      [
        29.4445368,
        30.8104017
      ],
      [
        29.4328845,
        30.8281918
      ],
      [
        29.4294319,
        30.8259682
      ],
      [
        29.4220952,
        30.8374561
      ],
      [
        29.4182111,
        30.8374561
      ],
      [
        29.4143269,
        30.8459786
      ],
      [
        29.4039693,
        30.8444965
      ],
      [
        29.4013798,
        30.8467196
      ],
      [
        29.3940432,
        30.8622802
      ],
      [
        29.390145,
        30.8626567
      ],
      [
        29.3704943,
        30.8971092
      ],
      [
        29.2246237,
        30.8478432
      ],
      [
        29.12422,
        30.8256096
      ],
      [
        29.0461058,
        30.8315391
      ],
      [
        28.9679917,
        30.8615513
      ],
      [
        28.8928985,
        30.8959983
      ],
      [
        28.8424519,
        30.923787
      ],
      [
        28.8359783,
        30.9541405
      ],
      [
        28.7915266,
        30.9608022
      ],
      [
        28.7677903,
        30.9719039
      ],
      [
        28.7639061,
        30.9926237
      ],
      [
        28.7328331,
        30.989664
      ],
      [
        28.7129809,
        31.0070509
      ],
      [
        28.6587524,
        31.0078024
      ],
      [
        28.603943,
        31.0196384
      ],
      [
        28.5953116,
        31.0414571
      ],
      [
        28.5728699,
        31.0458942
      ],
      [
        28.554744,
        31.0562466
      ],
      [
        28.5202184,
        31.0536586
      ],
      [
        28.5029556,
        31.0621618
      ],
      [
        28.4787877,
        31.0677069
      ],
      [
        28.4710194,
        31.0821228
      ],
      [
        28.4351991,
        31.0928408
      ],
      [
        28.3696005,
        31.0836012
      ],
      [
        28.318027,
        31.0706642
      ],
      [
        28.2714174,
        31.078057
      ],
      [
        28.2118607,
        31.0758392
      ],
      [
        28.1838087,
        31.0821228
      ],
      [
        28.1613671,
        31.0961669
      ],
      [
        28.0793688,
        31.0932104
      ],
      [
        27.9843752,
        31.0987657
      ],
      [
        27.9041032,
        31.1150242
      ],
      [
        27.8956659,
        31.2006814
      ],
      [
        27.8742802,
        31.2277774
      ],
      [
        27.871904,
        31.2527407
      ],
      [
        27.6699281,
        31.1917799
      ],
      [
        27.6152758,
        31.2093949
      ],
      [
        27.5043871,
        31.2256519
      ],
      [
        27.3962683,
        31.3035114
      ],
      [
        27.3566652,
        31.3792779
      ],
      [
        27.0858384,
        31.3950462
      ],
      [
        27.067621,
        31.416003
      ],
      [
        27.0264338,
        31.4207345
      ],
      [
        26.9995036,
        31.4531729
      ],
      [
        26.8347547,
        31.4558756
      ],
      [
        26.7523802,
        31.4943804
      ],
      [
        26.2528278,
        31.5602461
      ],
      [
        25.8930251,
        31.6378283
      ],
      [
        25.370264,
        31.5096143
      ],
      [
        25.1789603,
        31.5447219
      ],
      [
        25.1868809,
        31.5649704
      ],
      [
        25.149654,
        31.6573823
      ]
    ]
  }
}