{
  "type": "FeatureCollection",
  "features": [
    {
      "type": "Feature",
      "properties": {},
      "geometry": {
        "type": "LineString",
        "coordinates": [
          [
            31.1535426,
            21.9999995
          ],
          [
            24.9999999,
            21.9999995
          ],
          [
            25.0005174,
            27.638799
          ],
          [
            28.4697155,
            27.6748995
          ],
          [
            30.5285579,
            27.6001598
          ],
          [
            30.8684359,
            26.792473
          ],
          [
            31.1424159,
            26.8282584
          ],
          [
            31.2849744,
            26.8352152
          ],
          [
            31.3738193,
            26.7280515
          ],
          [
            31.3687518,
            26.7179856
          ],
          [
            31.3756078,
            26.7124605
          ],
          [
            31.3831346,
            26.7124605
          ],
          [
            31.3858174,
            26.7127268
          ],
          [
            31.3914065,
            26.704472
          ],
          [
            31.3782906,
            26.6911784
          ],
          [
            31.3817931,
            26.6885817
          ],
          [
            31.386488,
            26.6887149
          ],
          [
            31.3922262,
            26.6923103
          ],
          [
            31.3931205,
            26.6911118
          ],
          [
            31.3915555,
            26.6896471
          ],
          [
            31.3957286,
            26.6868506
          ],
          [
            31.4046712,
            26.6931093
          ],
          [
            31.4063852,
            26.6913782
          ],
          [
            31.405491,
            26.6907124
          ],
          [
            31.4062362,
            26.6893142
          ],
          [
            31.4059381,
            26.6883154
          ],
          [
            31.4042986,
            26.6879825
          ],
          [
            31.4043731,
            26.6855189
          ],
          [
            31.3983369,
            26.6826558
          ],
          [
            31.3992311,
            26.6813906
          ],
          [
            31.4054165,
            26.6831219
          ],
          [
            31.4047458,
            26.6817901
          ],
          [
            31.402212,
            26.6798591
          ],
          [
            31.4035534,
            26.6773288
          ],
          [
            31.4064879,
            26.6789269
          ],
          [
            31.4076057,
            26.6775951
          ],
          [
            31.4093197,
            26.6788603
          ],
          [
            31.4093942,
            26.6809245
          ],
          [
            31.4120025,
            26.6810577
          ],
          [
            31.4125242,
            26.6792598
          ],
          [
            31.4104375,
            26.6776617
          ],
          [
            31.4098414,
            26.6762633
          ],
          [
            31.4112573,
            26.6743988
          ],
          [
            31.4117789,
            26.6729338
          ],
          [
            31.4110237,
            26.6710603
          ],
          [
            31.4078938,
            26.6696618
          ],
          [
            31.4069646,
            26.6673811
          ],
          [
            31.4064259,
            26.6645801
          ],
          [
            31.4073074,
            26.6639674
          ],
          [
            31.413723,
            26.6673811
          ],
          [
            31.4135271,
            26.6656742
          ],
          [
            31.4112743,
            26.6639674
          ],
          [
            31.4115681,
            26.6630483
          ],
          [
            31.4133312,
            26.6627857
          ],
          [
            31.4116661,
            26.6607287
          ],
          [
            31.4127435,
            26.6598533
          ],
          [
            31.4128415,
            26.6588029
          ],
          [
            31.4113233,
            26.6573585
          ],
          [
            31.4113723,
            26.6566582
          ],
          [
            31.4122048,
            26.6564832
          ],
          [
            31.4157309,
            26.6577525
          ],
          [
            31.4173471,
            26.6549075
          ],
          [
            31.4131353,
            26.6525439
          ],
          [
            31.4120089,
            26.651581
          ],
          [
            31.4115192,
            26.6496988
          ],
          [
            31.4131353,
            26.6478166
          ],
          [
            31.4152889,
            26.6466354
          ],
          [
            31.4171499,
            26.6451033
          ],
          [
            31.4182763,
            26.6435713
          ],
          [
            31.4191089,
            26.6437026
          ],
          [
            31.4219493,
            26.6450595
          ],
          [
            31.4227819,
            26.6439214
          ],
          [
            31.4212147,
            26.643046
          ],
          [
            31.4227329,
            26.6412512
          ],
          [
            31.4224391,
            26.639938
          ],
          [
            31.4233206,
            26.6386685
          ],
          [
            31.4257693,
            26.6390187
          ],
          [
            31.4273365,
            26.6411637
          ],
          [
            31.428169,
            26.6406384
          ],
          [
            31.4271896,
            26.6388436
          ],
          [
            31.4290506,
            26.6376179
          ],
          [
            31.4298831,
            26.6387123
          ],
          [
            31.4336052,
            26.6368299
          ],
          [
            31.4337031,
            26.6360857
          ],
          [
            31.4364456,
            26.63486
          ],
          [
            31.4379638,
            26.6366986
          ],
          [
            31.4399228,
            26.6375741
          ],
          [
            31.4407064,
            26.6391063
          ],
          [
            31.4440856,
            26.6408573
          ],
          [
            31.4450648,
            26.6386249
          ],
          [
            31.4479543,
            26.6387562
          ],
          [
            31.4491297,
            26.6349915
          ],
          [
            31.453471,
            26.6331125
          ],
          [
            31.4619435,
            26.6281217
          ],
          [
            31.4701712,
            26.6223864
          ],
          [
            31.4711996,
            26.6199346
          ],
          [
            31.4708078,
            26.6177893
          ],
          [
            31.4647425,
            26.6136714
          ],
          [
            31.6429783,
            26.4220235
          ],
          [
            31.6423262,
            26.4170917
          ],
          [
            31.6476636,
            26.4174466
          ],
          [
            31.6859426,
            26.3771759
          ],
          [
            31.6767373,
            26.3726506
          ],
          [
            31.6782223,
            26.3709377
          ],
          [
            31.6781514,
            26.3701764
          ],
          [
            31.6768061,
            26.3691825
          ],
          [
            31.675083,
            26.3699015
          ],
          [
            31.6725733,
            26.3680559
          ],
          [
            31.6746032,
            26.3672734
          ],
          [
            31.6763498,
            26.3683942
          ],
          [
            31.6786393,
            26.3653913
          ],
          [
            31.6823214,
            26.3634033
          ],
          [
            31.683478,
            26.3650529
          ],
          [
            31.6849886,
            26.36592
          ],
          [
            31.6859563,
            26.3649471
          ],
          [
            31.686688,
            26.3657085
          ],
          [
            31.6891428,
            26.3642916
          ],
          [
            31.6890011,
            26.3632341
          ],
          [
            31.6860963,
            26.3630845
          ],
          [
            31.6856007,
            26.3598487
          ],
          [
            31.6918254,
            26.3597974
          ],
          [
            31.7006997,
            26.3568896
          ],
          [
            31.7020451,
            26.3568685
          ],
          [
            31.7063597,
            26.3553888
          ],
          [
            31.7654766,
            26.2930209
          ],
          [
            31.771352,
            26.2878849
          ],
          [
            31.7750241,
            26.2831439
          ],
          [
            31.7788431,
            26.2760319
          ],
          [
            31.7820745,
            26.2698415
          ],
          [
            31.787803,
            26.2640459
          ],
          [
            31.7963223,
            26.2546934
          ],
          [
            31.842217,
            26.2217884
          ],
          [
            31.9361378,
            26.1202559
          ],
          [
            31.9767754,
            26.0826615
          ],
          [
            31.9767754,
            26.0652595
          ],
          [
            32.0020439,
            26.0443026
          ],
          [
            32.0129529,
            26.0410618
          ],
          [
            32.0210466,
            26.0407456
          ],
          [
            32.0309879,
            26.0369514
          ],
          [
            32.0367063,
            26.0322875
          ],
          [
            32.0418089,
            26.0361609
          ],
          [
            32.1063144,
            25.994125
          ],
          [
            32.1411191,
            25.9783554
          ],
          [
            32.1896282,
            25.9524667
          ],
          [
            32.2175672,
            25.9435932
          ],
          [
            32.260328,
            25.9396754
          ],
          [
            32.3482519,
            25.9592034
          ],
          [
            32.3902863,
            25.9826935
          ],
          [
            32.4514614,
            25.995836
          ],
          [
            32.5234868,
            26.0483433
          ],
          [
            32.566119,
            26.064688
          ],
          [
            32.6013324,
            26.0798704
          ],
          [
            32.6313812,
            26.0950509
          ],
          [
            32.6590824,
            26.1081214
          ],
          [
            32.7299786,
            26.076075
          ],
          [
            32.7384299,
            26.0562524
          ],
          [
            32.7276311,
            25.9874802
          ],
          [
            32.724814,
            25.9866361
          ],
          [
            32.723875,
            25.9756625
          ],
          [
            32.6794351,
            25.9161139
          ],
          [
            32.6662887,
            25.8379634
          ],
          [
            32.658307,
            25.8278212
          ],
          [
            32.6413907,
            25.7872126
          ],
          [
            32.5249526,
            25.6882468
          ],
          [
            32.4934953,
            25.6899392
          ],
          [
            32.4662636,
            25.6823231
          ],
          [
            32.4446661,
            25.6717444
          ],
          [
            32.4230686,
            25.6480448
          ],
          [
            32.4258856,
            25.6395794
          ],
          [
            32.4118003,
            25.6184135
          ],
          [
            32.4113308,
            25.6014781
          ],
          [
            32.4203301,
            25.5771287
          ],
          [
            32.4254947,
            25.5534102
          ],
          [
            32.4212691,
            25.5301108
          ],
          [
            32.433946,
            25.4996028
          ],
          [
            32.4362935,
            25.4665437
          ],
          [
            32.4334765,
            25.4381396
          ],
          [
            32.437727,
            25.3947017
          ],
          [
            32.4471172,
            25.3637351
          ],
          [
            32.4541599,
            25.3382772
          ],
          [
            32.4593245,
            25.3204535
          ],
          [
            32.4612026,
            25.3094184
          ],
          [
            32.4818611,
            25.2860717
          ],
          [
            32.4842086,
            25.2669666
          ],
          [
            32.5124245,
            25.233913
          ],
          [
            32.533083,
            25.2224454
          ],
          [
            32.5457598,
            25.2097022
          ],
          [
            32.63215,
            25.1684903
          ],
          [
            32.6457659,
            25.1574415
          ],
          [
            32.632025,
            25.1470807
          ],
          [
            32.6270566,
            25.1352742
          ],
          [
            32.5630884,
            25.1037846
          ],
          [
            32.3227967,
            24.5452585
          ],
          [
            32.1690721,
            24.2547044
          ],
          [
            31.9395323,
            23.8154299
          ],
          [
            31.4660874,
            22.9166786
          ],
          [
            31.3365944,
            22.657061
          ],
          [
            31.2379331,
            22.5394078
          ],
          [
            31.2153232,
            22.4976358
          ],
          [
            31.2136546,
            22.4819359
          ],
          [
            31.2241635,
            22.4695769
          ],
          [
            31.2276665,
            22.4542737
          ],
          [
            31.2297125,
            22.4418774
          ],
          [
            31.230871,
            22.4304562
          ],
          [
            31.231064,
            22.4177847
          ],
          [
            31.2275888,
            22.4083249
          ],
          [
            31.2138644,
            22.3615117
          ],
          [
            31.1979292,
            22.3144229
          ],
          [
            31.1745676,
            22.2728
          ],
          [
            31.1654663,
            22.2416702
          ],
          [
            31.1555486,
            22.2064197
          ],
          [
            31.1464122,
            22.1030648
          ],
          [
            31.1535426,
            21.9999995
          ]
        ]
      }
    }
  ]
}