{
  "type": "Feature",
  "properties": {},
  "geometry": {
    "type": "LineString",
    "coordinates": [
      [
        32.8357004,
        29.9484479
      ],
      [
        33.1200131,
        29.9267668
      ],
      [
        33.1449496,
        29.9030371
      ],
      [
        33.1790671,
        29.9168381
      ],
      [
        33.2063611,
        29.9128951
      ],
      [
        33.2450277,
        29.9188095
      ],
      [
        33.4997718,
        29.8971219
      ],
      [
        33.6134969,
        29.8734573
      ],
      [
        33.6749084,
        29.8635954
      ],
      [
        33.713575,
        29.8537326
      ],
      [
        33.754516,
        29.8497871
      ],
      [
        33.7886335,
        29.8379499
      ],
      [
        34.0479266,
        29.7096237
      ],
      [
        34.1889457,
        29.6582472
      ],
      [
        34.1889457,
        29.6681293
      ],
      [
        34.2162397,
        29.6523174
      ],
      [
        34.3026708,
        29.6147543
      ],
      [
        34.3458863,
        29.6068444
      ],
      [
        34.3458863,
        29.5930008
      ],
      [
        34.3640823,
        29.5771771
      ],
      [
        34.3891018,
        29.5692643
      ],
      [
        34.4186703,
        29.5613509
      ],
      [
        34.4527879,
        29.5613509
      ],
      [
        34.4709839,
        29.5692643
      ],
      [
        34.5005524,
        29.5534369
      ],
      [
        34.5505914,
        29.5514583
      ],
      [
        34.5778854,
        29.5356281
      ],
      [
        34.5847089,
        29.5534369
      ],
      [
        34.634748,
        29.5534369
      ],
      [
        34.6233755,
        29.5296912
      ],
      [
        34.6655766,
        29.5138575
      ],
      [
        34.7952231,
        29.527712
      ],
      [
        34.8111447,
        29.5098987
      ],
      [
        34.8316152,
        29.5415647
      ],
      [
        34.8498112,
        29.5435435
      ],
      [
        34.8771052,
        29.527712
      ],
      [
        34.8865223,
        29.5339621
      ],
      [
        34.8786215,
        29.5519099
      ],
      [
        34.8773047,
        29.5809251
      ],
      [
        34.8672091,
        29.5992462
      ],
      [
        34.8766832,
        29.6108712
      ],
      [
        34.8797558,
        29.630713
      ],
      [
        34.8797558,
        29.6486436
      ],
      [
        34.8801947,
        29.6520767
      ],
      [
        34.8709771,
        29.6597056
      ],
      [
        34.8683435,
        29.6719104
      ],
      [
        34.857809,
        29.6883084
      ],
      [
        34.8551754,
        29.7176656
      ],
      [
        34.851225,
        29.7260518
      ],
      [
        34.8525418,
        29.7550168
      ],
      [
        34.8503329,
        29.7603509
      ],
      [
        34.8503329,
        29.7630182
      ],
      [
        34.8472603,
        29.7660664
      ],
      [
        34.8446267,
        29.7656854
      ],
      [
        34.8446267,
        29.7694955
      ],
      [
        34.842432,
        29.7694955
      ],
      [
        34.842432,
        29.7740675
      ],
      [
        34.8411152,
        29.7755915
      ],
      [
        34.8411152,
        29.7805442
      ],
      [
        34.8411152,
        29.7839728
      ],
      [
        34.835848,
        29.7851157
      ],
      [
        34.8349701,
        29.7877823
      ],
      [
        34.835848,
        29.7908298
      ],
      [
        34.8318976,
        29.7950199
      ],
      [
        34.8301418,
        29.8011143
      ],
      [
        34.8283861,
        29.802257
      ],
      [
        34.7599122,
        29.9825392
      ],
      [
        34.7625458,
        29.9871015
      ],
      [
        34.7568396,
        29.9962253
      ],
      [
        34.7537671,
        30.0083892
      ],
      [
        34.7221637,
        30.0821006
      ],
      [
        34.7168965,
        30.0885573
      ],
      [
        34.6896825,
        30.1628551
      ],
      [
        34.6822206,
        30.175378
      ],
      [
        34.6826595,
        30.1795519
      ],
      [
        34.6361323,
        30.3006156
      ],
      [
        34.6370102,
        30.3040263
      ],
      [
        34.6339377,
        30.3153944
      ],
      [
        34.6348155,
        30.3184257
      ],
      [
        34.6308651,
        30.3218357
      ],
      [
        34.6234817,
        30.3398251
      ],
      [
        34.6263812,
        30.3479574
      ],
      [
        34.6213071,
        30.3535871
      ],
      [
        34.6198574,
        30.3648454
      ],
      [
        34.6140585,
        30.3742263
      ],
      [
        34.5952122,
        30.3829811
      ],
      [
        34.5734664,
        30.3954865
      ],
      [
        34.5560698,
        30.4054897
      ],
      [
        34.5459217,
        30.4136165
      ],
      [
        34.5401228,
        30.4311181
      ],
      [
        34.5437471,
        30.4554902
      ],
      [
        34.55462,
        30.4723595
      ],
      [
        34.5575195,
        30.4935983
      ],
      [
        34.5342111,
        30.5156052
      ],
      [
        34.5276874,
        30.5299668
      ],
      [
        34.5211637,
        30.5349616
      ],
      [
        34.5211637,
        30.5586834
      ],
      [
        34.5189891,
        30.5992469
      ],
      [
        34.5008676,
        30.6803228
      ],
      [
        34.4776721,
        30.7164732
      ],
      [
        34.4015383,
        30.8579762
      ],
      [
        34.240572,
        31.2956212
      ],
      [
        34.2340483,
        31.2962406
      ],
      [
        34.2210008,
        31.3228705
      ],
      [
        34.2166517,
        31.3284432
      ],
      [
        33.9771869,
        31.2014267
      ],
      [
        33.7590041,
        31.1412666
      ],
      [
        33.5611174,
        31.1220321
      ],
      [
        33.4987794,
        31.1313396
      ],
      [
        33.383026,
        31.2093342
      ],
      [
        33.1941322,
        31.244304
      ],
      [
        33.0909222,
        31.2409741
      ],
      [
        32.8728181,
        31.1443559
      ],
      [
        32.7735028,
        31.1060145
      ],
      [
        32.6547139,
        31.081001
      ],
      [
        32.563188,
        31.0743295
      ],
      [
        32.5594458,
        31.0747818
      ],
      [
        32.5546515,
        31.0617776
      ],
      [
        32.5510558,
        31.0183036
      ],
      [
        32.5270843,
        31.0028947
      ],
      [
        32.5902091,
        30.9439754
      ],
      [
        32.5989987,
        30.945346
      ],
      [
        32.6205729,
        30.8985139
      ],
      [
        32.6269653,
        30.8738275
      ],
      [
        32.6269653,
        30.8628537
      ],
      [
        32.6197739,
        30.8347276
      ],
      [
        32.6369534,
        30.7983573
      ],
      [
        32.637353,
        30.7814717
      ],
      [
        32.6481401,
        30.7467981
      ],
      [
        32.6433458,
        30.7062725
      ],
      [
        32.6453434,
        30.677757
      ],
      [
        32.6397501,
        30.6753517
      ],
      [
        32.6349558,
        30.6667609
      ],
      [
        32.6365539,
        30.6544114
      ],
      [
        32.6393506,
        30.6475372
      ],
      [
        32.6377525,
        30.6141908
      ],
      [
        32.6401496,
        30.5932145
      ],
      [
        32.6321591,
        30.5813567
      ],
      [
        32.6293625,
        30.5517722
      ],
      [
        32.6634041,
        30.5160793
      ],
      [
        32.679385,
        30.5088511
      ],
      [
        32.7265288,
        30.4565171
      ],
      [
        32.746505,
        30.4242913
      ],
      [
        32.7592898,
        30.3567441
      ],
      [
        32.7740852,
        30.3370915
      ],
      [
        32.7764823,
        30.3219184
      ],
      [
        32.7816761,
        30.3181247
      ],
      [
        32.7840733,
        30.3081226
      ],
      [
        32.8140376,
        30.2467078
      ],
      [
        32.829619,
        30.1973412
      ],
      [
        32.8332147,
        30.160287
      ],
      [
        32.8220281,
        30.1367944
      ],
      [
        32.82882,
        30.1112226
      ],
      [
        32.8248247,
        30.0873727
      ],
      [
        32.8499947,
        30.0041908
      ],
      [
        32.8531909,
        29.9712151
      ],
      [
        32.8483966,
        29.9615239
      ],
      [
        32.8420043,
        29.9511394
      ],
      [
        32.8364109,
        29.94837
      ]
    ]
  }
}