{
  "type": "FeatureCollection",
  "features": [
    {
      "geometry": {
        "type": "MultiPolygon",
        "coordinates": [
          [
            32.5597911,
            31.0743076
          ],
          [
            32.554874,
            31.0639696
          ],
          [
            32.5526389,
            31.0483967
          ],
          [
            32.5518939,
            31.0177541
          ],
          [
            32.5268476,
            31.0029313
          ],
          [
            32.5225265,
            30.9869652
          ],
          [
            32.4937686,
            30.9959065
          ],
          [
            32.401596,
            30.9615662
          ],
          [
            32.3956358,
            30.9572218
          ],
          [
            32.3707521,
            30.9573496
          ],
          [
            32.3130872,
            30.9576051
          ],
          [
            32.3141786,
            30.9159275
          ],
          [
            32.3090268,
            30.9159275
          ],
          [
            32.3042319,
            30.91416
          ],
          [
            32.3046344,
            30.9090955
          ],
          [
            32.2981948,
            30.9058724
          ],
          [
            32.259933,
            30.9050486
          ],
          [
            32.2577865,
            30.8878955
          ],
          [
            32.2118756,
            30.8868054
          ],
          [
            32.206968,
            30.9319868
          ],
          [
            32.1825586,
            30.9656941
          ],
          [
            32.2008969,
            30.9769166
          ],
          [
            32.2054494,
            30.983747
          ],
          [
            32.202035,
            31.0607992
          ],
          [
            32.1906537,
            31.0676236
          ],
          [
            32.1587859,
            31.0676236
          ],
          [
            32.1422141,
            31.0864213
          ],
          [
            32.1270718,
            31.0977673
          ],
          [
            32.1036013,
            31.123372
          ],
          [
            32.0907304,
            31.1405459
          ],
          [
            32.0898017,
            31.155786
          ],
          [
            32.0644384,
            31.2076046
          ],
          [
            32.0564828,
            31.347088
          ],
          [
            32.0439904,
            31.3584028
          ],
          [
            32.0670824,
            31.3554934
          ],
          [
            32.0727607,
            31.3600191
          ],
          [
            32.2297912,
            31.2914239
          ],
          [
            32.3202663,
            31.2768657
          ],
          [
            32.370372,
            31.2306768
          ],
          [
            32.4188272,
            31.2041298
          ],
          [
            32.4919916,
            31.1527431
          ],
          [
            32.501077,
            31.1358954
          ],
          [
            32.53439,
            31.0983013
          ],
          [
            32.5601076,
            31.0748102
          ],
          [
            32.5598107,
            31.0743479
          ]
        ]

    }, 
      "type": "Feature", 
      "properties": {
        "source": "https://simplemaps.com", 
        "id": "EG", 
        "name": "Egypt"
      }, 
      "id": 1
      
    }
  ]
}