{
  "type": "FeatureCollection",
  "features": [
    {
      "type": "Feature",
      "properties": {},
      "geometry": {
        "type": "LineString",
        "coordinates": []
      }
    },
    {
      "type": "Feature",
      "properties": {},
      "geometry": {
        "type": "LineString",
        "coordinates": [
          [
            32.0154695,
            26.1834095
          ],
          [
            32.0116018,
            26.1809798
          ],
          [
            32.0139224,
            26.1775089
          ],
          [
            32.0096679,
            26.1726494
          ],
          [
            32.0050266,
            26.1702195
          ],
          [
            32.0050266,
            26.1677896
          ],
          [
            32.0011589,
            26.1657068
          ],
          [
            31.9972912,
            26.1670954
          ],
          [
            31.9945838,
            26.1643183
          ],
          [
            31.9922632,
            26.1618883
          ],
          [
            31.9911029,
            26.1584167
          ],
          [
            31.9849145,
            26.1556395
          ],
          [
            31.9845277,
            26.1535564
          ],
          [
            31.9771791,
            26.1545979
          ],
          [
            31.9771791,
            26.1518206
          ],
          [
            31.9748584,
            26.1504318
          ],
          [
            31.9736981,
            26.1483487
          ],
          [
            31.970604,
            26.1448768
          ],
          [
            31.9702172,
            26.1441824
          ],
          [
            31.9651891,
            26.1389743
          ],
          [
            31.9555199,
            26.1341132
          ],
          [
            31.9493315,
            26.1285573
          ],
          [
            31.9435299,
            26.1254321
          ],
          [
            31.9357945,
            26.1205704
          ],
          [
            31.9744717,
            26.0830591
          ],
          [
            31.9760584,
            26.0651778
          ],
          [
            31.9992553,
            26.0462681
          ],
          [
            32.0280365,
            26.0373911
          ],
          [
            32.0353392,
            26.0319873
          ],
          [
            32.0400644,
            26.0366191
          ],
          [
            32.1059841,
            25.9927508
          ],
          [
            32.1884616,
            25.9522013
          ],
          [
            32.2348553,
            25.941772
          ],
          [
            32.2621587,
            25.9410977
          ],
          [
            32.3485024,
            25.9596381
          ],
          [
            32.3910298,
            25.9843541
          ],
          [
            32.4507401,
            25.9951657
          ],
          [
            32.5208652,
            26.0486755
          ],
          [
            32.67334,
            26.1103033
          ],
          [
            32.7286122,
            26.0726458
          ],
          [
            32.7362359,
            26.0623734
          ],
          [
            32.73433,
            26.0366886
          ],
          [
            32.7267062,
            26.0058594
          ],
          [
            32.7267062,
            25.9835889
          ],
          [
            32.6809638,
            25.9236087
          ],
          [
            32.6580926,
            25.8292925
          ],
          [
            32.7267062,
            25.812136
          ],
          [
            32.7267426,
            25.8060448
          ],
          [
            32.7290713,
            25.8039484
          ],
          [
            32.731594,
            25.8048219
          ],
          [
            32.7354751,
            25.8041231
          ],
          [
            32.7364848,
            25.7984996
          ],
          [
            32.7392016,
            25.7978007
          ],
          [
            32.7399778,
            25.7948305
          ],
          [
            32.74056,
            25.7804212
          ],
          [
            32.7409481,
            25.7778
          ],
          [
            32.7422311,
            25.7758596
          ],
          [
            32.7376326,
            25.7739484
          ],
          [
            32.7401087,
            25.7648698
          ],
          [
            32.7316194,
            25.7586578
          ],
          [
            32.733388,
            25.7513303
          ],
          [
            32.7274521,
            25.7426089
          ],
          [
            32.7294926,
            25.7384734
          ],
          [
            32.7351038,
            25.7401965
          ],
          [
            32.735614,
            25.7375544
          ],
          [
            32.7396949,
            25.7387031
          ],
          [
            32.7399499,
            25.7370949
          ],
          [
            32.7422455,
            25.7354866
          ],
          [
            32.744796,
            25.7366354
          ],
          [
            32.7465815,
            25.7347973
          ],
          [
            32.755381,
            25.7490416
          ],
          [
            32.7586967,
            25.7507645
          ],
          [
            32.761885,
            25.752028
          ],
          [
            32.7632878,
            25.7529469
          ],
          [
            32.7658384,
            25.7586899
          ],
          [
            32.7683889,
            25.7607573
          ],
          [
            32.7678788,
            25.762595
          ],
          [
            32.771254,
            25.766297
          ],
          [
            32.7963889,
            25.7611936
          ],
          [
            32.8041682,
            25.7649837
          ],
          [
            32.8175587,
            25.7437344
          ],
          [
            32.8185789,
            25.7408626
          ],
          [
            32.8170486,
            25.7371866
          ],
          [
            32.8098339,
            25.7112248
          ],
          [
            32.7932801,
            25.7122901
          ],
          [
            32.7918837,
            25.7118465
          ],
          [
            32.8327854,
            25.6937026
          ],
          [
            32.9668339,
            25.6931435
          ],
          [
            33.203002,
            25.692542
          ],
          [
            33.1920507,
            25.726584
          ],
          [
            33.1668625,
            25.7744236
          ],
          [
            33.1739809,
            25.7892154
          ],
          [
            33.1728858,
            25.8542777
          ],
          [
            33.1198506,
            25.889477
          ],
          [
            33.1532523,
            25.9017917
          ],
          [
            33.1965102,
            25.9077023
          ],
          [
            33.203081,
            25.9126275
          ],
          [
            33.2616708,
            25.9200151
          ],
          [
            33.2627659,
            25.9229699
          ],
          [
            33.3104044,
            25.9259247
          ],
          [
            33.3646865,
            25.9376309
          ],
          [
            33.3756379,
            25.9440321
          ],
          [
            33.3948028,
            25.9410777
          ],
          [
            33.4194434,
            25.9415701
          ],
          [
            33.4572256,
            25.9371385
          ],
          [
            33.4599634,
            25.9430473
          ],
          [
            33.5201959,
            25.9755405
          ],
          [
            33.5461238,
            25.9704742
          ],
          [
            33.5488332,
            25.9794054
          ],
          [
            33.5668965,
            25.9875242
          ],
          [
            33.5668965,
            25.9923951
          ],
          [
            33.5759281,
            25.9997012
          ],
          [
            33.5885723,
            26.0086302
          ],
          [
            33.5876692,
            26.0135002
          ],
          [
            33.5831534,
            26.0289208
          ],
          [
            33.592185,
            26.0427164
          ],
          [
            33.5957976,
            26.0516422
          ],
          [
            33.5750249,
            26.0784153
          ],
          [
            33.5677996,
            26.0897717
          ],
          [
            33.5714123,
            26.1100483
          ],
          [
            33.5596712,
            26.1238344
          ],
          [
            33.5479301,
            26.1400512
          ],
          [
            33.5425111,
            26.1522124
          ],
          [
            33.536189,
            26.170857
          ],
          [
            33.5262542,
            26.183015
          ],
          [
            33.5217384,
            26.1943612
          ],
          [
            33.5109005,
            26.202465
          ],
          [
            33.4910309,
            26.2340645
          ],
          [
            33.4964499,
            26.2462158
          ],
          [
            33.508191,
            26.2640355
          ],
          [
            33.5072878,
            26.2729443
          ],
          [
            33.497353,
            26.2850916
          ],
          [
            33.493289,
            26.2988573
          ],
          [
            33.48787,
            26.3085731
          ],
          [
            33.4987079,
            26.3255737
          ],
          [
            33.4969016,
            26.3377155
          ],
          [
            33.4914826,
            26.340953
          ],
          [
            33.4869668,
            26.3555211
          ],
          [
            33.4860637,
            26.3652321
          ],
          [
            33.4716131,
            26.3814152
          ],
          [
            33.4553562,
            26.390315
          ],
          [
            33.4454214,
            26.40245
          ],
          [
            33.4436151,
            26.4129659
          ],
          [
            33.4381961,
            26.4283336
          ],
          [
            33.4300677,
            26.4412733
          ],
          [
            33.4111013,
            26.4542115
          ],
          [
            33.4029728,
            26.4622971
          ],
          [
            33.3867159,
            26.4857423
          ],
          [
            33.3803938,
            26.494634
          ],
          [
            33.3686527,
            26.5083744
          ],
          [
            33.3650401,
            26.5124154
          ],
          [
            33.3569116,
            26.5253456
          ],
          [
            33.353299,
            26.5253456
          ],
          [
            33.3460737,
            26.5245375
          ],
          [
            33.3243978,
            26.529386
          ],
          [
            33.2900777,
            26.5269617
          ],
          [
            33.2458228,
            26.5132236
          ],
          [
            33.20789,
            26.5116072
          ],
          [
            33.1699572,
            26.5253456
          ],
          [
            33.1377793,
            26.5283499
          ],
          [
            33.1088782,
            26.5550131
          ],
          [
            33.0691391,
            26.5881316
          ],
          [
            32.9445028,
            26.7027602
          ],
          [
            32.9273428,
            26.721316
          ],
          [
            32.90657,
            26.7269628
          ],
          [
            32.855993,
            26.721316
          ],
          [
            32.8090286,
            26.7011465
          ],
          [
            32.7846433,
            26.6954985
          ],
          [
            32.74057,
            26.6869724
          ],
          [
            32.5789042,
            26.4971815
          ],
          [
            32.2798407,
            26.1429494
          ],
          [
            32.2780532,
            26.1409898
          ],
          [
            32.2577587,
            26.1523759
          ],
          [
            32.2154785,
            26.1110012
          ],
          [
            32.174515,
            26.133641
          ],
          [
            32.1567573,
            26.1400937
          ],
          [
            32.1516837,
            26.1416119
          ],
          [
            32.1466101,
            26.1476846
          ],
          [
            32.1467305,
            26.1676373
          ],
          [
            32.137006,
            26.1869886
          ],
          [
            32.1226308,
            26.2025431
          ],
          [
            32.1171343,
            26.2063366
          ],
          [
            32.1091011,
            26.206716
          ],
          [
            32.0845786,
            26.2014051
          ],
          [
            32.0740086,
            26.1957146
          ],
          [
            32.0663981,
            26.1885062
          ],
          [
            32.0554053,
            26.1820562
          ],
          [
            32.0477948,
            26.1771236
          ],
          [
            32.0380704,
            26.1752264
          ],
          [
            32.0283459,
            26.1740881
          ],
          [
            32.0224267,
            26.1782619
          ],
          [
            32.019517,
            26.1786538
          ],
          [
            32.018104,
            26.1802072
          ],
          [
            32.0176094,
            26.1810631
          ],
          [
            32.0174328,
            26.1825848
          ],
          [
            32.016479,
            26.1835992
          ],
          [
            32.0155959,
            26.1833456
          ],
          [
            32.0154899,
            26.1833773
          ]
        ]
      }
    }
  ]
}