{
  "type": "FeatureCollection",
  "features": [
    {
      "geometry": {
        "type": "MultiPolygon",
        "coordinates": [
          [
            32.6644534,
            29.1128532
          ],
          [
            32.6293465,
            29.1085657
          ],
          [
            32.5992226,
            29.118469
          ],
          [
            32.5520148,
            29.1223438
          ],
          [
            32.4993564,
            29.1066976
          ],
          [
            32.4753089,
            29.0865604
          ],
          [
            32.46068,
            29.0823573
          ],
          [
            32.4246087,
            29.0564348
          ],
          [
            32.4051703,
            29.053632
          ],
          [
            32.3885375,
            29.0552086
          ],
          [
            32.3621138,
            29.0527768
          ],
          [
            32.3473605,
            29.0441928
          ],
          [
            32.2940145,
            29.025314
          ],
          [
            32.2713027,
            29.024583
          ],
          [
            32.2388935,
            29.0121995
          ],
          [
            32.2359903,
            29.0090259
          ],
          [
            32.2045996,
            28.9977586
          ],
          [
            32.2007892,
            28.9929974
          ],
          [
            32.1938117,
            28.9890224
          ],
          [
            32.1858279,
            28.9872765
          ],
          [
            32.1745781,
            28.985848
          ],
          [
            32.1127039,
            28.9606083
          ],
          [
            32.1071339,
            28.9605494
          ],
          [
            32.0895333,
            28.9675346
          ],
          [
            32.0183047,
            28.9717942
          ],
          [
            31.9507812,
            28.9696333
          ],
          [
            31.8857605,
            28.946584
          ],
          [
            31.8762164,
            28.9487947
          ],
          [
            31.8108742,
            28.8781587
          ],
          [
            31.7970477,
            28.8594206
          ],
          [
            31.7914385,
            28.8469153
          ],
          [
            31.7891439,
            28.833515
          ],
          [
            31.7853195,
            28.8230169
          ],
          [
            31.7835347,
            28.8140816
          ],
          [
            31.7769058,
            28.804922
          ]
        ]
      }
    },
    {
      "type": "Feature",
      "properties": {},
      "geometry": {
        "type": "LineString",
        "coordinates": [
          [
            31.7779147,
            28.8063916
          ],
          [
            31.7539484,
            28.7773442
          ],
          [
            31.7470645,
            28.7686285
          ],
          [
            31.7419652,
            28.7581238
          ],
          [
            31.7412004,
            28.7527594
          ],
          [
            31.737121,
            28.7431473
          ],
          [
            31.7276874,
            28.732193
          ],
          [
            31.7213763,
            28.7279082
          ],
          [
            31.7336144,
            28.7017462
          ],
          [
            31.7382037,
            28.6813935
          ],
          [
            31.7453426,
            28.6686431
          ],
          [
            31.7532897,
            28.6600962
          ],
          [
            31.7611935,
            28.6493569
          ],
          [
            31.7701172,
            28.6334697
          ],
          [
            31.7821003,
            28.6164611
          ],
          [
            31.7849101,
            28.6001189
          ],
          [
            31.7933238,
            28.578627
          ],
          [
            31.8035223,
            28.5548913
          ],
          [
            31.8063269,
            28.5468289
          ],
          [
            31.8060719,
            28.536974
          ],
          [
            31.8111713,
            28.5266701
          ],
          [
            31.8170354,
            28.5215178
          ],
          [
            31.8172873,
            28.5079233
          ],
          [
            31.8139684,
            28.4975824
          ],
          [
            31.8148736,
            28.4897598
          ],
          [
            31.8159296,
            28.4876383
          ],
          [
            31.8136668,
            28.4822019
          ],
          [
            31.8121582,
            28.4810085
          ],
          [
            31.8050603,
            28.4453027
          ],
          [
            31.8044569,
            28.4411906
          ],
          [
            31.8062672,
            28.4394661
          ],
          [
            31.8076249,
            28.4354864
          ],
          [
            31.8092844,
            28.4346904
          ],
          [
            31.8138102,
            28.4305778
          ],
          [
            31.8144136,
            28.4291185
          ],
          [
            31.8012888,
            28.4254037
          ],
          [
            31.7966121,
            28.4223522
          ],
          [
            31.7940475,
            28.4170451
          ],
          [
            31.7923882,
            28.4159055
          ],
          [
            31.7920865,
            28.4100672
          ],
          [
            31.7975175,
            28.404494
          ],
          [
            31.796914,
            28.3977261
          ],
          [
            31.7981209,
            28.3924177
          ],
          [
            31.8104991,
            28.3884271
          ],
          [
            31.8156855,
            28.3806322
          ],
          [
            31.8245456,
            28.3735973
          ],
          [
            31.8249778,
            28.3730269
          ],
          [
            31.829732,
            28.3623784
          ],
          [
            31.8312447,
            28.358385
          ],
          [
            31.8366472,
            28.3488762
          ],
          [
            31.8401048,
            28.3458332
          ],
          [
            31.8459395,
            28.3439313
          ],
          [
            31.84702,
            28.3426
          ],
          [
            31.8501513,
            28.3371917
          ],
          [
            31.8535768,
            28.3218644
          ],
          [
            31.8581441,
            28.3168386
          ],
          [
            31.8664223,
            28.3120639
          ],
          [
            31.8709896,
            28.3090481
          ],
          [
            31.8761278,
            28.3055296
          ],
          [
            31.8784114,
            28.302765
          ],
          [
            31.8781986,
            28.2971993
          ],
          [
            31.9388388,
            28.3062749
          ],
          [
            32.159504,
            28.3392292
          ],
          [
            32.1612015,
            28.3245864
          ],
          [
            32.2447186,
            28.2979851
          ],
          [
            32.3500545,
            28.2295201
          ],
          [
            32.3661643,
            28.2011289
          ],
          [
            32.393014,
            28.1916635
          ],
          [
            32.4138226,
            28.1792389
          ],
          [
            32.4198638,
            28.1703632
          ],
          [
            32.492358,
            28.1472832
          ],
          [
            32.486988,
            28.1307098
          ],
          [
            32.4990704,
            28.0981475
          ],
          [
            32.5117523,
            28.0379873
          ],
          [
            32.5388034,
            27.9963882
          ],
          [
            32.5421596,
            27.9726779
          ],
          [
            32.5441734,
            27.9548917
          ],
          [
            32.5408172,
            27.9293932
          ],
          [
            32.556927,
            27.9068545
          ],
          [
            32.5535708,
            27.8872777
          ],
          [
            32.5857904,
            27.8493004
          ],
          [
            32.5962098,
            27.804698
          ],
          [
            32.6360007,
            27.7559848
          ],
          [
            32.6464054,
            27.7151845
          ],
          [
            32.6598212,
            27.6963442
          ],
          [
            32.6807412,
            27.6273527
          ],
          [
            32.6706192,
            27.6223985
          ],
          [
            32.6908973,
            27.5650197
          ],
          [
            32.6918225,
            27.5391805
          ],
          [
            32.681976,
            27.4886579
          ],
          [
            32.6778984,
            27.4285115
          ],
          [
            32.6751228,
            27.4233788
          ],
          [
            32.6499105,
            27.4012028
          ],
          [
            32.6432026,
            27.3903184
          ],
          [
            32.6383452,
            27.3802546
          ],
          [
            32.6374199,
            27.3695451
          ],
          [
            32.6353382,
            27.3584522
          ],
          [
            32.6211404,
            27.2982893
          ],
          [
            32.6197876,
            27.2679327
          ],
          [
            32.6251985,
            27.24298
          ],
          [
            32.6359131,
            27.2139844
          ],
          [
            32.6457204,
            27.1866131
          ],
          [
            32.6572185,
            27.1625449
          ],
          [
            32.6666876,
            27.1399762
          ],
          [
            32.6741276,
            27.120714
          ],
          [
            32.6764949,
            27.1023516
          ],
          [
            32.6797298,
            27.0836455
          ],
          [
            32.6956243,
            27.0583504
          ],
          [
            32.7101661,
            27.0381705
          ],
          [
            32.7255151,
            27.0192457
          ],
          [
            32.7453783,
            26.9925269
          ],
          [
            32.7514656,
            26.9789656
          ],
          [
            32.7542049,
            26.9686578
          ],
          [
            32.7629976,
            26.940322
          ],
          [
            32.7663795,
            26.9219301
          ],
          [
            32.7690849,
            26.9014241
          ],
          [
            32.7700884,
            26.8628047
          ],
          [
            32.7711029,
            26.8483227
          ],
          [
            32.7809102,
            26.8290104
          ],
          [
            32.7826011,
            26.8181459
          ],
          [
            32.7771902,
            26.8057711
          ],
          [
            32.7734702,
            26.8012433
          ],
          [
            32.7534565,
            26.6965908
          ],
          [
            32.7534565,
            26.6881308
          ],
          [
            32.7761147,
            26.6896416
          ],
          [
            32.8187488,
            26.7027306
          ],
          [
            32.8318208,
            26.7071956
          ],
          [
            32.8383567,
            26.7082259
          ],
          [
            32.8487374,
            26.7144078
          ],
          [
            32.8729589,
            26.72368
          ],
          [
            32.9014096,
            26.7267706
          ],
          [
            32.9290913,
            26.7181855
          ],
          [
            32.9536973,
            26.6955176
          ],
          [
            32.9640779,
            26.6838385
          ],
          [
            32.9925286,
            26.6491375
          ],
          [
            33.0082918,
            26.6371099
          ],
          [
            33.0175191,
            26.6250811
          ],
          [
            33.0325133,
            26.6092698
          ],
          [
            33.0709602,
            26.5817668
          ],
          [
            33.1086381,
            26.5539133
          ],
          [
            33.1522422,
            26.5251669
          ],
          [
            33.227598,
            26.5076216
          ],
          [
            33.2833459,
            26.5217268
          ],
          [
            33.3158063,
            26.5310148
          ],
          [
            33.350024,
            26.5182868
          ],
          [
            33.3607891,
            26.5220709
          ],
          [
            33.3661717,
            26.5103741
          ],
          [
            33.3738611,
            26.5089979
          ],
          [
            33.3723232,
            26.5021168
          ],
          [
            33.3823194,
            26.4962674
          ],
          [
            33.3850107,
            26.4880091
          ],
          [
            33.3892398,
            26.484568
          ],
          [
            33.3930845,
            26.4797502
          ],
          [
            33.3961603,
            26.468049
          ],
          [
            33.3969292,
            26.4649514
          ],
          [
            33.4019273,
            26.4632305
          ],
          [
            33.4069254,
            26.4601328
          ],
          [
            33.4111545,
            26.4532487
          ],
          [
            33.4130769,
            26.4525603
          ],
          [
            33.4169216,
            26.4498066
          ],
          [
            33.4296091,
            26.442922
          ],
          [
            33.4411431,
            26.4253641
          ],
          [
            33.4461412,
            26.4167564
          ],
          [
            33.442681,
            26.4064254
          ],
          [
            33.4496015,
            26.3981606
          ],
          [
            33.4534462,
            26.3919616
          ],
          [
            33.4888173,
            26.3592393
          ],
          [
            33.4888152,
            26.3527812
          ],
          [
            33.4934289,
            26.3476134
          ],
          [
            33.4907376,
            26.3421008
          ],
          [
            33.4915065,
            26.3352097
          ],
          [
            33.4968891,
            26.3303856
          ],
          [
            33.5011182,
            26.3262506
          ],
          [
            33.4980425,
            26.3166016
          ],
          [
            33.4922755,
            26.3124661
          ],
          [
            33.4899686,
            26.3069518
          ],
          [
            33.4926599,
            26.3059178
          ],
          [
            33.4930444,
            26.3021266
          ],
          [
            33.4965046,
            26.2966118
          ],
          [
            33.4991959,
            26.2921309
          ],
          [
            33.5011182,
            26.2842026
          ],
          [
            33.5018872,
            26.2821343
          ],
          [
            33.5107101,
            26.2731358
          ],
          [
            33.5137859,
            26.2638272
          ],
          [
            33.5095567,
            26.2572762
          ],
          [
            33.5026363,
            26.2545178
          ],
          [
            33.5026782,
            26.2499601
          ],
          [
            33.4972956,
            26.2468566
          ],
          [
            33.4946043,
            26.2385805
          ],
          [
            33.498449,
            26.2323729
          ],
          [
            33.498449,
            26.2189222
          ],
          [
            33.5026782,
            26.2089193
          ],
          [
            33.5088297,
            26.20409
          ],
          [
            33.5153656,
            26.2013303
          ],
          [
            33.5226705,
            26.1930509
          ],
          [
            33.5284376,
            26.1809757
          ],
          [
            33.5326667,
            26.1782155
          ],
          [
            33.5334356,
            26.1730399
          ],
          [
            33.5380493,
            26.1640683
          ],
          [
            33.5495938,
            26.1388705
          ],
          [
            33.5615124,
            26.1191953
          ],
          [
            33.5688173,
            26.112291
          ],
          [
            33.5722775,
            26.083979
          ],
          [
            33.584196,
            26.0649853
          ],
          [
            33.5991903,
            26.0518607
          ],
          [
            33.6007282,
            26.0401163
          ],
          [
            33.5849649,
            26.0304436
          ],
          [
            33.5895786,
            26.0107502
          ],
          [
            33.5807684,
            26.0030307
          ],
          [
            33.5807684,
            25.9971562
          ],
          [
            33.5738479,
            25.9964651
          ],
          [
            33.5707722,
            25.9902447
          ],
          [
            33.5646207,
            25.9808006
          ],
          [
            33.5534711,
            25.9780356
          ],
          [
            33.5530867,
            25.9687034
          ],
          [
            33.5269428,
            25.9766531
          ],
          [
            33.4592763,
            25.9393195
          ],
          [
            33.3773954,
            25.9450916
          ],
          [
            33.3504826,
            25.9343738
          ],
          [
            33.2920437,
            25.9219256
          ],
          [
            33.2084603,
            25.9213032
          ],
          [
            33.1637791,
            25.9037849
          ],
          [
            33.1271176,
            25.8893561
          ],
          [
            33.1752358,
            25.8522454
          ],
          [
            33.1786728,
            25.7821157
          ],
          [
            33.1786729,
            25.7439394
          ],
          [
            33.1960424,
            25.7027431
          ],
          [
            33.2130995,
            25.6090925
          ],
          [
            33.2844294,
            25.5503487
          ],
          [
            33.3728163,
            25.4411767
          ],
          [
            33.3867722,
            25.4173696
          ],
          [
            33.4224371,
            25.3599332
          ],
          [
            33.4713472,
            25.3117259
          ],
          [
            33.4728979,
            24.7145135
          ],
          [
            33.494607,
            24.2673634
          ],
          [
            33.5144398,
            22.0113554
          ],
          [
            34.0851184,
            21.9798589
          ],
          [
            34.1394687,
            22.2001868
          ],
          [
            34.7033535,
            22.2945076
          ],
          [
            34.9683115,
            22.8528281
          ],
          [
            35.2196818,
            22.783945
          ],
          [
            35.7903604,
            23.3090738
          ],
          [
            36.6268337,
            23.8378679
          ],
          [
            33.9957243,
            27.6903589
          ],
          [
            33.7582467,
            27.8916172
          ],
          [
            33.1440026,
            28.4268649
          ],
          [
            32.8818151,
            28.926301
          ],
          [
            32.7720565,
            29.0380259
          ],
          [
            32.6678048,
            29.1133306
          ],
          [
            32.6644451,
            29.112863
          ]
        ]

    }, 
      "type": "Feature", 
      "properties": {
        "source": "https://simplemaps.com", 
        "id": "EG", 
        "name": "Egypt"
      }, 
      "id": 1
      
    }
  ]
}