{
  "type": "FeatureCollection",
  "features": [
    {
      "geometry": {
        "type": "MultiPolygon",
        "coordinates": [
          [
            [
          [
            32.6313863,
            29.85143
          ],
          [
            32.625506,
            29.8373558
          ],
          [
            32.6091534,
            29.8215661
          ],
          [
            32.6096397,
            29.8202619
          ],
          [
            32.6109219,
            29.8194563
          ],
          [
            32.6132651,
            29.818459
          ],
          [
            32.6203392,
            29.8178453
          ],
          [
            32.6523034,
            29.7741661
          ],
          [
            32.6665309,
            29.7591048
          ],
          [
            32.696721,
            29.7178253
          ],
          [
            32.6887397,
            29.6940141
          ],
          [
            32.6798069,
            29.6583288
          ],
          [
            32.6801539,
            29.599811
          ],
          [
            32.7200601,
            29.5083435
          ],
          [
            32.7113848,
            29.450343
          ],
          [
            32.7308363,
            29.423873
          ],
          [
            32.8012798,
            29.3960622
          ],
          [
            32.7843044,
            29.3203875
          ],
          [
            32.9268446,
            29.1787482
          ],
          [
            32.9952487,
            29.1333342
          ],
          [
            33.0663481,
            29.0559289
          ],
          [
            33.1442901,
            28.9791871
          ],
          [
            33.1582768,
            28.8312352
          ],
          [
            33.1846415,
            28.7542907
          ],
          [
            33.1811448,
            28.6428508
          ],
          [
            33.2312641,
            28.5405082
          ],
          [
            33.5644653,
            28.1551106
          ],
          [
            33.7375786,
            27.9485183
          ],
          [
            33.6449464,
            28.0136111
          ],
          [
            33.8851575,
            27.9075254
          ],
          [
            34.0135462,
            27.7536996
          ],
          [
            34.2951729,
            27.6913748
          ],
          [
            34.448411,
            27.7646944
          ],
          [
            34.4566942,
            27.9280018
          ],
          [
            34.4981099,
            28.0998486
          ],
          [
            34.5560919,
            28.3078898
          ],
          [
            34.6389233,
            28.4973276
          ],
          [
            34.7258963,
            28.7409102
          ],
          [
            34.7631704,
            29.0056612
          ],
          [
            34.9004267,
            29.4519558
          ],
          [
            34.9077469,
            29.4959498
          ],
          [
            34.9005896,
            29.508107
          ],
          [
            34.8973572,
            29.5108196
          ],
          [
            34.8971264,
            29.5153404
          ],
          [
            34.894933,
            29.518555
          ],
          [
            34.8901999,
            29.522071
          ],
          [
            34.8892763,
            29.5278971
          ],
          [
            34.8881219,
            29.5321033
          ],
          [
            34.8859285,
            29.5347148
          ],
          [
            34.8860554,
            29.535683
          ],
          [
            34.8807336,
            29.5364223
          ],
          [
            34.877963,
            29.5311993
          ],
          [
            34.8749616,
            29.5344135
          ],
          [
            34.8716138,
            29.5364223
          ],
          [
            34.8693049,
            29.5369245
          ],
          [
            34.8636483,
            29.5406406
          ],
          [
            34.8600696,
            29.5440554
          ],
          [
            34.857299,
            29.5444571
          ],
          [
            34.8552211,
            29.5438545
          ],
          [
            34.8527968,
            29.5454614
          ],
          [
            34.850488,
            29.546064
          ],
          [
            34.8470247,
            29.5437541
          ],
          [
            34.8456394,
            29.5408415
          ],
          [
            34.8425225,
            29.5388328
          ],
          [
            34.8396365,
            29.5382302
          ],
          [
            34.8387511,
            29.5386048
          ],
          [
            34.8366321,
            29.5398886
          ],
          [
            34.8328112,
            29.537019
          ],
          [
            34.8286947,
            29.5308495
          ],
          [
            34.8220716,
            29.5254585
          ],
          [
            34.8209499,
            29.5237389
          ],
          [
            34.8192408,
            29.5190911
          ],
          [
            34.8191339,
            29.5178827
          ],
          [
            34.8165168,
            29.5137924
          ],
          [
            34.8135791,
            29.5141643
          ],
          [
            34.8107483,
            29.517139
          ],
          [
            34.8035377,
            29.5217868
          ],
          [
            34.8020422,
            29.5242966
          ],
          [
            34.8025763,
            29.5264809
          ],
          [
            34.7940916,
            29.5265667
          ],
          [
            34.6968949,
            29.5140205
          ],
          [
            34.6580071,
            29.5161254
          ],
          [
            34.6207194,
            29.5273735
          ],
          [
            34.6319057,
            29.5360251
          ],
          [
            34.6361316,
            29.5435946
          ],
          [
            34.637126,
            29.5496498
          ],
          [
            34.6353859,
            29.5520286
          ],
          [
            34.6326514,
            29.5531098
          ],
          [
            34.6256911,
            29.5535423
          ],
          [
            34.6150019,
            29.5544073
          ],
          [
            34.6082901,
            29.5563534
          ],
          [
            34.5941208,
            29.5559209
          ],
          [
            34.5901434,
            29.5537585
          ],
          [
            34.5859175,
            29.5477036
          ],
          [
            34.5851717,
            29.5429458
          ],
          [
            34.5826859,
            29.5377553
          ],
          [
            34.5767198,
            29.5362414
          ],
          [
            34.572564,
            29.5392707
          ],
          [
            34.5651064,
            29.542731
          ],
          [
            34.5621234,
            29.5403521
          ],
          [
            34.5626206,
            29.5368917
          ],
          [
            34.5621234,
            29.5338637
          ],
          [
            34.558146,
            29.5368917
          ],
          [
            34.5566545,
            29.5420822
          ],
          [
            34.5566545,
            29.5457587
          ],
          [
            34.5499427,
            29.54684
          ],
          [
            34.5454682,
            29.547705
          ],
          [
            34.5412423,
            29.5483538
          ],
          [
            34.5375135,
            29.54857
          ],
          [
            34.5335361,
            29.547705
          ],
          [
            34.5260786,
            29.5470562
          ],
          [
            34.5233442,
            29.54684
          ],
          [
            34.5183725,
            29.5461912
          ],
          [
            34.5148923,
            29.54684
          ],
          [
            34.509672,
            29.5472725
          ],
          [
            34.5049489,
            29.5479213
          ],
          [
            34.496497,
            29.55376
          ],
          [
            34.4925196,
            29.5552737
          ],
          [
            34.4808362,
            29.5604633
          ],
          [
            34.4746215,
            29.5626255
          ],
          [
            34.466753,
            29.5663908
          ],
          [
            34.4602898,
            29.56358
          ],
          [
            34.4359285,
            29.558823
          ],
          [
            34.4205162,
            29.5605529
          ],
          [
            34.4113186,
            29.565526
          ],
          [
            34.4023695,
            29.5659584
          ],
          [
            34.3956578,
            29.5601204
          ],
          [
            34.3899403,
            29.5599042
          ],
          [
            34.3891945,
            29.5657422
          ],
          [
            34.387703,
            29.5692016
          ],
          [
            34.3829799,
            29.5692016
          ],
          [
            34.3780082,
            29.5752553
          ],
          [
            34.3654416,
            29.5840352
          ],
          [
            34.3510237,
            29.5881425
          ],
          [
            34.3445605,
            29.5965727
          ],
          [
            34.3495321,
            29.608028
          ],
          [
            34.3405831,
            29.6075958
          ],
          [
            34.3301425,
            29.6132149
          ],
          [
            34.3199505,
            29.6121343
          ],
          [
            34.3102557,
            29.6136471
          ],
          [
            34.2983249,
            29.6163444
          ],
          [
            34.2698497,
            29.6287212
          ],
          [
            34.2552166,
            29.637659
          ],
          [
            34.2500753,
            29.6435025
          ],
          [
            34.2445384,
            29.6452211
          ],
          [
            34.2393971,
            29.6448774
          ],
          [
            34.2338602,
            29.6517516
          ],
          [
            34.2109219,
            29.6514079
          ],
          [
            34.207758,
            29.6551886
          ],
          [
            34.2073625,
            29.6630931
          ],
          [
            34.1982662,
            29.6709969
          ],
          [
            34.1939159,
            29.6709969
          ],
          [
            34.1927294,
            29.6665296
          ],
          [
            34.1939159,
            29.6606874
          ],
          [
            34.190752,
            29.6572507
          ],
          [
            34.1773053,
            29.6634367
          ],
          [
            34.1348265,
            29.6773924
          ],
          [
            34.0458656,
            29.7100678
          ],
          [
            34.0340059,
            29.7090022
          ],
          [
            34.0266448,
            29.7171714
          ],
          [
            33.8480799,
            29.8145697
          ],
          [
            33.8265637,
            29.8224416
          ],
          [
            33.8203421,
            29.8224416
          ],
          [
            33.8148982,
            29.8271644
          ],
          [
            33.7966897,
            29.8401074
          ],
          [
            33.7766864,
            29.8404887
          ],
          [
            33.7622128,
            29.8436122
          ],
          [
            33.7383349,
            29.8512592
          ],
          [
            33.718498,
            29.8461613
          ],
          [
            33.711151,
            29.848073
          ],
          [
            33.703804,
            29.8563568
          ],
          [
            33.6953549,
            29.8582684
          ],
          [
            33.6906678,
            29.8575875
          ],
          [
            33.6833352,
            29.8574779
          ],
          [
            33.6778358,
            29.8585195
          ],
          [
            33.669891,
            29.8637524
          ],
          [
            33.6656558,
            29.8633687
          ],
          [
            33.6590186,
            29.8619982
          ],
          [
            33.6542798,
            29.8622175
          ],
          [
            33.6501078,
            29.863259
          ],
          [
            33.6449876,
            29.8628753
          ],
          [
            33.6417006,
            29.8629849
          ],
          [
            33.6342119,
            29.8655289
          ],
          [
            33.6326949,
            29.8664607
          ],
          [
            33.6268794,
            29.8684341
          ],
          [
            33.6212014,
            29.8751056
          ],
          [
            33.604513,
            29.8800285
          ],
          [
            33.5983194,
            29.8788351
          ],
          [
            33.5458457,
            29.8906193
          ],
          [
            33.5118971,
            29.8990486
          ],
          [
            33.2426821,
            29.9178367
          ],
          [
            33.2159386,
            29.9105928
          ],
          [
            33.2008954,
            29.9091439
          ],
          [
            33.1875237,
            29.9154221
          ],
          [
            33.1769377,
            29.9144563
          ],
          [
            33.1646803,
            29.9120416
          ],
          [
            33.1574373,
            29.9047973
          ],
          [
            33.145737,
            29.9043143
          ],
          [
            33.1295794,
            29.9231486
          ],
          [
            33.1158473,
            29.9255233
          ],
          [
            33.1013612,
            29.9293862
          ],
          [
            33.104147,
            29.9255233
          ],
          [
            33.0930039,
            29.9289033
          ],
          [
            33.0423027,
            29.9327659
          ],
          [
            33.0060875,
            29.9342145
          ],
          [
            32.9520434,
            29.9371114
          ],
          [
            32.9252999,
            29.9400083
          ],
          [
            32.9024565,
            29.9409739
          ],
          [
            32.8734844,
            29.9433878
          ],
          [
            32.850641,
            29.9462845
          ],
          [
            32.8467409,
            29.942905
          ],
          [
            32.8447774,
            29.9402332
          ],
          [
            32.8427189,
            29.9381251
          ],
          [
            32.8404733,
            29.9360981
          ],
          [
            32.8395377,
            29.9329357
          ],
          [
            32.834485,
            29.9300166
          ],
          [
            32.8134,
            29.9171376
          ],
          [
            32.8076924,
            29.9144613
          ],
          [
            32.8053532,
            29.9111361
          ],
          [
            32.8056339,
            29.9076486
          ],
          [
            32.804088,
            29.9035903
          ],
          [
            32.7906143,
            29.8979936
          ],
          [
            32.7828482,
            29.8971013
          ],
          [
            32.7731172,
            29.8945056
          ],
          [
            32.7671176,
            29.8893413
          ],
          [
            32.7598194,
            29.8809854
          ],
          [
            32.7554217,
            29.8814722
          ],
          [
            32.7494334,
            29.882608
          ],
          [
            32.7400767,
            29.8814722
          ],
          [
            32.7310402,
            29.8776634
          ],
          [
            32.6921725,
            29.8555201
          ],
          [
            32.6548393,
            29.8487845
          ],
          [
            32.6313862,
            29.8514299
          ]
        ]
      ]
    ]
    }, 
      "type": "Feature", 
      "properties": {
        "source": "https://simplemaps.com", 
        "id": "EG", 
        "name": "Egypt"
      }, 
      "id": 1
    }
  ]
}