{
  "type": "Feature",
  "properties": {},
  "geometry": {
    "type": "LineString",
    "coordinates": [
      [
        31.8686968,
        28.9518161
      ],
      [
        31.8540989,
        28.9703942
      ],
      [
        31.8421551,
        28.9738772
      ],
      [
        31.8328655,
        28.9947729
      ],
      [
        31.9005469,
        29.7963072
      ],
      [
        31.9045282,
        29.8676836
      ],
      [
        31.8978927,
        30.0481986
      ],
      [
        31.840828,
        30.2708016
      ],
      [
        32.3491023,
        30.2501688
      ],
      [
        32.3676815,
        30.2398508
      ],
      [
        32.3716627,
        30.2272385
      ],
      [
        32.406167,
        30.2375578
      ],
      [
        32.4128024,
        30.2341182
      ],
      [
        32.4287275,
        30.2364113
      ],
      [
        32.4565963,
        30.2719477
      ],
      [
        32.5226603,
        30.2570469
      ],
      [
        32.5717625,
        30.1962741
      ],
      [
        32.6049397,
        30.1951271
      ],
      [
        32.6062668,
        30.202009
      ],
      [
        32.6646586,
        30.2134777
      ],
      [
        32.7031441,
        30.2031559
      ],
      [
        32.7177421,
        30.2031559
      ],
      [
        32.7376484,
        30.2169181
      ],
      [
        32.7562276,
        30.2203584
      ],
      [
        32.7801151,
        30.2180649
      ],
      [
        32.7920589,
        30.2054497
      ],
      [
        32.8132923,
        30.1974211
      ],
      [
        32.8265632,
        30.1974211
      ],
      [
        32.8331986,
        30.1641525
      ],
      [
        32.8225819,
        30.1366114
      ],
      [
        32.8278903,
        30.1136547
      ],
      [
        32.8225819,
        30.088396
      ],
      [
        32.8424882,
        30.032115
      ],
      [
        32.8531049,
        30.0056864
      ],
      [
        32.8531049,
        29.9907453
      ],
      [
        32.8531049,
        29.9643056
      ],
      [
        32.8438153,
        29.9574072
      ],
      [
        32.8438153,
        29.9482085
      ],
      [
        32.838507,
        29.9355589
      ],
      [
        32.8066569,
        29.9171566
      ],
      [
        32.8066569,
        29.904503
      ],
      [
        32.7761339,
        29.89645
      ],
      [
        32.7641901,
        29.8872456
      ],
      [
        32.7482651,
        29.8837938
      ],
      [
        32.7376484,
        29.8837938
      ],
      [
        32.7084525,
        29.8688344
      ],
      [
        32.6912003,
        29.8527218
      ],
      [
        32.640771,
        29.8492688
      ],
      [
        32.6354627,
        29.8685656
      ],
      [
        32.6115751,
        29.8927297
      ],
      [
        32.5850334,
        29.9111365
      ],
      [
        32.5638,
        29.9295399
      ],
      [
        32.5550364,
        29.9536891
      ],
      [
        32.5072613,
        29.94564
      ],
      [
        32.4860279,
        29.9272395
      ],
      [
        32.4740841,
        29.9122867
      ],
      [
        32.4780654,
        29.8881274
      ],
      [
        32.4966446,
        29.8812236
      ],
      [
        32.5152238,
        29.8708671
      ],
      [
        32.5152238,
        29.8501508
      ],
      [
        32.5046071,
        29.8259765
      ],
      [
        32.4740841,
        29.7914315
      ],
      [
        32.442234,
        29.752266
      ],
      [
        32.411711,
        29.7130853
      ],
      [
        32.3904777,
        29.6704301
      ],
      [
        32.3878235,
        29.6427522
      ],
      [
        32.3732255,
        29.6139129
      ],
      [
        32.3864964,
        29.5839113
      ],
      [
        32.3775188,
        29.5517132
      ],
      [
        32.4147116,
        29.5204696
      ],
      [
        32.4557519,
        29.4858673
      ],
      [
        32.4955098,
        29.4590702
      ],
      [
        32.528855,
        29.4244469
      ],
      [
        32.5814379,
        29.3808718
      ],
      [
        32.6096531,
        29.3316877
      ],
      [
        32.6365859,
        29.2567481
      ],
      [
        32.6353033,
        29.2221888
      ],
      [
        32.6468459,
        29.1908439
      ],
      [
        32.6622361,
        29.1583695
      ],
      [
        32.6737786,
        29.1180421
      ],
      [
        32.6378684,
        29.1090783
      ],
      [
        32.596828,
        29.1214033
      ],
      [
        32.5583527,
        29.1214033
      ],
      [
        32.5083349,
        29.1090783
      ],
      [
        32.4749896,
        29.0866654
      ],
      [
        32.4544694,
        29.0833031
      ],
      [
        32.4236892,
        29.0552792
      ],
      [
        32.395474,
        29.0541581
      ],
      [
        32.3595637,
        29.0541581
      ],
      [
        32.3018507,
        29.0294905
      ],
      [
        32.2762005,
        29.0227619
      ],
      [
        32.20438,
        28.9980868
      ],
      [
        32.1992499,
        28.9891126
      ],
      [
        32.1133218,
        28.9610631
      ],
      [
        32.0915191,
        28.9700398
      ],
      [
        31.947878,
        28.9711618
      ],
      [
        31.8940125,
        28.9487189
      ],
      [
        31.8683623,
        28.9509634
      ]
    ]
  }
}