{
  "type": "FeatureCollection",
  "features": [
    {
      "geometry": {
        "type": "MultiPolygon",
        "coordinates": [
    [
 [
          [
            31.9359866,
            26.1197961
          ],
          [
            31.9704449,
            26.1432884
          ],
          [
            31.9696842,
            26.1441079
          ],
          [
            31.9770026,
            26.1511607
          ],
          [
            31.9798932,
            26.153414
          ],
          [
            31.9820991,
            26.1525946
          ],
          [
            31.9829359,
            26.1521166
          ],
          [
            31.9836205,
            26.1530043
          ],
          [
            31.9836205,
            26.1536871
          ],
          [
            31.9859025,
            26.1554623
          ],
          [
            31.9865871,
            26.1561451
          ],
          [
            31.9893255,
            26.1574423
          ],
          [
            31.9916075,
            26.1594906
          ],
          [
            31.9929767,
            26.1599003
          ],
          [
            31.993357,
            26.1616071
          ],
          [
            31.9956387,
            26.163423
          ],
          [
            31.9974643,
            26.1660174
          ],
          [
            31.9992899,
            26.1647885
          ],
          [
            32.0031655,
            26.1672592
          ],
          [
            32.0062082,
            26.1678736
          ],
          [
            32.0061321,
            26.1695804
          ],
          [
            32.0093269,
            26.1712188
          ],
          [
            32.0097073,
            26.1721746
          ],
          [
            32.0101637,
            26.1728573
          ],
          [
            32.0141191,
            26.1763388
          ],
          [
            32.0130542,
            26.1801617
          ],
          [
            32.0166293,
            26.1823461
          ],
          [
            32.0205088,
            26.1770215
          ],
          [
            32.0235514,
            26.1745639
          ],
          [
            32.0281154,
            26.1728573
          ],
          [
            32.0395716,
            26.1730076
          ],
          [
            32.045733,
            26.1741682
          ],
          [
            32.0626959,
            26.1850221
          ],
          [
            32.0722803,
            26.19294
          ],
          [
            32.0797479,
            26.1978427
          ],
          [
            32.0936682,
            26.2041218
          ],
          [
            32.103709,
            26.206374
          ],
          [
            32.1097943,
            26.2065105
          ],
          [
            32.1209761,
            26.2035076
          ],
          [
            32.1250077,
            26.2016648
          ],
          [
            32.131297,
            26.1940539
          ],
          [
            32.1328944,
            26.1924841
          ],
          [
            32.1338072,
            26.1898903
          ],
          [
            32.1375934,
            26.1837144
          ],
          [
            32.1396472,
            26.1805744
          ],
          [
            32.1409403,
            26.1782534
          ],
          [
            32.1465693,
            26.1649454
          ],
          [
            32.1477864,
            26.1600979
          ],
          [
            32.1459697,
            26.1470006
          ],
          [
            32.1471107,
            26.1423573
          ],
          [
            32.1502295,
            26.140377
          ],
          [
            32.1574558,
            26.1379187
          ],
          [
            32.1815012,
            26.1294132
          ],
          [
            32.1911543,
            26.1251151
          ],
          [
            32.2149041,
            26.1098041
          ],
          [
            32.2354915,
            26.1304668
          ],
          [
            32.2570117,
            26.1519134
          ],
          [
            32.2785196,
            26.1397137
          ],
          [
            32.2936132,
            26.1579213
          ],
          [
            32.3271088,
            26.1976242
          ],
          [
            32.3748939,
            26.2542944
          ],
          [
            32.4280398,
            26.3172858
          ],
          [
            32.7379077,
            26.6852544
          ],
          [
            32.7538544,
            26.6878297
          ],
          [
            32.753352,
            26.6878631
          ],
          [
            32.7583214,
            26.715788
          ],
          [
            32.7723617,
            26.8065167
          ],
          [
            32.7810636,
            26.8204016
          ],
          [
            32.7802442,
            26.8248543
          ],
          [
            32.7820643,
            26.8276122
          ],
          [
            32.7705785,
            26.8490617
          ],
          [
            32.7662028,
            26.91692
          ],
          [
            32.7578107,
            26.9532765
          ],
          [
            32.7516205,
            26.9780414
          ],
          [
            32.7388078,
            27.0038987
          ],
          [
            32.7320265,
            27.0120563
          ],
          [
            32.7140105,
            27.0274964
          ],
          [
            32.6869324,
            27.0698527
          ],
          [
            32.6798724,
            27.0817967
          ],
          [
            32.6657523,
            27.1424397
          ],
          [
            32.6491612,
            27.1823268
          ],
          [
            32.6266807,
            27.2356299
          ],
          [
            32.6210327,
            27.2651293
          ],
          [
            32.6203266,
            27.293327
          ],
          [
            32.6256216,
            27.3224974
          ],
          [
            32.6369223,
            27.3648073
          ],
          [
            32.4286555,
            27.149012
          ],
          [
            32.2465691,
            27.0071365
          ],
          [
            32.1499552,
            26.9504367
          ],
          [
            32.0384181,
            26.9672394
          ],
          [
            31.8962465,
            27.0155339
          ],
          [
            31.6598175,
            26.8986117
          ],
          [
            31.6315301,
            26.8565823
          ],
          [
            31.6040383,
            26.8383612
          ],
          [
            31.5576951,
            26.862889
          ],
          [
            31.5380582,
            26.8495745
          ],
          [
            31.542771,
            26.8285486
          ],
          [
            31.5412001,
            26.8215391
          ],
          [
            31.5412001,
            26.8103229
          ],
          [
            31.5419856,
            26.8019101
          ],
          [
            31.5317743,
            26.8047145
          ],
          [
            31.524705,
            26.8047145
          ],
          [
            31.5254905,
            26.8131271
          ],
          [
            31.524705,
            26.822941
          ],
          [
            31.5203005,
            26.8232344
          ],
          [
            31.5188783,
            26.8308496
          ],
          [
            31.5180655,
            26.8400959
          ],
          [
            31.5150178,
            26.8415462
          ],
          [
            31.5115637,
            26.846441
          ],
          [
            31.5052651,
            26.8591301
          ],
          [
            31.5030301,
            26.8647491
          ],
          [
            31.5003887,
            26.8685553
          ],
          [
            31.4936997,
            26.879224
          ],
          [
            31.4910583,
            26.8830298
          ],
          [
            31.4865883,
            26.8877416
          ],
          [
            31.4843533,
            26.8922719
          ],
          [
            31.4835406,
            26.8969832
          ],
          [
            31.4827279,
            26.9020568
          ],
          [
            31.481712,
            26.9082172
          ],
          [
            31.4647237,
            26.9214265
          ],
          [
            31.4797591,
            26.9112809
          ],
          [
            31.4612696,
            26.9257743
          ],
          [
            31.4541582,
            26.9341072
          ],
          [
            31.4467483,
            26.9420557
          ],
          [
            31.4466759,
            26.9419692
          ],
          [
            31.4466759,
            26.942012
          ],
          [
            31.4469642,
            26.9416479
          ],
          [
            31.4440334,
            26.9393993
          ],
          [
            31.4455228,
            26.9338738
          ],
          [
            31.4418713,
            26.9328458
          ],
          [
            31.4243107,
            26.9280054
          ],
          [
            31.4255182,
            26.926462
          ],
          [
            31.4247254,
            26.9258409
          ],
          [
            31.4204253,
            26.9238275
          ],
          [
            31.4205454,
            26.9233349
          ],
          [
            31.4155246,
            26.9215356
          ],
          [
            31.4305389,
            26.9064982
          ],
          [
            31.4288333,
            26.9058127
          ],
          [
            31.4271997,
            26.9076121
          ],
          [
            31.4261668,
            26.9074622
          ],
          [
            31.4254701,
            26.9086618
          ],
          [
            31.4228035,
            26.9076764
          ],
          [
            31.4245092,
            26.9054271
          ],
          [
            31.4191521,
            26.9032634
          ],
          [
            31.4198487,
            26.9023636
          ],
          [
            31.4175304,
            26.9013567
          ],
          [
            31.4195003,
            26.8983146
          ],
          [
            31.4159449,
            26.8964507
          ],
          [
            31.4150801,
            26.8969006
          ],
          [
            31.4059514,
            26.8975005
          ],
          [
            31.4058793,
            26.898486
          ],
          [
            31.4166416,
            26.9025778
          ],
          [
            31.4157228,
            26.9044829
          ],
          [
            31.4189899,
            26.905854
          ],
          [
            31.4183083,
            26.9072787
          ],
          [
            31.4146111,
            26.9060729
          ],
          [
            31.4120853,
            26.9104417
          ],
          [
            31.4058657,
            26.9101721
          ],
          [
            31.4069906,
            26.9072412
          ],
          [
            31.3998232,
            26.9053693
          ],
          [
            31.3958518,
            26.9016422
          ],
          [
            31.391089,
            26.898507
          ],
          [
            31.3910606,
            26.8972927
          ],
          [
            31.3819348,
            26.8918118
          ],
          [
            31.3875638,
            26.8851297
          ],
          [
            31.3824502,
            26.8816294
          ],
          [
            31.3803096,
            26.8854833
          ],
          [
            31.3786446,
            26.8848822
          ],
          [
            31.3773365,
            26.8838922
          ],
          [
            31.3752355,
            26.8872157
          ],
          [
            31.3708354,
            26.8852358
          ],
          [
            31.3697651,
            26.8844933
          ],
          [
            31.3666512,
            26.8910729
          ],
          [
            31.3666512,
            26.8910729
          ],
          [
            31.3628457,
            26.8889516
          ],
          [
            31.3634069,
            26.8874498
          ],
          [
            31.3632797,
            26.8872896
          ],
          [
            31.3634593,
            26.886829
          ],
          [
            31.3597396,
            26.8847997
          ],
          [
            31.3550786,
            26.8821547
          ],
          [
            31.3587772,
            26.8755565
          ],
          [
            31.3590466,
            26.8745351
          ],
          [
            31.3543869,
            26.8726563
          ],
          [
            31.3547537,
            26.8719753
          ],
          [
            31.3479432,
            26.8686019
          ],
          [
            31.3476663,
            26.8690225
          ],
          [
            31.3450453,
            26.8682851
          ],
          [
            31.343817,
            26.8675549
          ],
          [
            31.3439592,
            26.8671676
          ],
          [
            31.3418687,
            26.8658331
          ],
          [
            31.3395711,
            26.8635831
          ],
          [
            31.3382853,
            26.8628301
          ],
          [
            31.3378287,
            26.8633108
          ],
          [
            31.3355413,
            26.8620671
          ],
          [
            31.3353841,
            26.8622674
          ],
          [
            31.3350249,
            26.8620804
          ],
          [
            31.3348677,
            26.862214
          ],
          [
            31.3323928,
            26.8606358
          ],
          [
            31.331901,
            26.8604293
          ],
          [
            31.3321073,
            26.8581578
          ],
          [
            31.3302378,
            26.8579216
          ],
          [
            31.2900913,
            26.8333285
          ],
          [
            31.3338441,
            26.7786255
          ],
          [
            31.3560678,
            26.752803
          ],
          [
            31.3736512,
            26.7281977
          ],
          [
            31.3686641,
            26.7180054
          ],
          [
            31.3756247,
            26.7123877
          ],
          [
            31.3825854,
            26.7126059
          ],
          [
            31.3858215,
            26.7124968
          ],
          [
            31.3914999,
            26.7040425
          ],
          [
            31.3782767,
            26.691386
          ],
          [
            31.3816959,
            26.6888766
          ],
          [
            31.3865188,
            26.6888752
          ],
          [
            31.3923193,
            26.692312
          ],
          [
            31.3928688,
            26.6911664
          ],
          [
            31.3914034,
            26.689639
          ],
          [
            31.3955554,
            26.6868022
          ],
          [
            31.4048363,
            26.6931303
          ],
          [
            31.4065009,
            26.6913211
          ],
          [
            31.4057071,
            26.6909392
          ],
          [
            31.4054629,
            26.6906664
          ],
          [
            31.4065619,
            26.6890844
          ],
          [
            31.4058292,
            26.6879933
          ],
          [
            31.4041196,
            26.6877751
          ],
          [
            31.4042417,
            26.6854839
          ],
          [
            31.3981969,
            26.6825379
          ],
          [
            31.3994792,
            26.6812285
          ],
          [
            31.4052797,
            26.6830289
          ],
          [
            31.4047302,
            26.6817195
          ],
          [
            31.4020436,
            26.6794827
          ],
          [
            31.4037532,
            26.6770821
          ],
          [
            31.4063788,
            26.678828
          ],
          [
            31.4080273,
            26.6777914
          ],
          [
            31.4096759,
            26.679319
          ],
          [
            31.4096759,
            26.6808466
          ],
          [
            31.4115687,
            26.6810103
          ],
          [
            31.4123625,
            26.6790462
          ],
          [
            31.4096148,
            26.6757727
          ],
          [
            31.4109581,
            26.6744633
          ],
          [
            31.4118129,
            26.6728809
          ],
          [
            31.4107139,
            26.6711896
          ],
          [
            31.4079662,
            26.6696618
          ],
          [
            31.4069282,
            26.6674247
          ],
          [
            31.4063787,
            26.6652967
          ],
          [
            31.4061955,
            26.6644237
          ],
          [
            31.4073557,
            26.66426
          ],
          [
            31.4137668,
            26.6674793
          ],
          [
            31.4135836,
            26.6655696
          ],
          [
            31.4110802,
            26.6637689
          ],
          [
            31.4114466,
            26.6633324
          ],
          [
            31.4135226,
            26.6626776
          ],
          [
            31.4114466,
            26.6610406
          ],
          [
            31.412912,
            26.6600584
          ],
          [
            31.4130341,
            26.6591854
          ],
          [
            31.4124846,
            26.6583669
          ],
          [
            31.4118129,
            26.6576029
          ],
          [
            31.4112634,
            26.6569481
          ],
          [
            31.4123014,
            26.6565661
          ],
          [
            31.4131562,
            26.6568935
          ],
          [
            31.4157207,
            26.6579849
          ],
          [
            31.4170028,
            26.6550382
          ],
          [
            31.4121182,
            26.6517094
          ],
          [
            31.4113244,
            26.6496357
          ],
          [
            31.4127898,
            26.6480531
          ],
          [
            31.4144994,
            26.6473982
          ],
          [
            31.4155985,
            26.6465796
          ],
          [
            31.4171249,
            26.6454881
          ],
          [
            31.4179798,
            26.6444512
          ],
          [
            31.4184682,
            26.6435234
          ],
          [
            31.4193841,
            26.6437417
          ],
          [
            31.4207274,
            26.6443421
          ],
          [
            31.4218875,
            26.6452698
          ],
          [
            31.4229255,
            26.6442875
          ],
          [
            31.4215211,
            26.642814
          ],
          [
            31.4228644,
            26.6406855
          ],
          [
            31.422437,
            26.6399215
          ],
          [
            31.4232308,
            26.6386116
          ],
          [
            31.4260395,
            26.6391574
          ],
          [
            31.4275049,
            26.6411221
          ],
          [
            31.4281822,
            26.6406516
          ],
          [
            31.4270946,
            26.638676
          ],
          [
            31.4289716,
            26.6375627
          ],
          [
            31.4298487,
            26.6385348
          ],
          [
            31.4337535,
            26.6366363
          ],
          [
            31.4334904,
            26.6360248
          ],
          [
            31.4363673,
            26.6347704
          ],
          [
            31.4380021,
            26.636724
          ],
          [
            31.4398791,
            26.6376962
          ],
          [
            31.4406685,
            26.6390603
          ],
          [
            31.4439137,
            26.6408164
          ],
          [
            31.4450364,
            26.6386526
          ],
          [
            31.4479834,
            26.6386997
          ],
          [
            31.4492815,
            26.6348737
          ],
          [
            31.4533337,
            26.6331489
          ],
          [
            31.4683794,
            26.6236852
          ],
          [
            31.4710142,
            26.6189742
          ],
          [
            31.4646126,
            26.6137646
          ],
          [
            31.6427199,
            26.4222032
          ],
          [
            31.6422136,
            26.416815
          ],
          [
            31.6472362,
            26.4177146
          ],
          [
            31.6859658,
            26.3771247
          ],
          [
            31.6768136,
            26.3724249
          ],
          [
            31.6780452,
            26.3709751
          ],
          [
            31.6781388,
            26.3701364
          ],
          [
            31.6768047,
            26.3692556
          ],
          [
            31.675143,
            26.3698847
          ],
          [
            31.6724046,
            26.3680394
          ],
          [
            31.6744408,
            26.3672006
          ],
          [
            31.6761728,
            26.3683749
          ],
          [
            31.6783538,
            26.3654545
          ],
          [
            31.6823794,
            26.3632945
          ],
          [
            31.6835028,
            26.365098
          ],
          [
            31.6849071,
            26.3658529
          ],
          [
            31.6858667,
            26.3649931
          ],
          [
            31.6867561,
            26.3656852
          ],
          [
            31.6891668,
            26.3641963
          ],
          [
            31.6889328,
            26.3632107
          ],
          [
            31.6861476,
            26.362959
          ],
          [
            31.6857113,
            26.3597634
          ],
          [
            31.6917497,
            26.3596795
          ],
          [
            31.7003627,
            26.3568064
          ],
          [
            31.7019308,
            26.3567854
          ],
          [
            31.7060969,
            26.3555061
          ],
          [
            31.7651855,
            26.2923709
          ],
          [
            31.7715351,
            26.2882593
          ],
          [
            31.7821179,
            26.2692813
          ],
          [
            31.7955227,
            26.2563111
          ],
          [
            31.8269182,
            26.2319487
          ],
          [
            31.8424599,
            26.2207434
          ],
          [
            31.8566151,
            26.2067202
          ],
          [
            31.8794475,
            26.1836072
          ],
          [
            31.8988751,
            26.1636191
          ],
          [
            31.9360941,
            26.1197825
          ],
          [
            31.9465127,
            26.1269747
          ]
             ]
   ]
]

    }, 
      "type": "Feature", 
      "properties": {
        "source": "https://simplemaps.com", 
        "id": "EG", 
        "name": "Egypt"
      }, 
      "id": 1
      
    }
  ]
}